{
  "id": 2014686111,
  "type": "Feature",
  "properties": {
    "geom:area": 0,
    "geom:bbox": "-122.465260,36.727010,-121.561650,37.700050",
    "geom:latitude": 37.22217632085555,
    "geom:longitude": -122.10480878043977,
    "src:alt_label": "swim-takeoff",
    "src:geom": "swim",
    "swim:elevations": [
      244,
      691,
      862,
      1171,
      1283,
      1650,
      2438,
      2801,
      3408,
      3520,
      4062,
      4576,
      4734,
      5582,
      5870,
      6194,
      6671,
      6909,
      6978,
      7303,
      7751,
      8148,
      8359,
      8447,
      8731,
      8893,
      9054,
      9440,
      9449,
      9449
    ],
    "swim:geom": "takeoff",
    "swim:timestamps": [
      1769883112,
      1769883146,
      1769883160,
      1769883199,
      1769883214,
      1769883257,
      1769883298,
      1769883313,
      1769883355,
      1769883372,
      1769883409,
      1769883442,
      1769883451,
      1769883508,
      1769883529,
      1769883556,
      1769883595,
      1769883622,
      1769883631,
      1769883664,
      1769883707,
      1769883748,
      1769883775,
      1769883787,
      1769883835,
      1769883853,
      1769883876,
      1769883928,
      1769883949,
      1769883973
    ],
    "wof:geomhash": "a1dacf56a2a93b533fad686f20828d2e",
    "wof:id": 2014686111,
    "wof:repo": "sfomuseum-data-flights-2026-01"
  },
  "bbox": [
    -122.46526,
    36.72701,
    -121.56165,
    37.70005
  ],
  "geometry": {"coordinates":[[-122.37006,37.62733],[-122.36691,37.64854],[-122.36502,37.65747],[-122.36151,37.68491],[-122.36805,37.69723],[-122.41776,37.70005],[-122.43662,37.65212],[-122.43995,37.6332],[-122.45255,37.57999],[-122.45837,37.55655],[-122.46526,37.4976],[-122.42886,37.45193],[-122.41536,37.44084],[-122.33106,37.37116],[-122.29971,37.3451],[-122.25837,37.31081],[-122.19864,37.26113],[-122.15611,37.22561],[-122.14165,37.21356],[-122.08797,37.16872],[-122.0185,37.11031],[-121.95083,37.05354],[-121.9067,37.01611],[-121.88638,36.99911],[-121.80332,36.93021],[-121.77215,36.90433],[-121.73259,36.87123],[-121.64043,36.7942],[-121.60309,36.76257],[-121.56165,36.72701]],"type":"LineString"}
}
