{
  "id": 2014686067,
  "type": "Feature",
  "properties": {
    "geom:area": 0,
    "geom:bbox": "-122.386300,37.628940,-121.254910,38.420040",
    "geom:latitude": 38.08356775459858,
    "geom:longitude": -121.93018317127999,
    "src:alt_label": "swim-takeoff",
    "src:geom": "swim",
    "swim:elevations": [
      122,
      468,
      1012,
      1261,
      1580,
      1787,
      2621,
      2962,
      3286,
      3506,
      3998,
      4209,
      4826,
      5233,
      5448,
      5616,
      5986,
      6387,
      6811,
      6927,
      7412,
      7552,
      7993,
      8222,
      8391,
      8614,
      8819,
      8903
    ],
    "swim:geom": "takeoff",
    "swim:timestamps": [
      1769922354,
      1769922373,
      1769922414,
      1769922448,
      1769922477,
      1769922490,
      1769922536,
      1769922560,
      1769922593,
      1769922620,
      1769922656,
      1769922671,
      1769922715,
      1769922745,
      1769922760,
      1769922781,
      1769922820,
      1769922858,
      1769922897,
      1769922906,
      1769922951,
      1769922966,
      1769923017,
      1769923044,
      1769923065,
      1769923101,
      1769923131,
      1769923140
    ],
    "wof:geomhash": "eedfb650de73d4ec6d5c0c9888736dc2",
    "wof:id": 2014686067,
    "wof:repo": "sfomuseum-data-flights-2026-01"
  },
  "bbox": [
    -122.3863,
    37.62894,
    -121.25491,
    38.42004
  ],
  "geometry": {"coordinates":[[-122.36611,37.62894],[-122.35558,37.64209],[-122.32536,37.66547],[-122.31083,37.69508],[-122.32526,37.72653],[-122.33385,37.74137],[-122.36084,37.79509],[-122.37411,37.82353],[-122.3863,37.86753],[-122.38302,37.90979],[-122.34133,37.95848],[-122.3119,37.96965],[-122.22453,38.00403],[-122.16429,38.02865],[-122.13391,38.04107],[-122.09035,38.05837],[-122.00638,38.09163],[-121.92198,38.12545],[-121.83242,38.1614],[-121.81149,38.1698],[-121.70429,38.21248],[-121.66855,38.22666],[-121.54571,38.27463],[-121.47927,38.3008],[-121.42727,38.32121],[-121.34367,38.36473],[-121.27576,38.40743],[-121.25491,38.42004]],"type":"LineString"}
}
