{
  "id": 2014684595,
  "type": "Feature",
  "properties": {
    "geom:area": 0,
    "geom:bbox": "-123.210600,37.631120,-122.404580,38.496310",
    "geom:latitude": 38.008817917282464,
    "geom:longitude": -122.86166330666562,
    "src:alt_label": "swim-takeoff",
    "src:geom": "swim",
    "swim:elevations": [
      275,
      769,
      916,
      884,
      1083,
      1466,
      1885,
      2354,
      2629,
      3092,
      3241,
      3465,
      3635,
      3775,
      4384,
      4687,
      4951,
      5335,
      5532,
      5912,
      6139,
      6156,
      6303,
      6732
    ],
    "swim:geom": "takeoff",
    "swim:timestamps": [
      1769862702,
      1769862743,
      1769862777,
      1769862792,
      1769862821,
      1769862852,
      1769862885,
      1769862922,
      1769862946,
      1769862981,
      1769863000,
      1769863038,
      1769863066,
      1769863083,
      1769863133,
      1769863162,
      1769863186,
      1769863224,
      1769863249,
      1769863288,
      1769863317,
      1769863320,
      1769863353,
      1769863401
    ],
    "wof:geomhash": "0f0e7469cd079277f1c50eedbff54780",
    "wof:id": 2014684595,
    "wof:repo": "sfomuseum-data-flights-2026-01"
  },
  "bbox": [
    -123.2106,
    37.63112,
    -122.40458,
    38.49631
  ],
  "geometry": {"coordinates":[[-122.40458,37.63112],[-122.44844,37.65062],[-122.48953,37.66862],[-122.5088,37.67786],[-122.54432,37.69876],[-122.58405,37.72226],[-122.62678,37.74748],[-122.67446,37.77541],[-122.70688,37.7945],[-122.75193,37.82245],[-122.77215,37.84222],[-122.81064,37.8881],[-122.84292,37.92743],[-122.86215,37.95089],[-122.92391,38.02535],[-122.95962,38.06797],[-122.99088,38.10525],[-123.03025,38.16855],[-123.05373,38.21189],[-123.09241,38.28295],[-123.12089,38.33526],[-123.12389,38.34078],[-123.15657,38.40106],[-123.2106,38.49631]],"type":"LineString"}
}
