{
  "id": 2014682519,
  "type": "Feature",
  "properties": {
    "geom:area": 0,
    "geom:bbox": "-122.852780,37.426870,-122.143700,38.515470",
    "geom:latitude": 37.84043071741169,
    "geom:longitude": -122.51417025662607,
    "src:alt_label": "swim-approach",
    "src:geom": "swim",
    "swim:elevations": [
      7801,
      7562,
      7193,
      7115,
      6774,
      6353,
      6122,
      6015,
      5801,
      5616,
      5475,
      5087,
      4747,
      4612,
      4528,
      4285,
      3970,
      3742,
      3550,
      3437,
      3355,
      3353,
      3353,
      3353,
      3353,
      3353,
      3353,
      3248,
      2956,
      2770,
      2606,
      2323,
      2190,
      1799,
      1687,
      1622,
      1247,
      1151,
      993,
      914,
      914,
      914,
      817,
      625,
      468,
      343,
      226,
      148,
      54
    ],
    "swim:geom": "approach",
    "swim:timestamps": [
      1769849690,
      1769849717,
      1769849756,
      1769849763,
      1769849798,
      1769849843,
      1769849868,
      1769849880,
      1769849906,
      1769849927,
      1769849946,
      1769849990,
      1769850024,
      1769850041,
      1769850050,
      1769850079,
      1769850114,
      1769850138,
      1769850162,
      1769850182,
      1769850204,
      1769850212,
      1769850229,
      1769850251,
      1769850282,
      1769850307,
      1769850336,
      1769850360,
      1769850407,
      1769850439,
      1769850462,
      1769850504,
      1769850522,
      1769850561,
      1769850572,
      1769850581,
      1769850624,
      1769850643,
      1769850665,
      1769850699,
      1769850709,
      1769850732,
      1769850765,
      1769850804,
      1769850836,
      1769850863,
      1769850893,
      1769850917,
      1769850935
    ],
    "wof:geomhash": "3d3b2fa5f3024d5530d60baf72322e53",
    "wof:id": 2014682519,
    "wof:repo": "sfomuseum-data-flights-2026-01"
  },
  "bbox": [
    -122.85278,
    37.42687,
    -122.1437,
    38.51547
  ],
  "geometry": {"coordinates":[[-122.85278,38.51547],[-122.83976,38.47126],[-122.82104,38.40767],[-122.81727,38.39503],[-122.80083,38.33843],[-122.77988,38.26669],[-122.76808,38.2262],[-122.76276,38.2082],[-122.75054,38.16613],[-122.74077,38.13242],[-122.73205,38.10272],[-122.71195,38.03333],[-122.69658,37.9801],[-122.68935,37.95537],[-122.68538,37.94183],[-122.66869,37.8995],[-122.62753,37.85623],[-122.59824,37.8285],[-122.56876,37.80079],[-122.54485,37.77805],[-122.51945,37.75396],[-122.51067,37.74576],[-122.49362,37.7299],[-122.47328,37.71097],[-122.4446,37.68408],[-122.42212,37.66284],[-122.39543,37.63764],[-122.37325,37.61658],[-122.34099,37.56987],[-122.32504,37.5366],[-122.31099,37.51365],[-122.28625,37.47349],[-122.27598,37.45692],[-122.23795,37.43206],[-122.22313,37.42916],[-122.21175,37.42687],[-122.15868,37.42837],[-122.14554,37.44487],[-122.1437,37.46867],[-122.15112,37.50032],[-122.15859,37.50803],[-122.17459,37.52498],[-122.20108,37.54601],[-122.2393,37.56177],[-122.26878,37.5741],[-122.29396,37.58472],[-122.31873,37.59504],[-122.33788,37.60317],[-122.35259,37.60929]],"type":"LineString"}
}
