{
  "id": 2014683227,
  "type": "Feature",
  "properties": {
    "geom:area": 0,
    "geom:bbox": "-122.386290,37.634390,-121.283900,37.991520",
    "geom:latitude": 37.93544887231029,
    "geom:longitude": -121.95200365490697,
    "src:alt_label": "swim-takeoff",
    "src:geom": "swim",
    "swim:elevations": [
      347,
      498,
      788,
      870,
      1521,
      2103,
      2176,
      2613,
      2772,
      3004,
      3364,
      3441,
      3722,
      3852,
      4250,
      4284,
      4361,
      4783,
      4951,
      5307,
      5693,
      5965,
      6239,
      6409,
      6717,
      6993,
      7051,
      7282
    ],
    "swim:geom": "takeoff",
    "swim:timestamps": [
      1769925920,
      1769925932,
      1769925980,
      1769925995,
      1769926039,
      1769926075,
      1769926081,
      1769926108,
      1769926120,
      1769926141,
      1769926192,
      1769926204,
      1769926240,
      1769926253,
      1769926288,
      1769926291,
      1769926297,
      1769926336,
      1769926351,
      1769926381,
      1769926423,
      1769926462,
      1769926495,
      1769926519,
      1769926558,
      1769926585,
      1769926591,
      1769926624
    ],
    "wof:geomhash": "b1677a5c833fd832648cab1a7ff78328",
    "wof:id": 2014683227,
    "wof:repo": "sfomuseum-data-flights-2026-01"
  },
  "bbox": [
    -122.38629,
    37.63439,
    -121.2839,
    37.99152
  ],
  "geometry": {"coordinates":[[-122.36118,37.63439],[-122.35364,37.64135],[-122.3167,37.6749],[-122.31102,37.69124],[-122.33355,37.74109],[-122.35586,37.78279],[-122.35885,37.7889],[-122.37448,37.82055],[-122.38162,37.8347],[-122.38629,37.86259],[-122.36054,37.93505],[-122.3403,37.94715],[-122.26296,37.96531],[-122.23424,37.97097],[-122.15325,37.98633],[-122.14615,37.98707],[-122.13185,37.98806],[-122.0378,37.98903],[-122.00095,37.98929],[-121.92608,37.98976],[-121.82164,37.99035],[-121.72393,37.99076],[-121.63607,37.99097],[-121.57021,37.99118],[-121.46509,37.99136],[-121.39122,37.99146],[-121.37491,37.99145],[-121.2839,37.99152]],"type":"LineString"}
}
