{
  "id": 2014685231,
  "type": "Feature",
  "properties": {
    "geom:area": 0,
    "geom:bbox": "-122.366030,37.628670,-121.427790,38.518630",
    "geom:latitude": 38.070531210732824,
    "geom:longitude": -121.89539659988752,
    "src:alt_label": "swim-takeoff",
    "src:geom": "swim",
    "swim:elevations": [
      152,
      299,
      728,
      899,
      1162,
      1673,
      1861,
      2538,
      2677,
      2940,
      3180,
      3525,
      3860,
      4373,
      4585,
      4806,
      5134,
      5344,
      5627,
      5774,
      6000,
      6160,
      6306,
      6345,
      6481,
      6540,
      6601
    ],
    "swim:geom": "takeoff",
    "swim:timestamps": [
      1769862382,
      1769862392,
      1769862448,
      1769862476,
      1769862496,
      1769862529,
      1769862542,
      1769862597,
      1769862609,
      1769862633,
      1769862661,
      1769862696,
      1769862723,
      1769862777,
      1769862798,
      1769862821,
      1769862852,
      1769862873,
      1769862916,
      1769862933,
      1769862965,
      1769862994,
      1769863038,
      1769863057,
      1769863106,
      1769863122,
      1769863143
    ],
    "wof:geomhash": "14cb18a00ed004192e063ae94420d847",
    "wof:id": 2014685231,
    "wof:repo": "sfomuseum-data-flights-2026-01"
  },
  "bbox": [
    -122.36603,
    37.62867,
    -121.42779,
    38.51863
  ],
  "geometry": {"coordinates":[[-122.36603,37.62867],[-122.36101,37.63574],[-122.3097,37.66717],[-122.27487,37.68601],[-122.24834,37.70086],[-122.20665,37.72647],[-122.19339,37.73998],[-122.14092,37.79871],[-122.12919,37.81244],[-122.10541,37.83956],[-122.07637,37.87173],[-122.03646,37.9148],[-122.00675,37.94724],[-121.94379,38.01644],[-121.91893,38.04367],[-121.89256,38.07267],[-121.85457,38.11435],[-121.82991,38.14136],[-121.77756,38.19865],[-121.75622,38.22191],[-121.71584,38.26578],[-121.67823,38.3066],[-121.61921,38.37071],[-121.59125,38.40094],[-121.50648,38.47108],[-121.472,38.49144],[-121.42779,38.51863]],"type":"LineString"}
}
