{
  "id": 2014681837,
  "type": "Feature",
  "properties": {
    "geom:area": 0,
    "geom:bbox": "-122.359910,37.491640,-121.244030,37.614820",
    "geom:latitude": 37.5471823676619,
    "geom:longitude": -121.8069906188542,
    "src:alt_label": "swim-approach",
    "src:geom": "swim",
    "swim:elevations": [
      4857,
      4455,
      4241,
      4064,
      3679,
      3444,
      3232,
      3065,
      2888,
      2662,
      2561,
      2428,
      2254,
      2101,
      1919,
      1832,
      1813,
      1685,
      1437,
      1186,
      1160,
      863,
      733,
      531,
      425,
      273,
      140,
      67,
      160
    ],
    "swim:geom": "approach",
    "swim:timestamps": [
      1769862558,
      1769862597,
      1769862619,
      1769862636,
      1769862677,
      1769862702,
      1769862743,
      1769862777,
      1769862798,
      1769862830,
      1769862852,
      1769862885,
      1769862910,
      1769862933,
      1769862981,
      1769863000,
      1769863006,
      1769863027,
      1769863066,
      1769863106,
      1769863110,
      1769863162,
      1769863186,
      1769863224,
      1769863245,
      1769863282,
      1769863317,
      1769863337,
      1769863356
    ],
    "wof:geomhash": "32cbff421184efd1a587b8504839771c",
    "wof:id": 2014681837,
    "wof:repo": "sfomuseum-data-flights-2026-01"
  },
  "bbox": [
    -122.35991,
    37.49164,
    -121.24403,
    37.61482
  ],
  "geometry": {"coordinates":[[-121.24403,37.59543],[-121.32073,37.58603],[-121.36246,37.5814],[-121.39564,37.57759],[-121.47166,37.56877],[-121.5172,37.56351],[-121.59075,37.55491],[-121.64571,37.54599],[-121.67884,37.53792],[-121.72932,37.52598],[-121.76379,37.51776],[-121.8122,37.50609],[-121.84849,37.49741],[-121.88262,37.49164],[-121.95349,37.49305],[-121.98009,37.49427],[-121.98884,37.49586],[-122.01542,37.50368],[-122.06797,37.52069],[-122.11849,37.53706],[-122.12377,37.53879],[-122.18663,37.55919],[-122.21372,37.56795],[-122.25427,37.58098],[-122.27493,37.58711],[-122.30557,37.59617],[-122.33266,37.60414],[-122.34682,37.60908],[-122.35991,37.61482]],"type":"LineString"}
}
