{
  "id": 2014685601,
  "type": "Feature",
  "properties": {
    "geom:area": 0,
    "geom:bbox": "-123.337440,37.629090,-122.399360,38.515720",
    "geom:latitude": 38.03143659207305,
    "geom:longitude": -122.90127641216213,
    "src:alt_label": "swim-takeoff",
    "src:geom": "swim",
    "swim:elevations": [
      263,
      554,
      609,
      728,
      1169,
      1513,
      1651,
      1787,
      2225,
      2248,
      2599,
      3058,
      3351,
      3602,
      3753,
      4038,
      4231,
      4627,
      4922,
      5125,
      5158,
      5309,
      5622,
      5779,
      5889,
      6187,
      6340,
      6492
    ],
    "swim:geom": "takeoff",
    "swim:timestamps": [
      1769891783,
      1769891809,
      1769891830,
      1769891855,
      1769891898,
      1769891924,
      1769891947,
      1769891977,
      1769892028,
      1769892031,
      1769892073,
      1769892112,
      1769892139,
      1769892160,
      1769892178,
      1769892205,
      1769892226,
      1769892262,
      1769892296,
      1769892321,
      1769892327,
      1769892348,
      1769892388,
      1769892415,
      1769892432,
      1769892472,
      1769892484,
      1769892515
    ],
    "wof:geomhash": "a0ae366fd3371ea8217b985ddbf7d115",
    "wof:id": 2014685601,
    "wof:repo": "sfomuseum-data-flights-2026-01"
  },
  "bbox": [
    -123.33744,
    37.62909,
    -122.39936,
    38.51572
  ],
  "geometry": {"coordinates":[[-122.39936,37.62909],[-122.42314,37.63969],[-122.44431,37.64902],[-122.47261,37.66127],[-122.52744,37.68855],[-122.5572,37.70658],[-122.58573,37.72335],[-122.62533,37.74653],[-122.70371,37.79271],[-122.70837,37.79543],[-122.7707,37.83898],[-122.81543,37.8945],[-122.84713,37.9328],[-122.8721,37.96275],[-122.8935,37.9887],[-122.92625,38.02824],[-122.95227,38.05935],[-122.99711,38.11306],[-123.04026,38.16457],[-123.07199,38.20231],[-123.07975,38.21158],[-123.10732,38.24433],[-123.16069,38.30809],[-123.19726,38.35138],[-123.22099,38.37897],[-123.27639,38.445],[-123.29308,38.46464],[-123.33744,38.51572]],"type":"LineString"}
}
