{
  "id": 2014686113,
  "type": "Feature",
  "properties": {
    "geom:area": 0,
    "geom:bbox": "-122.365810,37.629280,-121.253120,38.262310",
    "geom:latitude": 37.98214371416884,
    "geom:longitude": -121.8284548894076,
    "src:alt_label": "swim-takeoff",
    "src:geom": "swim",
    "swim:elevations": [
      213,
      681,
      1139,
      1531,
      1627,
      2165,
      2665,
      2896,
      3236,
      3318,
      3504,
      3721,
      4140,
      4513,
      4730,
      5425,
      5652,
      6006,
      6536,
      6854,
      7144,
      7257,
      7678,
      7837
    ],
    "swim:geom": "takeoff",
    "swim:timestamps": [
      1769882181,
      1769882210,
      1769882244,
      1769882275,
      1769882281,
      1769882321,
      1769882347,
      1769882359,
      1769882380,
      1769882387,
      1769882413,
      1769882448,
      1769882478,
      1769882508,
      1769882523,
      1769882574,
      1769882595,
      1769882623,
      1769882667,
      1769882697,
      1769882724,
      1769882736,
      1769882784,
      1769882802
    ],
    "wof:geomhash": "2b1713f798503e150f97e10740e8c6a3",
    "wof:id": 2014686113,
    "wof:repo": "sfomuseum-data-flights-2026-01"
  },
  "bbox": [
    -122.36581,
    37.62928,
    -121.25312,
    38.26231
  ],
  "geometry": {"coordinates":[[-122.36581,37.62928],[-122.34713,37.64557],[-122.3172,37.66222],[-122.28515,37.67974],[-122.27844,37.68357],[-122.23092,37.71673],[-122.19903,37.74017],[-122.18387,37.75137],[-122.15677,37.77156],[-122.14775,37.77824],[-122.11069,37.8057],[-122.05374,37.84841],[-122.0002,37.88806],[-121.94536,37.92875],[-121.9171,37.94944],[-121.81906,38.0221],[-121.77759,38.05272],[-121.72149,38.09394],[-121.61269,38.13766],[-121.53424,38.16275],[-121.46356,38.18781],[-121.43207,38.19945],[-121.30269,38.24628],[-121.25312,38.26231]],"type":"LineString"}
}
