{
  "id": 2014686363,
  "type": "Feature",
  "properties": {
    "geom:area": 0,
    "geom:bbox": "-123.497820,37.413770,-122.393500,37.670000",
    "geom:latitude": 37.555726267811444,
    "geom:longitude": -122.9439407820597,
    "src:alt_label": "swim-takeoff",
    "src:geom": "swim",
    "swim:elevations": [
      183,
      725,
      920,
      1110,
      1277,
      1638,
      1738,
      1983,
      2572,
      2846,
      3017,
      3291,
      3306,
      3516,
      4067,
      4258,
      4469,
      4829,
      5292,
      5449,
      5747,
      5954,
      6265,
      6395
    ],
    "swim:geom": "takeoff",
    "swim:timestamps": [
      1769903709,
      1769903758,
      1769903779,
      1769903800,
      1769903836,
      1769903874,
      1769903880,
      1769903897,
      1769903937,
      1769903961,
      1769903973,
      1769904028,
      1769904034,
      1769904063,
      1769904111,
      1769904132,
      1769904155,
      1769904188,
      1769904238,
      1769904253,
      1769904298,
      1769904319,
      1769904355,
      1769904370
    ],
    "wof:geomhash": "ab31e8deb9ac7df7b8ccfe1de93b3daa",
    "wof:id": 2014686363,
    "wof:repo": "sfomuseum-data-flights-2026-01"
  },
  "bbox": [
    -123.49782,
    37.41377,
    -122.3935,
    37.67
  ],
  "geometry": {"coordinates":[[-122.3935,37.6265],[-122.43868,37.64648],[-122.46034,37.65555],[-122.4817,37.6651],[-122.52686,37.67],[-122.58066,37.65556],[-122.5894,37.65306],[-122.61544,37.64601],[-122.67476,37.63075],[-122.71045,37.62132],[-122.72848,37.61675],[-122.81733,37.5932],[-122.82807,37.59038],[-122.88196,37.5764],[-122.97378,37.55242],[-123.01294,37.54228],[-123.05809,37.53049],[-123.12348,37.51317],[-123.2249,37.48639],[-123.25518,37.47829],[-123.34745,37.45348],[-123.39116,37.44197],[-123.46637,37.42214],[-123.49782,37.41377]],"type":"LineString"}
}
