{
  "id": 2014684307,
  "type": "Feature",
  "properties": {
    "geom:area": 0,
    "geom:bbox": "-122.471160,37.191010,-121.247960,37.718600",
    "geom:latitude": 37.39139920665363,
    "geom:longitude": -121.99237666426139,
    "src:alt_label": "swim-takeoff",
    "src:geom": "swim",
    "swim:elevations": [
      152,
      274,
      539,
      673,
      1053,
      1321,
      1832,
      2332,
      2829,
      3016,
      3287,
      3743,
      4020,
      4348,
      4568,
      5099,
      5436,
      5744,
      5981,
      6047,
      6433,
      6630,
      6833,
      7172,
      7447,
      7647,
      7892,
      7947,
      8167,
      8393,
      8462
    ],
    "swim:geom": "takeoff",
    "swim:timestamps": [
      1769866046,
      1769866054,
      1769866091,
      1769866115,
      1769866156,
      1769866177,
      1769866213,
      1769866249,
      1769866282,
      1769866294,
      1769866326,
      1769866372,
      1769866395,
      1769866425,
      1769866444,
      1769866487,
      1769866522,
      1769866551,
      1769866581,
      1769866590,
      1769866642,
      1769866666,
      1769866689,
      1769866726,
      1769866764,
      1769866791,
      1769866827,
      1769866836,
      1769866873,
      1769866909,
      1769866921
    ],
    "wof:geomhash": "984e3185a356667036b21617f79f9271",
    "wof:id": 2014684307,
    "wof:repo": "sfomuseum-data-flights-2026-01"
  },
  "bbox": [
    -122.47116,
    37.19101,
    -121.24796,
    37.7186
  ],
  "geometry": {"coordinates":[[-122.36892,37.62894],[-122.36535,37.63456],[-122.36289,37.66549],[-122.36332,37.69],[-122.40935,37.7186],[-122.4388,37.71008],[-122.45816,37.6701],[-122.46205,37.62554],[-122.46558,37.58303],[-122.46698,37.56779],[-122.47116,37.52559],[-122.43488,37.46711],[-122.39829,37.44575],[-122.34923,37.41883],[-122.31208,37.40648],[-122.22334,37.38861],[-122.1518,37.37454],[-122.09131,37.36281],[-122.02941,37.35043],[-122.01151,37.34681],[-121.89559,37.32331],[-121.84155,37.31234],[-121.78993,37.3019],[-121.70706,37.28516],[-121.61874,37.26717],[-121.55625,37.25433],[-121.47166,37.23674],[-121.45209,37.23316],[-121.36392,37.21472],[-121.27574,37.19645],[-121.24796,37.19101]],"type":"LineString"}
}
