{
  "id": 2014682371,
  "type": "Feature",
  "properties": {
    "geom:area": 0,
    "geom:bbox": "-122.358090,36.730770,-121.883950,37.611520",
    "geom:latitude": 37.213097764132726,
    "geom:longitude": -122.07151399870183,
    "src:alt_label": "swim-approach",
    "src:geom": "swim",
    "swim:elevations": [
      5017,
      4721,
      4455,
      4227,
      3804,
      3630,
      3336,
      3196,
      3123,
      3006,
      2865,
      2820,
      2587,
      2406,
      2271,
      1965,
      1758,
      1698,
      1645,
      1524,
      1308,
      989,
      906,
      700,
      585,
      572,
      487,
      345,
      269,
      55,
      35
    ],
    "swim:geom": "approach",
    "swim:timestamps": [
      1769850784,
      1769850817,
      1769850848,
      1769850875,
      1769850924,
      1769850944,
      1769850980,
      1769850996,
      1769851028,
      1769851067,
      1769851087,
      1769851095,
      1769851136,
      1769851164,
      1769851181,
      1769851220,
      1769851253,
      1769851262,
      1769851277,
      1769851301,
      1769851334,
      1769851376,
      1769851388,
      1769851421,
      1769851435,
      1769851440,
      1769851458,
      1769851483,
      1769851502,
      1769851552,
      1769851560
    ],
    "wof:geomhash": "8420cf1a70a6cc08776c073b0ef3dcaf",
    "wof:id": 2014682371,
    "wof:repo": "sfomuseum-data-flights-2026-01"
  },
  "bbox": [
    -122.35809,
    36.73077,
    -121.88395,
    37.61152
  ],
  "geometry": {"coordinates":[[-121.88395,36.73077],[-121.90586,36.78456],[-121.92023,36.83578],[-121.93241,36.87855],[-121.95521,36.95718],[-121.96741,36.98804],[-121.98829,37.04223],[-121.9981,37.06734],[-122.01579,37.11262],[-122.03595,37.16405],[-122.04607,37.18928],[-122.05011,37.19949],[-122.06945,37.24881],[-122.08245,37.283],[-122.09049,37.30388],[-122.10926,37.35121],[-122.12539,37.39352],[-122.12922,37.40478],[-122.13512,37.42264],[-122.14422,37.44974],[-122.16046,37.48423],[-122.18868,37.52407],[-122.197,37.53614],[-122.22913,37.55626],[-122.24554,37.56327],[-122.25096,37.56581],[-122.26955,37.5744],[-122.29447,37.58457],[-122.31095,37.59148],[-122.35136,37.60878],[-122.35809,37.61152]],"type":"LineString"}
}
