{
  "id": 2014682557,
  "type": "Feature",
  "properties": {
    "geom:area": 0,
    "geom:bbox": "-122.357240,37.491350,-121.303270,37.613400",
    "geom:latitude": 37.5444337020877,
    "geom:longitude": -121.8349074091722,
    "src:alt_label": "swim-approach",
    "src:geom": "swim",
    "swim:elevations": [
      4537,
      4498,
      3936,
      3687,
      3489,
      3074,
      2915,
      2725,
      2546,
      2404,
      2257,
      2065,
      2011,
      1806,
      1711,
      1445,
      1408,
      1338,
      1125,
      1003,
      802,
      771,
      527,
      330,
      188,
      183,
      0
    ],
    "swim:geom": "approach",
    "swim:timestamps": [
      1769860256,
      1769860260,
      1769860315,
      1769860341,
      1769860360,
      1769860436,
      1769860464,
      1769860492,
      1769860516,
      1769860555,
      1769860578,
      1769860615,
      1769860625,
      1769860676,
      1769860694,
      1769860738,
      1769860744,
      1769860758,
      1769860797,
      1769860821,
      1769860856,
      1769860860,
      1769860906,
      1769860945,
      1769860976,
      1769860980,
      1769861020
    ],
    "wof:geomhash": "460d7fb28ec9579f2477be65f30b65d7",
    "wof:id": 2014682557,
    "wof:repo": "sfomuseum-data-flights-2026-01"
  },
  "bbox": [
    -122.35724,
    37.49135,
    -121.30327,
    37.6134
  ],
  "geometry": {"coordinates":[[-121.30327,37.58772],[-121.312,37.58685],[-121.41893,37.57491],[-121.46595,37.56924],[-121.50011,37.56543],[-121.63434,37.54836],[-121.67776,37.53812],[-121.72009,37.52803],[-121.75616,37.5195],[-121.81273,37.50579],[-121.84511,37.49807],[-121.89763,37.49135],[-121.91346,37.49184],[-121.98498,37.49473],[-122.00845,37.5011],[-122.06452,37.51929],[-122.07158,37.52155],[-122.08828,37.52705],[-122.13122,37.54124],[-122.15853,37.54999],[-122.19901,37.56315],[-122.20354,37.56467],[-122.25494,37.58109],[-122.2948,37.59284],[-122.32222,37.60099],[-122.32564,37.60205],[-122.35724,37.6134]],"type":"LineString"}
}
