{
  "id": 2014686005,
  "type": "Feature",
  "properties": {
    "geom:area": 0,
    "geom:bbox": "-122.360860,37.635750,-121.333460,37.949740",
    "geom:latitude": 37.830379897808015,
    "geom:longitude": -121.86042553881158,
    "src:alt_label": "swim-takeoff",
    "src:geom": "swim",
    "swim:elevations": [
      379,
      583,
      974,
      1418,
      1604,
      2266,
      3086,
      3202,
      3465,
      3740,
      4396,
      4772,
      5255,
      5534,
      5841,
      5917,
      6198,
      6601,
      6979
    ],
    "swim:geom": "takeoff",
    "swim:timestamps": [
      1769857396,
      1769857411,
      1769857444,
      1769857498,
      1769857516,
      1769857558,
      1769857617,
      1769857629,
      1769857656,
      1769857681,
      1769857737,
      1769857765,
      1769857797,
      1769857825,
      1769857852,
      1769857861,
      1769857890,
      1769857936,
      1769857971
    ],
    "wof:geomhash": "bf4bb4ab22ef4ae9911167edbd2acb34",
    "wof:id": 2014686005,
    "wof:repo": "sfomuseum-data-flights-2026-01"
  },
  "bbox": [
    -122.36086,
    37.63575,
    -121.33346,
    37.94974
  ],
  "geometry": {"coordinates":[[-122.36086,37.63575],[-122.34966,37.64349],[-122.32096,37.65837],[-122.26684,37.69056],[-122.24478,37.7025],[-122.18691,37.73218],[-122.10225,37.77578],[-122.08445,37.78512],[-122.04077,37.80802],[-121.99337,37.82692],[-121.87771,37.85006],[-121.8141,37.86189],[-121.74285,37.87499],[-121.68141,37.88632],[-121.62001,37.8976],[-121.60029,37.9012],[-121.53261,37.91351],[-121.42114,37.93382],[-121.33346,37.94974]],"type":"LineString"}
}
