{
  "id": 2014681189,
  "type": "Feature",
  "properties": {
    "geom:area": 0,
    "geom:bbox": "-122.759510,37.437900,-122.111230,38.480640",
    "geom:latitude": 37.84855528250475,
    "geom:longitude": -122.47910035802397,
    "src:alt_label": "swim-approach",
    "src:geom": "swim",
    "swim:elevations": [
      8382,
      7948,
      7585,
      7442,
      6892,
      6859,
      6495,
      6461,
      6396,
      6023,
      5583,
      5493,
      5274,
      5065,
      4835,
      4566,
      4234,
      3974,
      3692,
      3471,
      3396,
      3383,
      3353,
      3353,
      3353,
      3353,
      3057,
      3037,
      2745,
      2443,
      2266,
      1837,
      1669,
      1459,
      1371,
      1307,
      1130,
      946,
      914,
      828,
      668,
      611,
      441,
      290,
      183,
      68,
      0
    ],
    "swim:geom": "approach",
    "swim:timestamps": [
      1769895414,
      1769895448,
      1769895478,
      1769895490,
      1769895538,
      1769895541,
      1769895576,
      1769895587,
      1769895605,
      1769895643,
      1769895688,
      1769895697,
      1769895727,
      1769895748,
      1769895772,
      1769895800,
      1769895835,
      1769895866,
      1769895897,
      1769895927,
      1769895951,
      1769895960,
      1769895988,
      1769896009,
      1769896042,
      1769896050,
      1769896108,
      1769896111,
      1769896156,
      1769896187,
      1769896205,
      1769896253,
      1769896272,
      1769896308,
      1769896329,
      1769896348,
      1769896375,
      1769896405,
      1769896438,
      1769896463,
      1769896498,
      1769896507,
      1769896547,
      1769896585,
      1769896609,
      1769896640,
      1769896657
    ],
    "wof:geomhash": "80d83a3dc803fd146e6460ebe334a1b7",
    "wof:id": 2014681189,
    "wof:repo": "sfomuseum-data-flights-2026-01"
  },
  "bbox": [
    -122.75951,
    37.4379,
    -122.11123,
    38.48064
  ],
  "geometry": {"coordinates":[[-122.5145,38.48064],[-122.56218,38.43215],[-122.60414,38.38933],[-122.62036,38.37296],[-122.68376,38.30899],[-122.68767,38.30508],[-122.73229,38.26028],[-122.74525,38.24695],[-122.75951,38.22011],[-122.74916,38.16167],[-122.72998,38.0956],[-122.72618,38.08264],[-122.71377,38.03938],[-122.70505,38.00912],[-122.69496,37.97425],[-122.68335,37.93419],[-122.65799,37.88541],[-122.62064,37.84951],[-122.58263,37.81385],[-122.5472,37.78051],[-122.52033,37.75532],[-122.51056,37.74612],[-122.48121,37.71823],[-122.45954,37.69788],[-122.4257,37.66619],[-122.41768,37.65863],[-122.36102,37.60316],[-122.35869,37.60013],[-122.33376,37.55159],[-122.31304,37.52011],[-122.2927,37.50531],[-122.23621,37.46538],[-122.21381,37.44897],[-122.16057,37.4379],[-122.12929,37.44026],[-122.11123,37.45555],[-122.11752,37.4819],[-122.14368,37.50376],[-122.17207,37.52781],[-122.19511,37.54349],[-122.23041,37.55795],[-122.23915,37.56171],[-122.27521,37.57683],[-122.30618,37.58981],[-122.32543,37.59784],[-122.34989,37.60816],[-122.36348,37.61366]],"type":"LineString"}
}
