{
  "id": 2014682349,
  "type": "Feature",
  "properties": {
    "geom:area": 0,
    "geom:bbox": "-122.348270,36.742050,-121.890080,37.607420",
    "geom:latitude": 37.21511762599161,
    "geom:longitude": -122.07097545157863,
    "src:alt_label": "swim-approach",
    "src:geom": "swim",
    "swim:elevations": [
      5024,
      4855,
      4567,
      4206,
      4061,
      3926,
      3492,
      3200,
      3139,
      3106,
      2865,
      2697,
      2535,
      2426,
      2130,
      2019,
      1679,
      1502,
      1219,
      1219,
      1122,
      1008,
      829,
      568,
      364,
      285,
      177,
      79
    ],
    "swim:geom": "approach",
    "swim:timestamps": [
      1769875648,
      1769875666,
      1769875697,
      1769875736,
      1769875753,
      1769875770,
      1769875818,
      1769875858,
      1769875872,
      1769875890,
      1769875946,
      1769875970,
      1769875993,
      1769876012,
      1769876054,
      1769876070,
      1769876113,
      1769876130,
      1769876185,
      1769876204,
      1769876248,
      1769876268,
      1769876293,
      1769876330,
      1769876368,
      1769876385,
      1769876413,
      1769876441
    ],
    "wof:geomhash": "b2f7e1f4059f79a274788134b5f34f85",
    "wof:id": 2014682349,
    "wof:repo": "sfomuseum-data-flights-2026-01"
  },
  "bbox": [
    -122.34827,
    36.74205,
    -121.89008,
    37.60742
  ],
  "geometry": {"coordinates":[[-121.89008,36.74205],[-121.90256,36.77194],[-121.91753,36.82523],[-121.93553,36.88981],[-121.94329,36.91734],[-121.95075,36.9438],[-121.97884,37.01807],[-122.00238,37.07848],[-122.01052,37.09935],[-122.02019,37.12397],[-122.04839,37.19602],[-122.06031,37.2264],[-122.07188,37.25566],[-122.08117,37.27957],[-122.10134,37.33076],[-122.1092,37.35041],[-122.12699,37.39885],[-122.13332,37.41694],[-122.15492,37.47385],[-122.16475,37.49063],[-122.19037,37.52667],[-122.20137,37.54195],[-122.22387,37.55461],[-122.2582,37.5695],[-122.29154,37.58369],[-122.30579,37.58944],[-122.32687,37.59842],[-122.34827,37.60742]],"type":"LineString"}
}
