{
  "id": 2014682429,
  "type": "Feature",
  "properties": {
    "geom:area": 0,
    "geom:bbox": "-122.359770,37.491340,-121.283320,37.614980",
    "geom:latitude": 37.545594207782955,
    "geom:longitude": -121.82640038615757,
    "src:alt_label": "swim-approach",
    "src:geom": "swim",
    "swim:elevations": [
      4940,
      4480,
      4153,
      3920,
      3823,
      3707,
      3321,
      3224,
      3063,
      2920,
      2901,
      2515,
      2364,
      2093,
      1987,
      1949,
      1724,
      1679,
      1609,
      1469,
      1342,
      1134,
      1040,
      853,
      699,
      500,
      379,
      242,
      137,
      0
    ],
    "swim:geom": "approach",
    "swim:timestamps": [
      1769850617,
      1769850654,
      1769850683,
      1769850706,
      1769850715,
      1769850727,
      1769850771,
      1769850804,
      1769850836,
      1769850868,
      1769850871,
      1769850924,
      1769850944,
      1769850988,
      1769851015,
      1769851028,
      1769851077,
      1769851087,
      1769851099,
      1769851125,
      1769851152,
      1769851191,
      1769851208,
      1769851243,
      1769851277,
      1769851314,
      1769851340,
      1769851376,
      1769851399,
      1769851431
    ],
    "wof:geomhash": "5724d31802a0cf08bb5c30562113b205",
    "wof:id": 2014682429,
    "wof:repo": "sfomuseum-data-flights-2026-01"
  },
  "bbox": [
    -122.35977,
    37.49134,
    -121.28332,
    37.61498
  ],
  "geometry": {"coordinates":[[-121.28332,37.59006],[-121.35991,37.58175],[-121.41707,37.57519],[-121.46117,37.56989],[-121.47802,37.56787],[-121.49928,37.56528],[-121.57963,37.55609],[-121.63483,37.5484],[-121.68408,37.53665],[-121.73057,37.52555],[-121.73463,37.52458],[-121.80554,37.50754],[-121.83212,37.50121],[-121.8919,37.49134],[-121.92855,37.49226],[-121.94688,37.49272],[-122.00688,37.5008],[-122.01894,37.5047],[-122.03243,37.50901],[-122.06067,37.51826],[-122.08901,37.52746],[-122.13225,37.54147],[-122.15101,37.54752],[-122.18928,37.56007],[-122.22606,37.5717],[-122.26368,37.58386],[-122.28874,37.59083],[-122.31701,37.59947],[-122.33481,37.60488],[-122.35977,37.61498]],"type":"LineString"}
}
