{
  "id": 2014685249,
  "type": "Feature",
  "properties": {
    "geom:area": 0,
    "geom:bbox": "-122.373440,37.637810,-121.464870,38.496180",
    "geom:latitude": 38.097470064875374,
    "geom:longitude": -121.99709067620306,
    "src:alt_label": "swim-takeoff",
    "src:geom": "swim",
    "swim:elevations": [
      392,
      535,
      610,
      763,
      796,
      877,
      1175,
      1640,
      1704,
      2084,
      2467,
      2910,
      3078,
      3258,
      3439,
      3580,
      3713,
      4044,
      4341,
      4532,
      4685,
      4906,
      5094,
      5312,
      5615,
      5839,
      5935,
      6106,
      6213,
      6405,
      6602
    ],
    "swim:geom": "takeoff",
    "swim:timestamps": [
      1769929704,
      1769929723,
      1769929741,
      1769929772,
      1769929778,
      1769929791,
      1769929815,
      1769929854,
      1769929860,
      1769929891,
      1769929920,
      1769929962,
      1769929977,
      1769930004,
      1769930037,
      1769930061,
      1769930076,
      1769930113,
      1769930146,
      1769930166,
      1769930186,
      1769930213,
      1769930234,
      1769930260,
      1769930306,
      1769930330,
      1769930343,
      1769930367,
      1769930382,
      1769930416,
      1769930441
    ],
    "wof:geomhash": "0a3c75c1610a9c8e699909aa9aa2b788",
    "wof:id": 2014685249,
    "wof:repo": "sfomuseum-data-flights-2026-01"
  },
  "bbox": [
    -122.37344,
    37.63781,
    -121.46487,
    38.49618
  ],
  "geometry": {"coordinates":[[-122.35872,37.63781],[-122.34592,37.64875],[-122.33217,37.66035],[-122.31051,37.68554],[-122.30972,37.6925],[-122.31417,37.70649],[-122.32892,37.73226],[-122.35236,37.77427],[-122.35584,37.78118],[-122.37344,37.81903],[-122.36559,37.85452],[-122.31303,37.89433],[-122.29278,37.90836],[-122.25568,37.93507],[-122.20636,37.97111],[-122.16858,37.99882],[-122.14426,38.01663],[-122.08272,38.06129],[-122.0252,38.10297],[-121.99162,38.12723],[-121.95555,38.15344],[-121.90671,38.18881],[-121.86819,38.21666],[-121.81982,38.25155],[-121.73383,38.31329],[-121.68782,38.3462],[-121.66362,38.36349],[-121.6173,38.39661],[-121.5881,38.41758],[-121.51673,38.46504],[-121.46487,38.49618]],"type":"LineString"}
}
