{
  "id": 2014682457,
  "type": "Feature",
  "properties": {
    "geom:area": 0,
    "geom:bbox": "-122.347140,37.491330,-121.280590,37.609180",
    "geom:latitude": 37.54457842439146,
    "geom:longitude": -121.81847174270449,
    "src:alt_label": "swim-approach",
    "src:geom": "swim",
    "swim:elevations": [
      4728,
      4302,
      3999,
      3549,
      3368,
      3262,
      3103,
      2951,
      2633,
      2551,
      2334,
      2224,
      2071,
      1928,
      1795,
      1625,
      1310,
      1251,
      976,
      732,
      630,
      580,
      441,
      235,
      152,
      64
    ],
    "swim:geom": "approach",
    "swim:timestamps": [
      1769867070,
      1769867111,
      1769867141,
      1769867188,
      1769867205,
      1769867229,
      1769867268,
      1769867286,
      1769867330,
      1769867347,
      1769867392,
      1769867409,
      1769867437,
      1769867472,
      1769867500,
      1769867526,
      1769867574,
      1769867582,
      1769867615,
      1769867663,
      1769867695,
      1769867705,
      1769867735,
      1769867779,
      1769867800,
      1769867820
    ],
    "wof:geomhash": "81e9b65bd9f119bfa1b165445f552a85",
    "wof:id": 2014682457,
    "wof:repo": "sfomuseum-data-flights-2026-01"
  },
  "bbox": [
    -122.34714,
    37.49133,
    -121.28059,
    37.60918
  ],
  "geometry": {"coordinates":[[-121.28059,37.59025],[-121.36002,37.58151],[-121.41932,37.57489],[-121.50712,37.56452],[-121.53853,37.56087],[-121.58227,37.55582],[-121.64533,37.54589],[-121.67202,37.53966],[-121.73924,37.52344],[-121.7651,37.51723],[-121.8311,37.50141],[-121.85618,37.4954],[-121.89729,37.49133],[-121.95068,37.4927],[-121.99408,37.49603],[-122.03076,37.50714],[-122.09767,37.52994],[-122.10872,37.53364],[-122.14914,37.54689],[-122.20731,37.56573],[-122.24025,37.57655],[-122.24942,37.5796],[-122.27897,37.58829],[-122.31696,37.59895],[-122.33349,37.60421],[-122.34714,37.60918]],"type":"LineString"}
}
