{
  "id": 2014685833,
  "type": "Feature",
  "properties": {
    "geom:area": 0,
    "geom:bbox": "-122.447450,36.887860,-121.245640,37.706560",
    "geom:latitude": 37.27036772527617,
    "geom:longitude": -121.94280861169943,
    "src:alt_label": "swim-takeoff",
    "src:geom": "swim",
    "swim:elevations": [
      268,
      580,
      649,
      948,
      1163,
      1374,
      1578,
      2095,
      2398,
      2638,
      2858,
      3207,
      3483,
      3630,
      3983,
      4192,
      4512,
      4534,
      5012,
      5463,
      5711,
      5971,
      6028,
      6192,
      6251,
      6433,
      6733,
      6992,
      7114,
      7412,
      7578,
      7826,
      7955,
      8118
    ],
    "swim:geom": "takeoff",
    "swim:timestamps": [
      1769902138,
      1769902166,
      1769902172,
      1769902208,
      1769902239,
      1769902278,
      1769902303,
      1769902339,
      1769902357,
      1769902378,
      1769902394,
      1769902421,
      1769902465,
      1769902483,
      1769902528,
      1769902558,
      1769902587,
      1769902590,
      1769902629,
      1769902672,
      1769902701,
      1769902731,
      1769902740,
      1769902761,
      1769902770,
      1769902800,
      1769902842,
      1769902880,
      1769902897,
      1769902942,
      1769902962,
      1769902992,
      1769903013,
      1769903042
    ],
    "wof:geomhash": "ffc30d0508f25b057ac4bbace47c5474",
    "wof:id": 2014685833,
    "wof:repo": "sfomuseum-data-flights-2026-01"
  },
  "bbox": [
    -122.44745,
    36.88786,
    -121.24564,
    37.70656
  ],
  "geometry": {"coordinates":[[-122.36368,37.63663],[-122.36215,37.6577],[-122.36246,37.66248],[-122.36569,37.69214],[-122.39165,37.70656],[-122.43086,37.68737],[-122.43802,37.65903],[-122.44382,37.61549],[-122.44745,37.59402],[-122.43683,37.5701],[-122.41738,37.55582],[-122.38473,37.53372],[-122.32736,37.49187],[-122.30189,37.47353],[-122.23442,37.42487],[-122.18667,37.39058],[-122.13906,37.35636],[-122.13413,37.35281],[-122.07041,37.30704],[-122.00126,37.25714],[-121.95376,37.22294],[-121.90145,37.18796],[-121.88428,37.17898],[-121.84216,37.15994],[-121.82401,37.15167],[-121.76236,37.12382],[-121.67457,37.084],[-121.5944,37.04755],[-121.559,37.0314],[-121.46206,36.98705],[-121.41909,36.96739],[-121.35296,36.93725],[-121.30782,36.91633],[-121.24564,36.88786]],"type":"LineString"}
}
