{
  "id": 2014685643,
  "type": "Feature",
  "properties": {
    "geom:area": 0,
    "geom:bbox": "-122.368330,37.625580,-121.286870,38.398860",
    "geom:latitude": 38.03148603339744,
    "geom:longitude": -121.84660480252397,
    "src:alt_label": "swim-takeoff",
    "src:geom": "swim",
    "swim:elevations": [
      122,
      408,
      705,
      1134,
      1293,
      1484,
      1726,
      2312,
      2925,
      3118,
      3716,
      4042,
      4566,
      4630,
      5319,
      5568,
      6053,
      6240,
      6787,
      6921,
      7019,
      7576,
      7734,
      8219,
      8507,
      8569,
      9102,
      9163
    ],
    "swim:geom": "takeoff",
    "swim:timestamps": [
      1769851640,
      1769851659,
      1769851696,
      1769851732,
      1769851754,
      1769851771,
      1769851786,
      1769851815,
      1769851849,
      1769851861,
      1769851909,
      1769851929,
      1769851964,
      1769851968,
      1769852004,
      1769852024,
      1769852060,
      1769852078,
      1769852124,
      1769852133,
      1769852140,
      1769852179,
      1769852190,
      1769852238,
      1769852273,
      1769852280,
      1769852334,
      1769852344
    ],
    "wof:geomhash": "d5d2428202495b6236e63176006b82f6",
    "wof:id": 2014685643,
    "wof:repo": "sfomuseum-data-flights-2026-01"
  },
  "bbox": [
    -122.36833,
    37.62558,
    -121.28687,
    38.39886
  ],
  "geometry": {"coordinates":[[-122.36833,37.62558],[-122.35832,37.6361],[-122.32743,37.65419],[-122.29323,37.67511],[-122.27851,37.6971],[-122.26821,37.71586],[-122.25803,37.73405],[-122.23819,37.76886],[-122.20773,37.80571],[-122.19164,37.81665],[-122.12001,37.8635],[-122.08786,37.8846],[-122.0291,37.92322],[-122.02177,37.92798],[-121.95914,37.96866],[-121.92443,37.99121],[-121.86042,38.03293],[-121.8273,38.05439],[-121.73921,38.11145],[-121.72217,38.12246],[-121.70807,38.13162],[-121.63033,38.18168],[-121.60838,38.19591],[-121.51319,38.25689],[-121.44086,38.303],[-121.4266,38.3115],[-121.30819,38.38567],[-121.28687,38.39886]],"type":"LineString"}
}
