{
  "id": 2014679679,
  "type": "Feature",
  "properties": {
    "geom:area": 0,
    "geom:bbox": "-122.359380,37.491330,-121.285470,37.614500",
    "geom:latitude": 37.545439334770904,
    "geom:longitude": -121.82720901501025,
    "src:alt_label": "swim-approach",
    "src:geom": "swim",
    "swim:elevations": [
      4447,
      4370,
      4049,
      3644,
      3618,
      3292,
      3162,
      3112,
      2979,
      2795,
      2751,
      2432,
      2284,
      2202,
      2134,
      2032,
      1851,
      1651,
      1544,
      1122,
      1028,
      744,
      630,
      549,
      519,
      288,
      249,
      60,
      0
    ],
    "swim:geom": "approach",
    "swim:timestamps": [
      1769865057,
      1769865065,
      1769865102,
      1769865148,
      1769865151,
      1769865198,
      1769865235,
      1769865246,
      1769865265,
      1769865294,
      1769865301,
      1769865358,
      1769865381,
      1769865394,
      1769865426,
      1769865451,
      1769865483,
      1769865532,
      1769865543,
      1769865592,
      1769865603,
      1769865647,
      1769865668,
      1769865713,
      1769865721,
      1769865773,
      1769865784,
      1769865830,
      1769865843
    ],
    "wof:geomhash": "4b44ee99bbdabf3ec540fc5b49eb1d1a",
    "wof:id": 2014679679,
    "wof:repo": "sfomuseum-data-flights-2026-01"
  },
  "bbox": [
    -122.35938,
    37.49133,
    -121.28547,
    37.6145
  ],
  "geometry": {"coordinates":[[-121.28547,37.58978],[-121.30208,37.58785],[-121.37048,37.58055],[-121.45691,37.57048],[-121.4624,37.56986],[-121.54731,37.55987],[-121.60951,37.55258],[-121.62788,37.54979],[-121.65615,37.54315],[-121.69929,37.53294],[-121.70989,37.53043],[-121.79358,37.51038],[-121.82624,37.50256],[-121.8454,37.49795],[-121.89114,37.49133],[-121.92793,37.49219],[-121.97405,37.49345],[-122.03801,37.51093],[-122.052,37.51538],[-122.11144,37.53484],[-122.12535,37.53928],[-122.17789,37.55642],[-122.20088,37.56385],[-122.24794,37.57905],[-122.25597,37.58169],[-122.30342,37.59566],[-122.31261,37.59802],[-122.34953,37.61038],[-122.35938,37.6145]],"type":"LineString"}
}
