{
  "id": 2014684745,
  "type": "Feature",
  "properties": {
    "geom:area": 0,
    "geom:bbox": "-122.385510,37.635720,-121.266120,38.161930",
    "geom:latitude": 37.989850591800334,
    "geom:longitude": -121.94271242748529,
    "src:alt_label": "swim-takeoff",
    "src:geom": "swim",
    "swim:elevations": [
      244,
      446,
      674,
      977,
      1318,
      1806,
      2327,
      2717,
      3059,
      3146,
      3279,
      3384,
      3504,
      4090,
      4421,
      4468,
      4820,
      5141,
      5471,
      5785,
      5907,
      6152,
      6456,
      6625,
      6744,
      6888,
      7216,
      7299
    ],
    "swim:geom": "takeoff",
    "swim:timestamps": [
      1769926614,
      1769926630,
      1769926671,
      1769926704,
      1769926728,
      1769926764,
      1769926797,
      1769926825,
      1769926856,
      1769926862,
      1769926886,
      1769926902,
      1769926921,
      1769926978,
      1769927008,
      1769927014,
      1769927050,
      1769927082,
      1769927117,
      1769927146,
      1769927163,
      1769927198,
      1769927240,
      1769927261,
      1769927276,
      1769927294,
      1769927334,
      1769927346
    ],
    "wof:geomhash": "f6617c7ecef6dc9a091e1126d84f3654",
    "wof:id": 2014684745,
    "wof:repo": "sfomuseum-data-flights-2026-01"
  },
  "bbox": [
    -122.38551,
    37.63572,
    -121.26612,
    38.16193
  ],
  "geometry": {"coordinates":[[-122.36164,37.63572],[-122.35196,37.64579],[-122.31917,37.67315],[-122.31352,37.70874],[-122.32758,37.73497],[-122.3511,37.77515],[-122.37075,37.81366],[-122.38463,37.84674],[-122.38551,37.88944],[-122.38492,37.89784],[-122.3708,37.92975],[-122.34682,37.94795],[-122.30962,37.9591],[-122.18624,37.98029],[-122.11863,37.99392],[-122.10498,37.99676],[-122.02146,38.01387],[-121.94499,38.02933],[-121.86148,38.04576],[-121.7926,38.05942],[-121.74863,38.06787],[-121.66103,38.08497],[-121.55166,38.10637],[-121.49593,38.11724],[-121.4559,38.12514],[-121.40773,38.13459],[-121.29864,38.15565],[-121.26612,38.16193]],"type":"LineString"}
}
