{
  "id": 2014685823,
  "type": "Feature",
  "properties": {
    "geom:area": 0,
    "geom:bbox": "-122.369000,37.629220,-122.113360,38.518240",
    "geom:latitude": 38.03878869429708,
    "geom:longitude": -122.17783561145114,
    "src:alt_label": "swim-takeoff",
    "src:geom": "swim",
    "swim:elevations": [
      244,
      530,
      715,
      928,
      1060,
      1307,
      1696,
      2186,
      2638,
      3169,
      3468,
      3595,
      4043,
      4470,
      4780,
      5058,
      5443,
      5749,
      6005,
      6240,
      6581,
      6844
    ],
    "swim:geom": "takeoff",
    "swim:timestamps": [
      1769866708,
      1769866726,
      1769866746,
      1769866771,
      1769866800,
      1769866836,
      1769866865,
      1769866893,
      1769866921,
      1769866965,
      1769867004,
      1769867014,
      1769867049,
      1769867083,
      1769867111,
      1769867134,
      1769867168,
      1769867200,
      1769867229,
      1769867254,
      1769867290,
      1769867322
    ],
    "wof:geomhash": "1f97a5c063d94f24c96bee94c141ea92",
    "wof:id": 2014685823,
    "wof:repo": "sfomuseum-data-flights-2026-01"
  },
  "bbox": [
    -122.369,
    37.62922,
    -122.11336,
    38.51824
  ],
  "geometry": {"coordinates":[[-122.369,37.62922],[-122.35715,37.63725],[-122.34299,37.64587],[-122.32497,37.65684],[-122.30187,37.67039],[-122.26288,37.69226],[-122.22497,37.71489],[-122.20891,37.74867],[-122.20336,37.78603],[-122.19336,37.84867],[-122.18279,37.91201],[-122.18002,37.92944],[-122.16982,37.9906],[-122.15954,38.05176],[-122.15107,38.10223],[-122.14373,38.14605],[-122.13306,38.21043],[-122.12285,38.27219],[-122.11417,38.32872],[-122.11518,38.37806],[-122.11484,38.45117],[-122.11336,38.51824]],"type":"LineString"}
}
