{
  "id": 2014682433,
  "type": "Feature",
  "properties": {
    "geom:area": 0,
    "geom:bbox": "-122.345930,37.492710,-121.244650,37.608770",
    "geom:latitude": 37.5465622335581,
    "geom:longitude": -121.79986579128209,
    "src:alt_label": "swim-approach",
    "src:geom": "swim",
    "swim:elevations": [
      4693,
      4544,
      4314,
      4042,
      3667,
      3432,
      3306,
      3041,
      2740,
      2713,
      2462,
      2437,
      2258,
      1911,
      1829,
      1548,
      1192,
      1088,
      879,
      882,
      724,
      551,
      431,
      294,
      213,
      89
    ],
    "swim:geom": "approach",
    "swim:timestamps": [
      1769868736,
      1769868756,
      1769868784,
      1769868816,
      1769868864,
      1769868894,
      1769868910,
      1769868945,
      1769868988,
      1769868996,
      1769869033,
      1769869051,
      1769869089,
      1769869150,
      1769869181,
      1769869221,
      1769869258,
      1769869273,
      1769869315,
      1769869330,
      1769869361,
      1769869394,
      1769869420,
      1769869453,
      1769869470,
      1769869509
    ],
    "wof:geomhash": "dbe14971310ea48dcadda184dddafcf4",
    "wof:id": 2014682433,
    "wof:repo": "sfomuseum-data-flights-2026-01"
  },
  "bbox": [
    -122.34593,
    37.49271,
    -121.24465,
    37.60877
  ],
  "geometry": {"coordinates":[[-121.24465,37.5954],[-121.28133,37.59049],[-121.33571,37.5844],[-121.39584,37.57772],[-121.48476,37.56722],[-121.5369,37.56114],[-121.56477,37.55798],[-121.62311,37.55085],[-121.69225,37.53458],[-121.70388,37.53183],[-121.75832,37.51893],[-121.78431,37.5128],[-121.84027,37.49931],[-121.93186,37.49271],[-121.9777,37.49404],[-122.03602,37.5104],[-122.08978,37.5277],[-122.11101,37.53469],[-122.16501,37.5524],[-122.18259,37.55816],[-122.21728,37.56918],[-122.25247,37.58065],[-122.27778,37.58803],[-122.30622,37.59594],[-122.31899,37.59981],[-122.34593,37.60877]],"type":"LineString"}
}
