{
  "id": 2014682543,
  "type": "Feature",
  "properties": {
    "geom:area": 0,
    "geom:bbox": "-122.362600,37.491320,-121.276800,37.615400",
    "geom:latitude": 37.54593995882836,
    "geom:longitude": -121.82453449227239,
    "src:alt_label": "swim-approach",
    "src:geom": "swim",
    "swim:elevations": [
      4626,
      4381,
      4047,
      3745,
      3675,
      3234,
      3199,
      3087,
      2887,
      2595,
      2513,
      2434,
      2181,
      2083,
      1937,
      1746,
      1602,
      1446,
      1138,
      1021,
      851,
      601,
      517,
      388,
      175,
      41,
      146
    ],
    "swim:geom": "approach",
    "swim:timestamps": [
      1769866948,
      1769866973,
      1769867008,
      1769867038,
      1769867045,
      1769867093,
      1769867106,
      1769867141,
      1769867168,
      1769867212,
      1769867236,
      1769867254,
      1769867290,
      1769867313,
      1769867347,
      1769867385,
      1769867409,
      1769867437,
      1769867484,
      1769867500,
      1769867530,
      1769867574,
      1769867591,
      1769867615,
      1769867663,
      1769867695,
      1769867709
    ],
    "wof:geomhash": "746ea5c76f0152a9eca02475b652890f",
    "wof:id": 2014682543,
    "wof:repo": "sfomuseum-data-flights-2026-01"
  },
  "bbox": [
    -122.3626,
    37.49132,
    -121.2768,
    37.6154
  ],
  "geometry": {"coordinates":[[-121.2768,37.59088],[-121.32552,37.58554],[-121.39307,37.57795],[-121.44989,37.57127],[-121.46421,37.56955],[-121.55357,37.55915],[-121.57665,37.55646],[-121.63476,37.54848],[-121.67612,37.53849],[-121.74429,37.52228],[-121.78141,37.51341],[-121.80829,37.50694],[-121.86105,37.49426],[-121.89679,37.49132],[-121.94616,37.49269],[-122.00036,37.49859],[-122.03237,37.50906],[-122.06909,37.52092],[-122.13112,37.54106],[-122.15154,37.54768],[-122.18904,37.55982],[-122.24299,37.57737],[-122.26168,37.58313],[-122.2859,37.59019],[-122.32724,37.60253],[-122.35227,37.61147],[-122.3626,37.6154]],"type":"LineString"}
}
