{
  "id": 2014680079,
  "type": "Feature",
  "properties": {
    "geom:area": 0,
    "geom:bbox": "-122.359660,37.492610,-121.252420,37.614580",
    "geom:latitude": 37.546762311766294,
    "geom:longitude": -121.81095101420762,
    "src:alt_label": "swim-approach",
    "src:geom": "swim",
    "swim:elevations": [
      4743,
      4595,
      4435,
      4182,
      3950,
      3659,
      3438,
      3342,
      2977,
      2777,
      2634,
      2242,
      2199,
      1969,
      1844,
      1668,
      1430,
      1191,
      1027,
      831,
      771,
      615,
      523,
      381,
      159,
      0
    ],
    "swim:geom": "approach",
    "swim:timestamps": [
      1769857258,
      1769857276,
      1769857298,
      1769857329,
      1769857362,
      1769857401,
      1769857432,
      1769857444,
      1769857498,
      1769857528,
      1769857552,
      1769857613,
      1769857624,
      1769857672,
      1769857707,
      1769857732,
      1769857765,
      1769857797,
      1769857825,
      1769857852,
      1769857861,
      1769857912,
      1769857936,
      1769857963,
      1769858016,
      1769858056
    ],
    "wof:geomhash": "7d156238011b9b8dfc7024c654f97199",
    "wof:id": 2014680079,
    "wof:repo": "sfomuseum-data-flights-2026-01"
  },
  "bbox": [
    -122.35966,
    37.49261,
    -121.25242,
    37.61458
  ],
  "geometry": {"coordinates":[[-121.25242,37.59416],[-121.28672,37.5898],[-121.3291,37.58515],[-121.38891,37.57835],[-121.44787,37.5715],[-121.51612,37.56353],[-121.56898,37.55739],[-121.59013,37.55484],[-121.6762,37.53831],[-121.72124,37.52766],[-121.75747,37.51907],[-121.84685,37.49763],[-121.86307,37.49387],[-121.93348,37.49261],[-121.98425,37.4953],[-122.01627,37.50406],[-122.05954,37.51805],[-122.09981,37.53107],[-122.13465,37.54236],[-122.16856,37.55327],[-122.17894,37.55663],[-122.23639,37.57512],[-122.2609,37.58302],[-122.28562,37.59014],[-122.32979,37.60324],[-122.35966,37.61458]],"type":"LineString"}
}
