{
  "id": 2014684681,
  "type": "Feature",
  "properties": {
    "geom:area": 0,
    "geom:bbox": "-123.338810,37.628830,-122.399310,38.519130",
    "geom:latitude": 38.03254295138188,
    "geom:longitude": -122.90242731159864,
    "src:alt_label": "swim-takeoff",
    "src:geom": "swim",
    "swim:elevations": [
      244,
      538,
      922,
      1220,
      1307,
      1811,
      1933,
      2266,
      2604,
      2921,
      3266,
      3330,
      3664,
      3921,
      4352,
      4540,
      4879,
      5107,
      5413,
      5488,
      5798,
      6115,
      6514,
      6706,
      6851,
      7181
    ],
    "swim:geom": "takeoff",
    "swim:timestamps": [
      1769901056,
      1769901071,
      1769901106,
      1769901145,
      1769901154,
      1769901194,
      1769901203,
      1769901227,
      1769901254,
      1769901282,
      1769901318,
      1769901333,
      1769901383,
      1769901404,
      1769901443,
      1769901459,
      1769901489,
      1769901510,
      1769901543,
      1769901558,
      1769901588,
      1769901620,
      1769901657,
      1769901688,
      1769901714,
      1769901747
    ],
    "wof:geomhash": "12285247a9246ec71df6e9bfb3a2cdf0",
    "wof:id": 2014684681,
    "wof:repo": "sfomuseum-data-flights-2026-01"
  },
  "bbox": [
    -123.33881,
    37.62883,
    -122.39931,
    38.51913
  ],
  "geometry": {"coordinates":[[-122.39931,37.62883],[-122.41418,37.63524],[-122.45036,37.65137],[-122.49862,37.6729],[-122.51021,37.67903],[-122.56163,37.70917],[-122.57361,37.71626],[-122.60584,37.7354],[-122.64265,37.75678],[-122.68251,37.78012],[-122.73586,37.8113],[-122.75778,37.82732],[-122.81978,37.89926],[-122.84642,37.93185],[-122.89663,37.99241],[-122.91819,38.01828],[-122.95873,38.06703],[-122.98715,38.10089],[-123.03347,38.15623],[-123.05488,38.18174],[-123.09833,38.23352],[-123.14557,38.28984],[-123.20164,38.35629],[-123.24872,38.41192],[-123.28868,38.45809],[-123.33881,38.51913]],"type":"LineString"}
}
