{
  "id": 2014686357,
  "type": "Feature",
  "properties": {
    "geom:area": 0,
    "geom:bbox": "-123.327170,37.628610,-122.393170,38.503940",
    "geom:latitude": 38.02379290640516,
    "geom:longitude": -122.8939264263829,
    "src:alt_label": "swim-takeoff",
    "src:geom": "swim",
    "swim:elevations": [
      122,
      517,
      697,
      977,
      971,
      1268,
      1463,
      1576,
      2077,
      2525,
      2722,
      2954,
      3146,
      3334,
      3513,
      3761,
      3965,
      4128,
      4399,
      4654,
      4822,
      5089,
      5392,
      5496,
      5594,
      5761,
      6058,
      6096
    ],
    "swim:geom": "takeoff",
    "swim:timestamps": [
      1769903852,
      1769903880,
      1769903903,
      1769903937,
      1769903940,
      1769903997,
      1769904021,
      1769904031,
      1769904072,
      1769904117,
      1769904135,
      1769904161,
      1769904185,
      1769904220,
      1769904259,
      1769904295,
      1769904322,
      1769904339,
      1769904367,
      1769904402,
      1769904423,
      1769904454,
      1769904493,
      1769904517,
      1769904530,
      1769904552,
      1769904596,
      1769904600
    ],
    "wof:geomhash": "4a2e350b9a5632455852e8617c3779c5",
    "wof:id": 2014686357,
    "wof:repo": "sfomuseum-data-flights-2026-01"
  },
  "bbox": [
    -123.32717,
    37.62861,
    -122.39317,
    38.50394
  ],
  "geometry": {"coordinates":[[-122.39317,37.62861],[-122.42015,37.63991],[-122.44349,37.64989],[-122.47914,37.66464],[-122.48237,37.66598],[-122.54729,37.70072],[-122.57792,37.7187],[-122.59069,37.72623],[-122.64358,37.75727],[-122.70264,37.79208],[-122.72722,37.80624],[-122.75963,37.8284],[-122.78417,37.85603],[-122.82093,37.9008],[-122.86512,37.95393],[-122.9089,38.00649],[-122.94289,38.04742],[-122.96459,38.07356],[-123.00089,38.11713],[-123.04643,38.1715],[-123.07552,38.20629],[-123.11735,38.25625],[-123.17161,38.32072],[-123.20537,38.36087],[-123.22388,38.38266],[-123.2555,38.41964],[-123.32029,38.4955],[-123.32717,38.50394]],"type":"LineString"}
}
