{
  "id": 2014683733,
  "type": "Feature",
  "properties": {
    "geom:area": 0,
    "geom:bbox": "-123.329400,37.627390,-122.395830,38.507080",
    "geom:latitude": 38.025846781648895,
    "geom:longitude": -122.895858199816,
    "src:alt_label": "swim-takeoff",
    "src:geom": "swim",
    "swim:elevations": [
      152,
      534,
      734,
      914,
      1000,
      1369,
      1690,
      2299,
      3082,
      3176,
      3450,
      3598,
      3835,
      4212,
      4403,
      4663,
      5214,
      5365,
      5747,
      5822,
      5994,
      6310,
      6400,
      6858,
      7104
    ],
    "swim:geom": "takeoff",
    "swim:timestamps": [
      1769860168,
      1769860196,
      1769860217,
      1769860249,
      1769860260,
      1769860307,
      1769860331,
      1769860377,
      1769860436,
      1769860445,
      1769860495,
      1769860522,
      1769860550,
      1769860583,
      1769860597,
      1769860625,
      1769860676,
      1769860690,
      1769860734,
      1769860742,
      1769860758,
      1769860797,
      1769860807,
      1769860853,
      1769860878
    ],
    "wof:geomhash": "27a42ddb6d38ee4150cb16ac80626874",
    "wof:id": 2014683733,
    "wof:repo": "sfomuseum-data-flights-2026-01"
  },
  "bbox": [
    -123.3294,
    37.62739,
    -122.39583,
    38.50708
  ],
  "geometry": {"coordinates":[[-122.39583,37.62739],[-122.42474,37.63993],[-122.44749,37.65019],[-122.48322,37.66577],[-122.49632,37.6716],[-122.55502,37.70504],[-122.58644,37.72368],[-122.6488,37.76038],[-122.72928,37.80782],[-122.74247,37.8157],[-122.80064,37.8762],[-122.83291,37.91514],[-122.86818,37.95791],[-122.91032,38.00895],[-122.92893,38.03128],[-122.96609,38.0756],[-123.03505,38.15797],[-123.05443,38.18118],[-123.11589,38.25453],[-123.12725,38.26808],[-123.15085,38.29611],[-123.20728,38.36308],[-123.22295,38.38149],[-123.29181,38.46325],[-123.3294,38.50708]],"type":"LineString"}
}
