{
  "id": 2014682691,
  "type": "Feature",
  "properties": {
    "geom:area": 0,
    "geom:bbox": "-122.325420,37.492090,-121.342660,37.601850",
    "geom:latitude": 37.54075954856316,
    "geom:longitude": -121.83798413289244,
    "src:alt_label": "swim-approach",
    "src:geom": "swim",
    "swim:elevations": [
      4240,
      3867,
      3674,
      3373,
      3202,
      3055,
      2955,
      2531,
      2209,
      2013,
      1886,
      1856,
      1525,
      1437,
      1136,
      945,
      828,
      556,
      395,
      291,
      181
    ],
    "swim:geom": "approach",
    "swim:timestamps": [
      1769876346,
      1769876385,
      1769876408,
      1769876441,
      1769876474,
      1769876510,
      1769876524,
      1769876603,
      1769876654,
      1769876693,
      1769876726,
      1769876733,
      1769876784,
      1769876794,
      1769876841,
      1769876866,
      1769876886,
      1769876926,
      1769876968,
      1769876987,
      1769877015
    ],
    "wof:geomhash": "ab81d17c2aff959def97f742b3e5b7fd",
    "wof:id": 2014682691,
    "wof:repo": "sfomuseum-data-flights-2026-01"
  },
  "bbox": [
    -122.32542,
    37.49209,
    -121.34266,
    37.60185
  ],
  "geometry": {"coordinates":[[-121.34266,37.58376],[-121.4185,37.57488],[-121.46187,37.56981],[-121.52297,37.5627],[-121.58319,37.55573],[-121.64211,37.54666],[-121.66455,37.54127],[-121.78569,37.51232],[-121.86158,37.49408],[-121.92159,37.49209],[-121.97024,37.49345],[-121.98019,37.49413],[-122.05374,37.51596],[-122.06942,37.52102],[-122.13795,37.54332],[-122.17205,37.55432],[-122.1975,37.56258],[-122.2446,37.57773],[-122.2847,37.58981],[-122.3013,37.59474],[-122.32542,37.60185]],"type":"LineString"}
}
