{
  "id": 2014682255,
  "type": "Feature",
  "properties": {
    "geom:area": 0,
    "geom:bbox": "-122.357060,37.491400,-121.255340,37.613600",
    "geom:latitude": 37.54640716177225,
    "geom:longitude": -121.8110860708523,
    "src:alt_label": "swim-approach",
    "src:geom": "swim",
    "swim:elevations": [
      4932,
      4671,
      4544,
      4060,
      3904,
      3530,
      3309,
      3087,
      3061,
      2852,
      2699,
      2530,
      2288,
      2069,
      1903,
      1828,
      1684,
      1493,
      1453,
      1117,
      1005,
      568,
      546,
      370,
      224,
      115,
      0
    ],
    "swim:geom": "approach",
    "swim:timestamps": [
      1769856324,
      1769856348,
      1769856360,
      1769856409,
      1769856425,
      1769856461,
      1769856489,
      1769856534,
      1769856540,
      1769856588,
      1769856615,
      1769856641,
      1769856679,
      1769856709,
      1769856731,
      1769856756,
      1769856794,
      1769856831,
      1769856840,
      1769856892,
      1769856903,
      1769856954,
      1769856960,
      1769857007,
      1769857045,
      1769857077,
      1769857102
    ],
    "wof:geomhash": "79b56454b56eade9a22e90d238ca5b4c",
    "wof:id": 2014682255,
    "wof:repo": "sfomuseum-data-flights-2026-01"
  },
  "bbox": [
    -122.35706,
    37.4914,
    -121.25534,
    37.6136
  ],
  "geometry": {"coordinates":[[-121.25534,37.59373],[-121.30411,37.58749],[-121.32773,37.58491],[-121.41949,37.57488],[-121.45092,37.57129],[-121.51742,37.56337],[-121.56813,37.55744],[-121.64612,37.54559],[-121.6562,37.54327],[-121.72874,37.52603],[-121.76879,37.51645],[-121.806,37.50745],[-121.86054,37.49435],[-121.90542,37.4914],[-121.93854,37.49229],[-121.97568,37.49383],[-122.02869,37.50786],[-122.07877,37.52427],[-122.09083,37.52822],[-122.1555,37.54918],[-122.16899,37.55354],[-122.22871,37.57247],[-122.23531,37.5746],[-122.28427,37.58982],[-122.31658,37.59901],[-122.33998,37.6065],[-122.35706,37.6136]],"type":"LineString"}
}
