{
  "id": 2014683333,
  "type": "Feature",
  "properties": {
    "geom:area": 0,
    "geom:bbox": "-123.339190,37.627680,-122.396620,38.518420",
    "geom:latitude": 38.03148578185913,
    "geom:longitude": -122.90124947224709,
    "src:alt_label": "swim-takeoff",
    "src:geom": "swim",
    "swim:elevations": [
      270,
      631,
      876,
      985,
      1159,
      1288,
      1476,
      1948,
      2367,
      2641,
      2954,
      3221,
      3261,
      3534,
      4013,
      4213,
      4306,
      4574,
      4948,
      5100,
      5428,
      5518,
      5669,
      6014,
      6188,
      6309,
      6476
    ],
    "swim:geom": "takeoff",
    "swim:timestamps": [
      1769905461,
      1769905498,
      1769905525,
      1769905540,
      1769905582,
      1769905610,
      1769905628,
      1769905664,
      1769905700,
      1769905727,
      1769905757,
      1769905791,
      1769905800,
      1769905846,
      1769905888,
      1769905915,
      1769905924,
      1769905960,
      1769906008,
      1769906026,
      1769906068,
      1769906089,
      1769906110,
      1769906158,
      1769906182,
      1769906196,
      1769906226
    ],
    "wof:geomhash": "b17cc91955c572a08c8724c73e65dcc0",
    "wof:id": 2014683333,
    "wof:repo": "sfomuseum-data-flights-2026-01"
  },
  "bbox": [
    -123.33919,
    37.62768,
    -122.39662,
    38.51842
  ],
  "geometry": {"coordinates":[[-122.39662,37.62768],[-122.42686,37.64085],[-122.44993,37.65137],[-122.46337,37.65715],[-122.50734,37.67683],[-122.54052,37.69642],[-122.56318,37.70997],[-122.60963,37.73741],[-122.65638,37.76486],[-122.69256,37.78614],[-122.7336,37.81013],[-122.77594,37.84479],[-122.78538,37.85635],[-122.83773,37.92081],[-122.88715,37.98083],[-122.91971,38.01986],[-122.93075,38.03309],[-122.97566,38.08707],[-123.03765,38.16135],[-123.06141,38.18973],[-123.11742,38.25668],[-123.14625,38.29074],[-123.17523,38.32523],[-123.24315,38.40503],[-123.27719,38.4455],[-123.29717,38.46925],[-123.33919,38.51842]],"type":"LineString"}
}
