{
  "id": 2014685857,
  "type": "Feature",
  "properties": {
    "geom:area": 0,
    "geom:bbox": "-122.482560,36.725570,-121.439960,37.701220",
    "geom:latitude": 37.22079436819492,
    "geom:longitude": -122.0490593117869,
    "src:alt_label": "swim-takeoff",
    "src:geom": "swim",
    "swim:elevations": [
      183,
      673,
      786,
      965,
      1057,
      1143,
      1317,
      1800,
      2089,
      2398,
      2706,
      2859,
      3147,
      3441,
      3488,
      3833,
      4258,
      4689,
      4901,
      5198,
      5439,
      5577,
      5996,
      6265,
      6515,
      6881,
      7140,
      7195,
      7438,
      7471,
      7628,
      7861,
      8027,
      8218,
      8272,
      8413
    ],
    "swim:geom": "takeoff",
    "swim:timestamps": [
      1769849961,
      1769849994,
      1769850011,
      1769850035,
      1769850053,
      1769850079,
      1769850114,
      1769850145,
      1769850162,
      1769850182,
      1769850204,
      1769850212,
      1769850229,
      1769850263,
      1769850278,
      1769850314,
      1769850350,
      1769850388,
      1769850410,
      1769850439,
      1769850462,
      1769850480,
      1769850519,
      1769850553,
      1769850578,
      1769850614,
      1769850654,
      1769850662,
      1769850702,
      1769850709,
      1769850732,
      1769850771,
      1769850804,
      1769850836,
      1769850844,
      1769850875
    ],
    "wof:geomhash": "168dea779595d7dd2aaea795ea80c73b",
    "wof:id": 2014685857,
    "wof:repo": "sfomuseum-data-flights-2026-01"
  },
  "bbox": [
    -122.48256,
    36.72557,
    -121.43996,
    37.70122
  ],
  "geometry": {"coordinates":[[-122.37042,37.62697],[-122.36447,37.64977],[-122.36314,37.66125],[-122.36149,37.67862],[-122.36898,37.69111],[-122.3964,37.70122],[-122.43632,37.68261],[-122.45086,37.64594],[-122.45738,37.62643],[-122.46512,37.60189],[-122.47418,37.57379],[-122.47751,37.56344],[-122.48256,37.54199],[-122.4606,37.50094],[-122.44021,37.48629],[-122.38657,37.4456],[-122.33136,37.40403],[-122.27154,37.35917],[-122.2375,37.33353],[-122.19031,37.29785],[-122.15231,37.26925],[-122.12373,37.24772],[-122.0609,37.20016],[-122.00433,37.15718],[-121.96207,37.12503],[-121.90276,37.08005],[-121.83462,37.02798],[-121.8205,37.0172],[-121.75205,36.96496],[-121.73984,36.95559],[-121.69931,36.92446],[-121.62939,36.87142],[-121.56894,36.82563],[-121.51196,36.78177],[-121.49597,36.76907],[-121.43996,36.72557]],"type":"LineString"}
}
