{
  "id": 2014682525,
  "type": "Feature",
  "properties": {
    "geom:area": 0,
    "geom:bbox": "-122.360610,36.722210,-121.878750,37.613310",
    "geom:latitude": 37.21215558066386,
    "geom:longitude": -122.1299939131914,
    "src:alt_label": "swim-approach",
    "src:geom": "swim",
    "swim:elevations": [
      4704,
      4543,
      4375,
      4284,
      3919,
      3477,
      3388,
      3200,
      3111,
      3048,
      2970,
      2907,
      2772,
      2742,
      2743,
      2743,
      2743,
      2743,
      2695,
      2600,
      2254,
      2078,
      1851,
      1550,
      1371,
      1249,
      1056,
      947,
      897,
      700,
      642,
      513,
      360,
      244,
      211,
      60,
      57
    ],
    "swim:geom": "approach",
    "swim:timestamps": [
      1769893136,
      1769893158,
      1769893189,
      1769893201,
      1769893236,
      1769893288,
      1769893297,
      1769893315,
      1769893327,
      1769893368,
      1769893407,
      1769893421,
      1769893451,
      1769893463,
      1769893496,
      1769893524,
      1769893531,
      1769893560,
      1769893612,
      1769893624,
      1769893677,
      1769893694,
      1769893722,
      1769893760,
      1769893791,
      1769893826,
      1769893848,
      1769893879,
      1769893897,
      1769893942,
      1769893957,
      1769893987,
      1769894028,
      1769894061,
      1769894070,
      1769894114,
      1769894132
    ],
    "wof:geomhash": "47aca8a30919c66d0d0e1c59ac211a83",
    "wof:id": 2014682525,
    "wof:repo": "sfomuseum-data-flights-2026-01"
  },
  "bbox": [
    -122.36061,
    36.72221,
    -121.87875,
    37.61331
  ],
  "geometry": {"coordinates":[[-121.87875,36.72221],[-121.89767,36.75735],[-121.91181,36.80652],[-121.91706,36.82434],[-121.94605,36.8688],[-121.99732,36.93219],[-122.00614,36.94286],[-122.02391,36.96393],[-122.03588,36.97802],[-122.07712,37.02684],[-122.11648,37.07371],[-122.13112,37.09116],[-122.1598,37.12507],[-122.17068,37.13803],[-122.19961,37.17263],[-122.21544,37.20404],[-122.21834,37.21255],[-122.22999,37.24704],[-122.25131,37.30902],[-122.25609,37.32315],[-122.23661,37.37852],[-122.21645,37.39038],[-122.1842,37.40871],[-122.13973,37.43471],[-122.12521,37.46436],[-122.13452,37.49633],[-122.14083,37.51426],[-122.16611,37.53056],[-122.18203,37.53758],[-122.22088,37.55399],[-122.23395,37.55943],[-122.25996,37.57036],[-122.29183,37.58375],[-122.31454,37.59327],[-122.32111,37.59608],[-122.35007,37.60822],[-122.36061,37.61331]],"type":"LineString"}
}
