{
  "id": 2014680727,
  "type": "Feature",
  "properties": {
    "geom:area": 0,
    "geom:bbox": "-122.798720,37.565910,-122.128660,38.470190",
    "geom:latitude": 37.88394743091908,
    "geom:longitude": -122.5094272728809,
    "src:alt_label": "swim-approach",
    "src:geom": "swim",
    "swim:elevations": [
      8504,
      8165,
      8049,
      7339,
      7014,
      6933,
      6597,
      6478,
      6241,
      6097,
      5521,
      5260,
      4968,
      4571,
      4219,
      4175,
      3819,
      3419,
      3352,
      3353,
      3353,
      3349,
      3277,
      3038,
      2779,
      2598,
      2139,
      2109,
      1989,
      1829,
      1421,
      1156,
      934,
      823,
      526,
      502,
      390,
      352,
      238,
      49
    ],
    "swim:geom": "approach",
    "swim:timestamps": [
      1769888724,
      1769888751,
      1769888760,
      1769888813,
      1769888843,
      1769888866,
      1769888897,
      1769888906,
      1769888927,
      1769888945,
      1769888993,
      1769889021,
      1769889053,
      1769889083,
      1769889107,
      1769889110,
      1769889136,
      1769889178,
      1769889196,
      1769889220,
      1769889252,
      1769889288,
      1769889309,
      1769889342,
      1769889379,
      1769889400,
      1769889447,
      1769889450,
      1769889460,
      1769889487,
      1769889535,
      1769889568,
      1769889595,
      1769889615,
      1769889658,
      1769889664,
      1769889688,
      1769889697,
      1769889724,
      1769889767
    ],
    "wof:geomhash": "0239eede38a095bfba9ad3ad2708dc2a",
    "wof:id": 2014680727,
    "wof:repo": "sfomuseum-data-flights-2026-01"
  },
  "bbox": [
    -122.79872,
    37.56591,
    -122.12866,
    38.47019
  ],
  "geometry": {"coordinates":[[-122.79872,38.47019],[-122.79272,38.42064],[-122.7906,38.40409],[-122.77805,38.31047],[-122.77172,38.25823],[-122.7663,38.22115],[-122.75252,38.17193],[-122.74842,38.15778],[-122.7388,38.12491],[-122.7305,38.09711],[-122.7091,38.02408],[-122.69694,37.98155],[-122.68391,37.9353],[-122.664,37.89318],[-122.63543,37.86374],[-122.63168,37.86016],[-122.59821,37.82845],[-122.54635,37.77964],[-122.5254,37.75981],[-122.49795,37.73419],[-122.45014,37.71691],[-122.39327,37.70534],[-122.3634,37.69942],[-122.31678,37.69071],[-122.26672,37.68102],[-122.23928,37.6756],[-122.17946,37.66024],[-122.17598,37.65863],[-122.16449,37.65318],[-122.13367,37.63773],[-122.12866,37.59197],[-122.15066,37.56591],[-122.18392,37.56692],[-122.20785,37.57172],[-122.25719,37.58149],[-122.26307,37.58328],[-122.285,37.58995],[-122.29267,37.59208],[-122.31541,37.59888],[-122.35199,37.61141]],"type":"LineString"}
}
