{
  "id": 2014682071,
  "type": "Feature",
  "properties": {
    "geom:area": 0,
    "geom:bbox": "-122.345140,37.491520,-121.247480,37.608990",
    "geom:latitude": 37.54592358511438,
    "geom:longitude": -121.80105579379423,
    "src:alt_label": "swim-approach",
    "src:geom": "swim",
    "swim:elevations": [
      5171,
      5126,
      5059,
      4886,
      4798,
      4485,
      4374,
      3910,
      3785,
      3710,
      3645,
      3396,
      3225,
      2962,
      2903,
      2688,
      2611,
      2362,
      2086,
      2011,
      1882,
      1829,
      1735,
      1618,
      1489,
      1164,
      1010,
      833,
      727,
      576,
      486,
      242,
      182,
      90
    ],
    "swim:geom": "approach",
    "swim:timestamps": [
      1769850201,
      1769850212,
      1769850223,
      1769850260,
      1769850272,
      1769850320,
      1769850336,
      1769850388,
      1769850402,
      1769850413,
      1769850422,
      1769850462,
      1769850494,
      1769850536,
      1769850545,
      1769850575,
      1769850585,
      1769850627,
      1769850654,
      1769850665,
      1769850695,
      1769850709,
      1769850727,
      1769850761,
      1769850784,
      1769850831,
      1769850863,
      1769850893,
      1769850913,
      1769850944,
      1769850964,
      1769851015,
      1769851028,
      1769851055
    ],
    "wof:geomhash": "c68a68828d96ee56b463efd48f71f817",
    "wof:id": 2014682071,
    "wof:repo": "sfomuseum-data-flights-2026-01"
  },
  "bbox": [
    -122.34514,
    37.49152,
    -121.24748,
    37.60899
  ],
  "geometry": {"coordinates":[[-121.24748,37.59482],[-121.26827,37.59206],[-121.28742,37.5896],[-121.35065,37.58278],[-121.37059,37.58053],[-121.44517,37.57171],[-121.4694,37.56889],[-121.55011,37.5594],[-121.57048,37.5568],[-121.58733,37.55472],[-121.60141,37.55309],[-121.65831,37.54293],[-121.70138,37.53271],[-121.75562,37.51938],[-121.76692,37.5168],[-121.8071,37.50743],[-121.82036,37.50414],[-121.87567,37.49152],[-121.91314,37.49177],[-121.92842,37.49224],[-121.96846,37.49302],[-121.98791,37.49488],[-122.0103,37.50162],[-122.05046,37.51461],[-122.07584,37.52301],[-122.12661,37.5395],[-122.16102,37.55075],[-122.19423,37.56159],[-122.21658,37.56882],[-122.24985,37.57955],[-122.26941,37.58538],[-122.31432,37.59872],[-122.32441,37.60176],[-122.34514,37.60899]],"type":"LineString"}
}
