{
  "id": 2014683843,
  "type": "Feature",
  "properties": {
    "geom:area": 0,
    "geom:bbox": "-123.478920,37.418710,-122.398640,37.669430",
    "geom:latitude": 37.55777079640988,
    "geom:longitude": -122.93724186664161,
    "src:alt_label": "swim-takeoff",
    "src:geom": "swim",
    "swim:elevations": [
      152,
      376,
      713,
      993,
      1151,
      1484,
      1860,
      2195,
      2270,
      2814,
      3142,
      3172,
      3334,
      3405,
      3500,
      3756,
      3889,
      4382,
      4502,
      4613,
      4699,
      4801,
      5208,
      5250
    ],
    "swim:geom": "takeoff",
    "swim:timestamps": [
      1769890286,
      1769890306,
      1769890333,
      1769890366,
      1769890399,
      1769890428,
      1769890460,
      1769890492,
      1769890500,
      1769890553,
      1769890588,
      1769890603,
      1769890648,
      1769890666,
      1769890690,
      1769890735,
      1769890744,
      1769890798,
      1769890816,
      1769890828,
      1769890844,
      1769890860,
      1769890918,
      1769890924
    ],
    "wof:geomhash": "5315804d118e83958cd858bc25f23fbf",
    "wof:id": 2014683843,
    "wof:repo": "sfomuseum-data-flights-2026-01"
  },
  "bbox": [
    -123.47892,
    37.41871,
    -122.39864,
    37.66943
  ],
  "geometry": {"coordinates":[[-122.39864,37.62858],[-122.4191,37.6367],[-122.44599,37.64935],[-122.48097,37.66504],[-122.5254,37.66943],[-122.56709,37.65856],[-122.61511,37.64615],[-122.66414,37.63328],[-122.67578,37.63022],[-122.75948,37.60839],[-122.8159,37.59367],[-122.84113,37.58699],[-122.92227,37.56599],[-122.95651,37.55715],[-123.00352,37.54494],[-123.09575,37.52058],[-123.11415,37.51577],[-123.22279,37.48707],[-123.2589,37.47738],[-123.28309,37.47107],[-123.31597,37.46238],[-123.3467,37.45409],[-123.46659,37.42196],[-123.47892,37.41871]],"type":"LineString"}
}
