{
  "id": 2014682541,
  "type": "Feature",
  "properties": {
    "geom:area": 0,
    "geom:bbox": "-123.475430,37.266090,-122.174200,37.609730",
    "geom:latitude": 37.37974062977164,
    "geom:longitude": -122.7289946153184,
    "src:alt_label": "swim-approach",
    "src:geom": "swim",
    "swim:elevations": [
      5583,
      5275,
      5127,
      5047,
      4551,
      4166,
      4069,
      3561,
      3330,
      3194,
      3159,
      3043,
      3048,
      3048,
      2800,
      2629,
      2531,
      2479,
      2414,
      2176,
      2011,
      1827,
      1828,
      1829,
      1681,
      1620,
      1509,
      1319,
      1193,
      827,
      614,
      504,
      421,
      371,
      208,
      43
    ],
    "swim:geom": "approach",
    "swim:timestamps": [
      1769857161,
      1769857192,
      1769857203,
      1769857212,
      1769857258,
      1769857284,
      1769857293,
      1769857344,
      1769857368,
      1769857401,
      1769857417,
      1769857444,
      1769857484,
      1769857512,
      1769857558,
      1769857609,
      1769857642,
      1769857655,
      1769857667,
      1769857707,
      1769857732,
      1769857765,
      1769857777,
      1769857811,
      1769857852,
      1769857861,
      1769857890,
      1769857920,
      1769857975,
      1769858033,
      1769858065,
      1769858085,
      1769858101,
      1769858109,
      1769858139,
      1769858181
    ],
    "wof:geomhash": "da3dcb514990099442b9c9d8c329f380",
    "wof:id": 2014682541,
    "wof:repo": "sfomuseum-data-flights-2026-01"
  },
  "bbox": [
    -123.47543,
    37.26609,
    -122.1742,
    37.60973
  ],
  "geometry": {"coordinates":[[-123.47543,37.44786],[-123.40483,37.4262],[-123.37997,37.41855],[-123.36179,37.4129],[-123.26082,37.38185],[-123.20536,37.36457],[-123.18581,37.35845],[-123.07877,37.32501],[-123.03178,37.3104],[-122.96753,37.29035],[-122.93775,37.281],[-122.88918,37.26609],[-122.81852,37.26819],[-122.77213,37.2786],[-122.69366,37.29731],[-122.61065,37.31671],[-122.55579,37.32936],[-122.53476,37.33418],[-122.51554,37.33864],[-122.45293,37.35308],[-122.41576,37.36167],[-122.36415,37.3735],[-122.34591,37.37774],[-122.29974,37.38821],[-122.24993,37.40529],[-122.24007,37.40953],[-122.20817,37.42576],[-122.18117,37.44865],[-122.1742,37.50453],[-122.22068,37.55229],[-122.25366,37.56755],[-122.27344,37.57557],[-122.28852,37.58207],[-122.29607,37.58522],[-122.3217,37.59615],[-122.35367,37.60973]],"type":"LineString"}
}
