{
  "id": 2014684201,
  "type": "Feature",
  "properties": {
    "geom:area": 0,
    "geom:bbox": "-122.466040,37.602230,-122.362400,37.712600",
    "geom:latitude": 37.67246033739608,
    "geom:longitude": -122.41487144890341,
    "src:alt_label": "swim-takeoff",
    "src:geom": "swim",
    "swim:elevations": [
      221,
      554,
      717,
      996,
      1292,
      1892,
      2095,
      3139,
      3216
    ],
    "swim:geom": "takeoff",
    "swim:timestamps": [
      1769930303,
      1769930333,
      1769930349,
      1769930376,
      1769930401,
      1769930450,
      1769930462,
      1769930515,
      1769930522
    ],
    "wof:geomhash": "607298b4fa4de0bb344dda3a5bb4324e",
    "wof:id": 2014684201,
    "wof:repo": "sfomuseum-data-flights-2026-01"
  },
  "bbox": [
    -122.46604,
    37.60223,
    -122.3624,
    37.7126
  ],
  "geometry": {"coordinates":[[-122.36679,37.63264],[-122.36371,37.65492],[-122.3624,37.66777],[-122.36469,37.69239],[-122.38627,37.7126],[-122.44703,37.69383],[-122.45421,37.6789],[-122.46484,37.61054],[-122.46604,37.60223]],"type":"LineString"}
}
