{
  "id": 2014682343,
  "type": "Feature",
  "properties": {
    "geom:area": 0,
    "geom:bbox": "-122.363060,36.742280,-121.892390,37.612630",
    "geom:latitude": 37.22115048379395,
    "geom:longitude": -122.07570616851389,
    "src:alt_label": "swim-approach",
    "src:geom": "swim",
    "swim:elevations": [
      4581,
      4505,
      4159,
      3796,
      3536,
      3336,
      3106,
      2841,
      2672,
      2498,
      2424,
      2438,
      2438,
      2438,
      2230,
      2161,
      1741,
      1580,
      1523,
      1476,
      1248,
      1194,
      935,
      790,
      426,
      405,
      303,
      183,
      84,
      0
    ],
    "swim:geom": "approach",
    "swim:timestamps": [
      1769856472,
      1769856480,
      1769856517,
      1769856558,
      1769856591,
      1769856628,
      1769856651,
      1769856679,
      1769856705,
      1769856727,
      1769856771,
      1769856794,
      1769856828,
      1769856840,
      1769856892,
      1769856903,
      1769856953,
      1769856984,
      1769856998,
      1769857038,
      1769857071,
      1769857083,
      1769857126,
      1769857140,
      1769857192,
      1769857203,
      1769857219,
      1769857252,
      1769857281,
      1769857303
    ],
    "wof:geomhash": "693bcbf401738f58ad22fdf5b70f5345",
    "wof:id": 2014682343,
    "wof:repo": "sfomuseum-data-flights-2026-01"
  },
  "bbox": [
    -122.36306,
    36.74228,
    -121.89239,
    37.61263
  ],
  "geometry": {"coordinates":[[-121.89239,36.74228],[-121.89735,36.75413],[-121.91515,36.81594],[-121.93389,36.88263],[-121.94863,36.93455],[-121.9682,36.9895],[-121.98052,37.02154],[-121.99551,37.05973],[-122.00935,37.09465],[-122.01972,37.12169],[-122.04158,37.17739],[-122.05261,37.20548],[-122.06893,37.24724],[-122.07496,37.26251],[-122.09799,37.32191],[-122.10279,37.33417],[-122.12359,37.38818],[-122.13494,37.42103],[-122.14003,37.43582],[-122.15684,37.47692],[-122.17836,37.50879],[-122.18591,37.51951],[-122.21511,37.55071],[-122.22923,37.55713],[-122.28014,37.57878],[-122.28881,37.58256],[-122.30078,37.58776],[-122.32545,37.59806],[-122.34644,37.60668],[-122.36306,37.61263]],"type":"LineString"}
}
