{
  "id": 2014680703,
  "type": "Feature",
  "properties": {
    "geom:area": 0,
    "geom:bbox": "-122.353370,36.732360,-121.884600,37.609620",
    "geom:latitude": 37.21182039203018,
    "geom:longitude": -122.07039615253599,
    "src:alt_label": "swim-approach",
    "src:geom": "swim",
    "swim:elevations": [
      5032,
      4937,
      4506,
      4206,
      4037,
      3859,
      3421,
      3139,
      3024,
      2821,
      2654,
      2552,
      2438,
      2312,
      2085,
      1843,
      1815,
      1556,
      1402,
      1231,
      1057,
      948,
      722,
      467,
      380,
      193,
      88,
      55
    ],
    "swim:geom": "approach",
    "swim:timestamps": [
      1769898893,
      1769898902,
      1769898951,
      1769898984,
      1769899002,
      1769899021,
      1769899072,
      1769899108,
      1769899129,
      1769899153,
      1769899195,
      1769899213,
      1769899242,
      1769899281,
      1769899314,
      1769899345,
      1769899351,
      1769899409,
      1769899436,
      1769899460,
      1769899488,
      1769899518,
      1769899551,
      1769899581,
      1769899596,
      1769899637,
      1769899670,
      1769899682
    ],
    "wof:geomhash": "8c9e3ddda93c2a037b5248f47066c7bc",
    "wof:id": 2014680703,
    "wof:repo": "sfomuseum-data-flights-2026-01"
  },
  "bbox": [
    -122.35337,
    36.73236,
    -121.8846,
    37.60962
  ],
  "geometry": {"coordinates":[[-121.8846,36.73236],[-121.89262,36.74709],[-121.91889,36.83049],[-121.93454,36.88624],[-121.94317,36.91675],[-121.95223,36.94877],[-121.98335,37.02937],[-122.00496,37.08471],[-122.01703,37.1161],[-122.03049,37.15088],[-122.05281,37.20803],[-122.06189,37.23078],[-122.07587,37.26618],[-122.09438,37.31326],[-122.10959,37.35177],[-122.12356,37.38788],[-122.12594,37.39485],[-122.14795,37.45816],[-122.16018,37.48512],[-122.17671,37.50639],[-122.19734,37.53054],[-122.21988,37.55359],[-122.24997,37.56603],[-122.27635,37.57706],[-122.28873,37.5822],[-122.31994,37.59555],[-122.34438,37.60586],[-122.35337,37.60962]],"type":"LineString"}
}
