{
  "id": 2014684309,
  "type": "Feature",
  "properties": {
    "geom:area": 0,
    "geom:bbox": "-122.458090,36.717930,-121.248050,37.718330",
    "geom:latitude": 37.239749594778324,
    "geom:longitude": -121.92531152028673,
    "src:alt_label": "swim-takeoff",
    "src:geom": "swim",
    "swim:elevations": [
      274,
      536,
      741,
      1154,
      1555,
      1742,
      2482,
      2726,
      3073,
      3446,
      3666,
      3929,
      4100,
      4236,
      4512,
      4876,
      5020,
      5614,
      5822,
      6120,
      6507,
      6625,
      7030,
      7107,
      7450,
      7719,
      7881,
      7976,
      8123,
      8199,
      8383,
      8551,
      8723,
      8787,
      8894,
      8985,
      9189,
      9255
    ],
    "swim:geom": "takeoff",
    "swim:timestamps": [
      1769848845,
      1769848874,
      1769848913,
      1769848946,
      1769848970,
      1769848980,
      1769849027,
      1769849049,
      1769849083,
      1769849123,
      1769849142,
      1769849162,
      1769849178,
      1769849192,
      1769849215,
      1769849241,
      1769849252,
      1769849305,
      1769849321,
      1769849345,
      1769849380,
      1769849391,
      1769849427,
      1769849437,
      1769849480,
      1769849513,
      1769849538,
      1769849556,
      1769849576,
      1769849588,
      1769849617,
      1769849645,
      1769849675,
      1769849690,
      1769849707,
      1769849725,
      1769849752,
      1769849760
    ],
    "wof:geomhash": "620321310931c9588b4a09654c759020",
    "wof:id": 2014684309,
    "wof:repo": "sfomuseum-data-flights-2026-01"
  },
  "bbox": [
    -122.45809,
    36.71793,
    -121.24805,
    37.71833
  ],
  "geometry": {"coordinates":[[-122.36697,37.63297],[-122.3642,37.65488],[-122.36361,37.69384],[-122.39873,37.71833],[-122.43451,37.71191],[-122.44558,37.70301],[-122.45809,37.64517],[-122.4436,37.61891],[-122.40774,37.58488],[-122.35411,37.54629],[-122.32589,37.52601],[-122.29755,37.50518],[-122.27409,37.48777],[-122.25252,37.47171],[-122.21492,37.44383],[-122.17358,37.41321],[-122.15638,37.4005],[-122.0688,37.33557],[-122.04282,37.31635],[-122.00372,37.28735],[-121.94474,37.24318],[-121.92587,37.22909],[-121.86566,37.18412],[-121.84876,37.17149],[-121.77585,37.11694],[-121.71755,37.07317],[-121.67121,37.03784],[-121.63853,37.01312],[-121.60232,36.98568],[-121.57994,36.96908],[-121.52612,36.92829],[-121.47346,36.88853],[-121.41544,36.84582],[-121.3862,36.82342],[-121.35307,36.79697],[-121.31808,36.77081],[-121.26397,36.72949],[-121.24805,36.71793]],"type":"LineString"}
}
