{
  "id": 2014681727,
  "type": "Feature",
  "properties": {
    "geom:area": 0,
    "geom:bbox": "-122.365090,36.732270,-121.884650,37.615880",
    "geom:latitude": 37.22020047265488,
    "geom:longitude": -122.07402997070511,
    "src:alt_label": "swim-approach",
    "src:geom": "swim",
    "swim:elevations": [
      5141,
      4878,
      4602,
      4367,
      4119,
      3836,
      3436,
      3264,
      3249,
      3155,
      2924,
      2775,
      2664,
      2528,
      2413,
      2307,
      1979,
      1792,
      1720,
      1580,
      1527,
      1480,
      1320,
      1175,
      933,
      784,
      725,
      459,
      342,
      214,
      181,
      381
    ],
    "swim:geom": "approach",
    "swim:timestamps": [
      1769929225,
      1769929253,
      1769929281,
      1769929305,
      1769929331,
      1769929362,
      1769929405,
      1769929435,
      1769929446,
      1769929470,
      1769929528,
      1769929553,
      1769929573,
      1769929594,
      1769929612,
      1769929630,
      1769929675,
      1769929701,
      1769929711,
      1769929757,
      1769929772,
      1769929794,
      1769929827,
      1769929845,
      1769929880,
      1769929910,
      1769929920,
      1769929974,
      1769930004,
      1769930037,
      1769930049,
      1769930094
    ],
    "wof:geomhash": "fdc108a196eb3d37f2df9583b002c240",
    "wof:id": 2014681727,
    "wof:repo": "sfomuseum-data-flights-2026-01"
  },
  "bbox": [
    -122.36509,
    36.73227,
    -121.88465,
    37.61588
  ],
  "geometry": {"coordinates":[[-121.88465,36.73227],[-121.90456,36.77826],[-121.91777,36.8253],[-121.92876,36.86513],[-121.94074,36.90832],[-121.95539,36.95736],[-121.98052,37.02323],[-121.99644,37.06387],[-122.00201,37.07783],[-122.01445,37.10914],[-122.04211,37.17975],[-122.05367,37.20952],[-122.06323,37.23387],[-122.07292,37.25832],[-122.08098,37.27897],[-122.08891,37.29932],[-122.10891,37.34987],[-122.12044,37.37936],[-122.12468,37.39069],[-122.14122,37.44084],[-122.1463,37.45588],[-122.15322,37.47691],[-122.16265,37.50532],[-122.16756,37.52039],[-122.18899,37.54275],[-122.21661,37.55439],[-122.22634,37.55858],[-122.27324,37.57829],[-122.29615,37.58796],[-122.32086,37.59834],[-122.32964,37.60193],[-122.36509,37.61588]],"type":"LineString"}
}
