{
  "id": 2014682437,
  "type": "Feature",
  "properties": {
    "geom:area": 0,
    "geom:bbox": "-122.356530,36.742930,-121.890250,37.613240",
    "geom:latitude": 37.21965027169504,
    "geom:longitude": -122.07367794532045,
    "src:alt_label": "swim-approach",
    "src:geom": "swim",
    "swim:elevations": [
      5021,
      4894,
      4529,
      4312,
      3991,
      3843,
      3363,
      3244,
      3125,
      2993,
      2859,
      2620,
      2412,
      2240,
      2141,
      2015,
      1829,
      1817,
      1623,
      1299,
      1184,
      889,
      760,
      549,
      419,
      387,
      210,
      90,
      18
    ],
    "swim:geom": "approach",
    "swim:timestamps": [
      1769878581,
      1769878595,
      1769878635,
      1769878661,
      1769878696,
      1769878714,
      1769878768,
      1769878781,
      1769878817,
      1769878855,
      1769878876,
      1769878913,
      1769878944,
      1769878968,
      1769878980,
      1769878997,
      1769879031,
      1769879041,
      1769879085,
      1769879120,
      1769879134,
      1769879180,
      1769879200,
      1769879248,
      1769879276,
      1769879286,
      1769879330,
      1769879356,
      1769879370
    ],
    "wof:geomhash": "64f20100266a75e6fcfa6c1f00dfeac8",
    "wof:id": 2014682437,
    "wof:repo": "sfomuseum-data-flights-2026-01"
  },
  "bbox": [
    -122.35653,
    36.74293,
    -121.89025,
    37.61324
  ],
  "geometry": {"coordinates":[[-121.89025,36.74293],[-121.90036,36.7664],[-121.92002,36.83365],[-121.93163,36.87562],[-121.94765,36.93278],[-121.95606,36.95987],[-121.98896,37.04421],[-121.99616,37.06278],[-122.01708,37.11626],[-122.03741,37.1675],[-122.04821,37.19488],[-122.06656,37.24195],[-122.08166,37.28105],[-122.09338,37.31081],[-122.09917,37.32559],[-122.10759,37.34729],[-122.12368,37.38911],[-122.12783,37.40121],[-122.14406,37.44946],[-122.16093,37.48558],[-122.17024,37.49869],[-122.2,37.54081],[-122.21777,37.55204],[-122.25867,37.57055],[-122.28119,37.58189],[-122.28915,37.58512],[-122.32531,37.60019],[-122.34551,37.60865],[-122.35653,37.61324]],"type":"LineString"}
}
