{
  "id": 2014682335,
  "type": "Feature",
  "properties": {
    "geom:area": 0,
    "geom:bbox": "-122.348660,37.442860,-121.250400,37.610010",
    "geom:latitude": 37.53577972469096,
    "geom:longitude": -121.80278854363317,
    "src:alt_label": "swim-approach",
    "src:geom": "swim",
    "swim:elevations": [
      4690,
      4604,
      4527,
      4458,
      4297,
      4295,
      4040,
      3943,
      3628,
      3529,
      3482,
      3416,
      3182,
      2987,
      2784,
      2640,
      2410,
      2196,
      2146,
      2122,
      1931,
      1843,
      1831,
      1797,
      1754,
      1609,
      1434,
      1298,
      1246,
      1025,
      909,
      731,
      575,
      405,
      274,
      231,
      121,
      68
    ],
    "swim:geom": "approach",
    "swim:timestamps": [
      1769849660,
      1769849680,
      1769849712,
      1769849725,
      1769849756,
      1769849760,
      1769849811,
      1769849821,
      1769849856,
      1769849876,
      1769849883,
      1769849897,
      1769849931,
      1769849963,
      1769849990,
      1769850015,
      1769850050,
      1769850083,
      1769850102,
      1769850132,
      1769850159,
      1769850182,
      1769850193,
      1769850220,
      1769850229,
      1769850260,
      1769850296,
      1769850323,
      1769850332,
      1769850389,
      1769850407,
      1769850432,
      1769850462,
      1769850497,
      1769850533,
      1769850541,
      1769850572,
      1769850585
    ],
    "wof:geomhash": "60021a9c5e20d85db7dc12d9ec11acb4",
    "wof:id": 2014682335,
    "wof:repo": "sfomuseum-data-flights-2026-01"
  },
  "bbox": [
    -122.34866,
    37.44286,
    -121.2504,
    37.61001
  ],
  "geometry": {"coordinates":[[-121.2504,37.59442],[-121.28901,37.58933],[-121.34832,37.58273],[-121.37024,37.5803],[-121.42124,37.57452],[-121.42876,37.57367],[-121.50305,37.56502],[-121.51678,37.56339],[-121.56587,37.55744],[-121.59445,37.55412],[-121.60408,37.553],[-121.62342,37.55058],[-121.66723,37.54032],[-121.7092,37.53007],[-121.73303,37.50778],[-121.74696,37.48238],[-121.76973,37.44956],[-121.81183,37.44286],[-121.837,37.45039],[-121.87658,37.46197],[-121.91073,37.47187],[-121.94099,37.48076],[-121.95545,37.48505],[-121.98703,37.4944],[-121.99739,37.4977],[-122.031,37.50875],[-122.06954,37.52114],[-122.09924,37.53076],[-122.10913,37.53394],[-122.16967,37.55356],[-122.18825,37.5596],[-122.21471,37.56819],[-122.2463,37.57843],[-122.28069,37.58891],[-122.31078,37.59738],[-122.31642,37.59914],[-122.3395,37.60626],[-122.34866,37.61001]],"type":"LineString"}
}
