{
  "id": 2014683181,
  "type": "Feature",
  "properties": {
    "geom:area": 0,
    "geom:bbox": "-122.364120,37.631890,-121.248850,38.423500",
    "geom:latitude": 38.037888658168235,
    "geom:longitude": -121.81669353192326,
    "src:alt_label": "swim-takeoff",
    "src:geom": "swim",
    "swim:elevations": [
      270,
      611,
      852,
      945,
      1273,
      1829,
      2163,
      2636,
      2768,
      3189,
      3309,
      3801,
      4142,
      4220,
      4846,
      5180,
      5374,
      5559,
      5779,
      6211,
      6313,
      6597,
      6845,
      7009,
      7349,
      7531
    ],
    "swim:geom": "takeoff",
    "swim:timestamps": [
      1769856615,
      1769856641,
      1769856676,
      1769856693,
      1769856724,
      1769856768,
      1769856794,
      1769856831,
      1769856840,
      1769856880,
      1769856906,
      1769856949,
      1769856984,
      1769856994,
      1769857045,
      1769857071,
      1769857090,
      1769857116,
      1769857143,
      1769857198,
      1769857212,
      1769857244,
      1769857276,
      1769857293,
      1769857337,
      1769857362
    ],
    "wof:geomhash": "16dd5a8d23ece5e40766c01958a337c4",
    "wof:id": 2014683181,
    "wof:repo": "sfomuseum-data-flights-2026-01"
  },
  "bbox": [
    -122.36412,
    37.63189,
    -121.24885,
    38.4235
  ],
  "geometry": {"coordinates":[[-122.36412,37.63189],[-122.34532,37.64567],[-122.31294,37.66383],[-122.29482,37.67421],[-122.25877,37.69549],[-122.22416,37.74408],[-122.20624,37.77441],[-122.16074,37.80676],[-122.14865,37.81494],[-122.09481,37.85234],[-122.05705,37.87848],[-121.98964,37.92511],[-121.93396,37.96356],[-121.91743,37.97494],[-121.8315,38.03405],[-121.78689,38.06471],[-121.75533,38.08643],[-121.71059,38.11708],[-121.66307,38.1496],[-121.56519,38.21668],[-121.53975,38.23407],[-121.48007,38.27473],[-121.41952,38.3159],[-121.38535,38.33889],[-121.29807,38.39298],[-121.24885,38.4235]],"type":"LineString"}
}
