{
  "id": 2014682327,
  "type": "Feature",
  "properties": {
    "geom:area": 0,
    "geom:bbox": "-122.349840,37.491700,-121.281950,37.610480",
    "geom:latitude": 37.54491576773516,
    "geom:longitude": -121.8204774910337,
    "src:alt_label": "swim-approach",
    "src:geom": "swim",
    "swim:elevations": [
      4651,
      4364,
      4038,
      3965,
      3675,
      3358,
      3207,
      3150,
      2842,
      2686,
      2518,
      2288,
      2229,
      2055,
      1965,
      1917,
      1829,
      1698,
      1587,
      1522,
      1494,
      1385,
      1242,
      988,
      630,
      584,
      436,
      354,
      125,
      55
    ],
    "swim:geom": "approach",
    "swim:timestamps": [
      1769858937,
      1769858964,
      1769858998,
      1769859008,
      1769859040,
      1769859071,
      1769859106,
      1769859124,
      1769859167,
      1769859185,
      1769859224,
      1769859266,
      1769859274,
      1769859304,
      1769859324,
      1769859337,
      1769859373,
      1769859413,
      1769859435,
      1769859453,
      1769859468,
      1769859491,
      1769859513,
      1769859544,
      1769859590,
      1769859597,
      1769859619,
      1769859636,
      1769859681,
      1769859698
    ],
    "wof:geomhash": "9b8159f78a220609143c87853e8a07e9",
    "wof:id": 2014682327,
    "wof:repo": "sfomuseum-data-flights-2026-01"
  },
  "bbox": [
    -122.34984,
    37.4917,
    -121.28195,
    37.61048
  ],
  "geometry": {"coordinates":[[-121.28195,37.59032],[-121.33687,37.58398],[-121.40248,37.57686],[-121.4195,37.575],[-121.47765,37.56801],[-121.53507,37.56132],[-121.59892,37.55379],[-121.62788,37.54981],[-121.69551,37.53386],[-121.72396,37.52717],[-121.78568,37.51238],[-121.84856,37.49725],[-121.86032,37.49442],[-121.90477,37.4917],[-121.9339,37.49254],[-121.95356,37.49307],[-122.00436,37.49994],[-122.05485,37.51624],[-122.08303,37.52546],[-122.10583,37.53289],[-122.12329,37.53861],[-122.14939,37.54706],[-122.17307,37.55469],[-122.20693,37.56554],[-122.25524,37.58126],[-122.26226,37.58343],[-122.28254,37.58914],[-122.29765,37.59347],[-122.33596,37.60492],[-122.34984,37.61048]],"type":"LineString"}
}
