{
  "id": 2014680143,
  "type": "Feature",
  "properties": {
    "geom:area": 0,
    "geom:bbox": "-122.362290,36.737480,-121.887340,37.613490",
    "geom:latitude": 37.21854826448924,
    "geom:longitude": -122.07411265896793,
    "src:alt_label": "swim-approach",
    "src:geom": "swim",
    "swim:elevations": [
      5066,
      4789,
      4491,
      4402,
      3963,
      3857,
      3569,
      3239,
      3136,
      3077,
      2854,
      2809,
      2620,
      2437,
      2367,
      2226,
      2101,
      1862,
      1569,
      1493,
      1279,
      1109,
      1074,
      831,
      573,
      367,
      352,
      143,
      77,
      151
    ],
    "swim:geom": "approach",
    "swim:timestamps": [
      1769886837,
      1769886865,
      1769886898,
      1769886910,
      1769886957,
      1769886968,
      1769887003,
      1769887042,
      1769887067,
      1769887090,
      1769887135,
      1769887141,
      1769887171,
      1769887198,
      1769887207,
      1769887224,
      1769887242,
      1769887270,
      1769887314,
      1769887327,
      1769887366,
      1769887402,
      1769887410,
      1769887445,
      1769887483,
      1769887528,
      1769887534,
      1769887588,
      1769887603,
      1769887624
    ],
    "wof:geomhash": "7ad331b8dceda31356f22a4b37e0409f",
    "wof:id": 2014680143,
    "wof:repo": "sfomuseum-data-flights-2026-01"
  },
  "bbox": [
    -122.36229,
    36.73748,
    -121.88734,
    37.61349
  ],
  "geometry": {"coordinates":[[-121.88734,36.73748],[-121.90576,36.78426],[-121.92171,36.84088],[-121.9274,36.86097],[-121.94906,36.9378],[-121.95475,36.95606],[-121.97607,37.0105],[-121.99898,37.06956],[-122.01282,37.10521],[-122.0252,37.13721],[-122.04833,37.19602],[-122.05144,37.20389],[-122.06688,37.2429],[-122.0804,37.2776],[-122.08514,37.28911],[-122.09372,37.31069],[-122.10264,37.33319],[-122.11668,37.36928],[-122.1349,37.42148],[-122.14018,37.43726],[-122.15808,37.48081],[-122.17877,37.51392],[-122.18501,37.5213],[-122.21004,37.54761],[-122.24574,37.56442],[-122.28618,37.58133],[-122.29091,37.58341],[-122.33373,37.60133],[-122.34565,37.60631],[-122.36229,37.61349]],"type":"LineString"}
}
