{
  "id": 2014684755,
  "type": "Feature",
  "properties": {
    "geom:area": 0,
    "geom:bbox": "-122.367920,37.626110,-121.260870,38.416200",
    "geom:latitude": 38.032116507339595,
    "geom:longitude": -121.8243114293483,
    "src:alt_label": "swim-takeoff",
    "src:geom": "swim",
    "swim:elevations": [
      152,
      361,
      731,
      859,
      1355,
      1757,
      2216,
      2483,
      2801,
      3173,
      3258,
      3440,
      3978,
      4105,
      4188,
      4339,
      4730,
      5215,
      5521,
      5742,
      5840,
      6266,
      6316,
      6676,
      6784,
      7107,
      7376
    ],
    "swim:geom": "takeoff",
    "swim:timestamps": [
      1769862168,
      1769862180,
      1769862225,
      1769862246,
      1769862297,
      1769862325,
      1769862358,
      1769862379,
      1769862405,
      1769862448,
      1769862465,
      1769862485,
      1769862526,
      1769862542,
      1769862558,
      1769862570,
      1769862600,
      1769862644,
      1769862682,
      1769862710,
      1769862723,
      1769862777,
      1769862784,
      1769862830,
      1769862843,
      1769862885,
      1769862922
    ],
    "wof:geomhash": "9b499f7e505afe29f1c2341ce4635bec",
    "wof:id": 2014684755,
    "wof:repo": "sfomuseum-data-flights-2026-01"
  },
  "bbox": [
    -122.36792,
    37.62611,
    -121.26087,
    38.4162
  ],
  "geometry": {"coordinates":[[-122.36792,37.62611],[-122.36292,37.63328],[-122.32707,37.65543],[-122.30585,37.66718],[-122.2446,37.70299],[-122.20932,37.72477],[-122.17795,37.75928],[-122.15772,37.78166],[-122.13046,37.81108],[-122.08587,37.8604],[-122.0649,37.88291],[-122.03589,37.9039],[-121.96893,37.94752],[-121.94226,37.9647],[-121.91685,37.98145],[-121.89552,37.99586],[-121.8457,38.03051],[-121.77243,38.08061],[-121.70753,38.12426],[-121.66015,38.15577],[-121.63682,38.17134],[-121.53848,38.23715],[-121.52555,38.24574],[-121.43963,38.30305],[-121.41484,38.31961],[-121.33356,38.37181],[-121.26087,38.4162]],"type":"LineString"}
}
