{
  "id": 2014682821,
  "type": "Feature",
  "properties": {
    "geom:area": 0,
    "geom:bbox": "-122.759410,37.448790,-122.134170,38.395250",
    "geom:latitude": 37.81886941379924,
    "geom:longitude": -122.48594012708551,
    "src:alt_label": "swim-approach",
    "src:geom": "swim",
    "swim:elevations": [
      7559,
      7468,
      7057,
      6958,
      6567,
      6327,
      6247,
      5718,
      5611,
      5248,
      5021,
      4846,
      4339,
      4150,
      4091,
      3925,
      3530,
      3446,
      3353,
      3353,
      3353,
      3353,
      3353,
      3307,
      3170,
      2773,
      2489,
      2293,
      1926,
      1788,
      1454,
      1379,
      1248,
      1219,
      1133,
      996,
      936,
      731,
      565,
      440,
      431,
      219,
      122,
      0
    ],
    "swim:geom": "approach",
    "swim:timestamps": [
      1769887376,
      1769887385,
      1769887436,
      1769887450,
      1769887498,
      1769887525,
      1769887534,
      1769887588,
      1769887600,
      1769887637,
      1769887660,
      1769887685,
      1769887728,
      1769887750,
      1769887756,
      1769887776,
      1769887819,
      1769887833,
      1769887883,
      1769887915,
      1769887921,
      1769887955,
      1769887976,
      1769888003,
      1769888019,
      1769888058,
      1769888086,
      1769888107,
      1769888140,
      1769888155,
      1769888185,
      1769888197,
      1769888221,
      1769888260,
      1769888290,
      1769888323,
      1769888365,
      1769888392,
      1769888422,
      1769888458,
      1769888464,
      1769888513,
      1769888543,
      1769888567
    ],
    "wof:geomhash": "ca1fd5414b7ffc7a113349c40d5a2ac2",
    "wof:id": 2014682821,
    "wof:repo": "sfomuseum-data-flights-2026-01"
  },
  "bbox": [
    -122.75941,
    37.44879,
    -122.13417,
    38.39525
  ],
  "geometry": {"coordinates":[[-122.59211,38.39525],[-122.60386,38.38389],[-122.66774,38.32205],[-122.68572,38.30454],[-122.74496,38.24593],[-122.75941,38.20565],[-122.75782,38.19156],[-122.73383,38.1084],[-122.72835,38.0904],[-122.71238,38.03581],[-122.7023,38.00059],[-122.69158,37.9635],[-122.67008,37.90114],[-122.64615,37.87365],[-122.63868,37.86652],[-122.61432,37.84335],[-122.56083,37.79341],[-122.54307,37.77686],[-122.48565,37.72257],[-122.45152,37.69023],[-122.44508,37.68421],[-122.40876,37.6501],[-122.3876,37.63032],[-122.363,37.60614],[-122.35475,37.58995],[-122.336,37.55249],[-122.32045,37.52696],[-122.3085,37.5085],[-122.28494,37.47971],[-122.26681,37.47277],[-122.22852,37.46107],[-122.21322,37.45614],[-122.182,37.44879],[-122.14444,37.47213],[-122.13417,37.4974],[-122.15163,37.52343],[-122.19031,37.54134],[-122.21687,37.55256],[-122.24569,37.56428],[-122.27608,37.57707],[-122.28098,37.57914],[-122.31792,37.59461],[-122.34045,37.60422],[-122.35864,37.61164]],"type":"LineString"}
}
