{
  "id": 2014680139,
  "type": "Feature",
  "properties": {
    "geom:area": 0,
    "geom:bbox": "-122.347260,36.735560,-121.886730,37.607010",
    "geom:latitude": 37.21769066807995,
    "geom:longitude": -122.06786683773427,
    "src:alt_label": "swim-approach",
    "src:geom": "swim",
    "swim:elevations": [
      5061,
      4817,
      4734,
      4579,
      4338,
      4049,
      3939,
      3520,
      3212,
      3122,
      3031,
      2891,
      2837,
      2543,
      2436,
      2285,
      1959,
      1845,
      1628,
      1438,
      1266,
      1219,
      963,
      922,
      914,
      780,
      579,
      308,
      213,
      95,
      78
    ],
    "swim:geom": "approach",
    "swim:timestamps": [
      1769851224,
      1769851253,
      1769851262,
      1769851284,
      1769851309,
      1769851340,
      1769851351,
      1769851399,
      1769851435,
      1769851466,
      1769851495,
      1769851523,
      1769851532,
      1769851581,
      1769851601,
      1769851624,
      1769851674,
      1769851697,
      1769851732,
      1769851754,
      1769851782,
      1769851811,
      1769851853,
      1769851861,
      1769851909,
      1769851929,
      1769851971,
      1769852008,
      1769852024,
      1769852063,
      1769852071
    ],
    "wof:geomhash": "bf12fe8ab6d76001e3caa24a8724c4e9",
    "wof:id": 2014680139,
    "wof:repo": "sfomuseum-data-flights-2026-01"
  },
  "bbox": [
    -122.34726,
    36.73556,
    -121.88673,
    37.60701
  ],
  "geometry": {"coordinates":[[-121.88673,36.73556],[-121.90556,36.78382],[-121.90973,36.79855],[-121.91956,36.83321],[-121.93097,36.87384],[-121.94544,36.92501],[-121.95061,36.94281],[-121.97815,37.01517],[-121.99942,37.07108],[-122.01644,37.11488],[-122.03177,37.15354],[-122.04501,37.18761],[-122.04914,37.19799],[-122.07116,37.25371],[-122.08015,37.27659],[-122.0898,37.30178],[-122.11068,37.35463],[-122.11898,37.37603],[-122.11943,37.40924],[-122.1182,37.42979],[-122.11669,37.4558],[-122.12151,37.48116],[-122.15256,37.51148],[-122.15869,37.51625],[-122.20301,37.54245],[-122.2225,37.5523],[-122.26302,37.57022],[-122.29505,37.58487],[-122.30866,37.59055],[-122.34112,37.60439],[-122.34726,37.60701]],"type":"LineString"}
}
