{
  "id": 2014686043,
  "type": "Feature",
  "properties": {
    "geom:area": 0,
    "geom:bbox": "-122.367530,37.626560,-122.009810,38.514610",
    "geom:latitude": 38.04374335931605,
    "geom:longitude": -122.16027194290389,
    "src:alt_label": "swim-takeoff",
    "src:geom": "swim",
    "swim:elevations": [
      152,
      561,
      964,
      1124,
      1413,
      1800,
      2356,
      2674,
      2970,
      3512,
      3776,
      4242,
      4769,
      4843,
      5311,
      5659,
      5905,
      6034,
      6299,
      6450,
      6776,
      7134,
      7433
    ],
    "swim:geom": "takeoff",
    "swim:timestamps": [
      1769852182,
      1769852205,
      1769852238,
      1769852257,
      1769852302,
      1769852334,
      1769852364,
      1769852382,
      1769852401,
      1769852456,
      1769852475,
      1769852510,
      1769852548,
      1769852556,
      1769852588,
      1769852624,
      1769852646,
      1769852659,
      1769852688,
      1769852704,
      1769852735,
      1769852776,
      1769852807
    ],
    "wof:geomhash": "cf3068845c12ed0e37a37f33006a0e3a",
    "wof:id": 2014686043,
    "wof:repo": "sfomuseum-data-flights-2026-01"
  },
  "bbox": [
    -122.36753,
    37.62656,
    -122.00981,
    38.51461
  ],
  "geometry": {"coordinates":[[-122.36753,37.62656],[-122.35344,37.63848],[-122.33039,37.65255],[-122.31629,37.6613],[-122.27404,37.68574],[-122.23339,37.70758],[-122.21101,37.74077],[-122.20744,37.76422],[-122.20279,37.78863],[-122.18866,37.87097],[-122.18355,37.90242],[-122.17413,37.962],[-122.16286,38.0284],[-122.16068,38.04211],[-122.15135,38.10005],[-122.1408,38.16521],[-122.1291,38.20578],[-122.12025,38.22921],[-122.09958,38.28282],[-122.08762,38.31308],[-122.06333,38.37313],[-122.03232,38.45425],[-122.00981,38.51461]],"type":"LineString"}
}
