{
  "id": 2014685927,
  "type": "Feature",
  "properties": {
    "geom:area": 0,
    "geom:bbox": "-123.482170,37.441710,-122.397720,37.664230",
    "geom:latitude": 37.57597129775738,
    "geom:longitude": -122.94219106760116,
    "src:alt_label": "swim-takeoff",
    "src:geom": "swim",
    "swim:elevations": [
      182,
      614,
      882,
      1090,
      1292,
      1943,
      2122,
      2491,
      2984,
      3263,
      3434,
      3808,
      4348,
      4481,
      4951,
      5165,
      5439,
      5698,
      6044,
      6235,
      6426,
      6754,
      6800
    ],
    "swim:geom": "takeoff",
    "swim:timestamps": [
      1769884657,
      1769884694,
      1769884715,
      1769884740,
      1769884772,
      1769884823,
      1769884838,
      1769884866,
      1769884903,
      1769884931,
      1769884959,
      1769884994,
      1769885034,
      1769885053,
      1769885093,
      1769885120,
      1769885157,
      1769885178,
      1769885217,
      1769885244,
      1769885268,
      1769885305,
      1769885310
    ],
    "wof:geomhash": "0673e5ee44647001c2440a3c9ac5e9d1",
    "wof:id": 2014685927,
    "wof:repo": "sfomuseum-data-flights-2026-01"
  },
  "bbox": [
    -123.48217,
    37.44171,
    -122.39772,
    37.66423
  ],
  "geometry": {"coordinates":[[-122.39772,37.62808],[-122.43416,37.64413],[-122.45499,37.65309],[-122.48094,37.66423],[-122.52238,37.66187],[-122.58487,37.62537],[-122.60518,37.61633],[-122.64342,37.5993],[-122.70483,37.58948],[-122.75108,37.58797],[-122.80508,37.58542],[-122.87318,37.58255],[-122.95279,37.5794],[-122.99038,37.57803],[-123.07242,37.57616],[-123.12992,37.57568],[-123.20774,37.57188],[-123.24686,37.55747],[-123.31428,37.52418],[-123.36385,37.50048],[-123.40658,37.47867],[-123.47333,37.44597],[-123.48217,37.44171]],"type":"LineString"}
}
