{
  "id": 2014682489,
  "type": "Feature",
  "properties": {
    "geom:area": 0,
    "geom:bbox": "-122.356950,37.491490,-121.250360,37.613360",
    "geom:latitude": 37.546674992514056,
    "geom:longitude": -121.80852965489674,
    "src:alt_label": "swim-approach",
    "src:geom": "swim",
    "swim:elevations": [
      5130,
      4786,
      4481,
      4154,
      3986,
      3454,
      3284,
      3200,
      3074,
      2754,
      2620,
      2434,
      2363,
      2136,
      2081,
      1883,
      1746,
      1687,
      1575,
      1445,
      1269,
      1094,
      1032,
      865,
      710,
      601,
      470,
      335,
      251,
      71,
      0
    ],
    "swim:geom": "approach",
    "swim:timestamps": [
      1769926767,
      1769926797,
      1769926825,
      1769926853,
      1769926868,
      1769926918,
      1769926942,
      1769926969,
      1769926987,
      1769927038,
      1769927056,
      1769927093,
      1769927102,
      1769927151,
      1769927176,
      1769927216,
      1769927243,
      1769927258,
      1769927276,
      1769927300,
      1769927330,
      1769927362,
      1769927371,
      1769927403,
      1769927430,
      1769927454,
      1769927478,
      1769927506,
      1769927527,
      1769927575,
      1769927590
    ],
    "wof:geomhash": "755372604108525e2f49dc64478bde35",
    "wof:id": 2014682489,
    "wof:repo": "sfomuseum-data-flights-2026-01"
  },
  "bbox": [
    -122.35695,
    37.49149,
    -121.25036,
    37.61336
  ],
  "geometry": {"coordinates":[[-121.25036,37.59456],[-121.30774,37.58741],[-121.36085,37.58157],[-121.41488,37.57529],[-121.44276,37.57205],[-121.53444,37.56123],[-121.57725,37.55638],[-121.62208,37.55091],[-121.64979,37.54477],[-121.72448,37.52699],[-121.7505,37.52077],[-121.80286,37.5082],[-121.81548,37.50521],[-121.88113,37.49149],[-121.91351,37.49187],[-121.96617,37.49342],[-122.00044,37.49862],[-122.01851,37.50452],[-122.04024,37.51163],[-122.06908,37.52095],[-122.10428,37.53233],[-122.14087,37.54423],[-122.15116,37.54748],[-122.18781,37.55943],[-122.21741,37.56897],[-122.24259,37.5772],[-122.26656,37.58472],[-122.29207,37.59203],[-122.30946,37.59726],[-122.34616,37.60879],[-122.35695,37.61336]],"type":"LineString"}
}
