{
  "id": 2014680113,
  "type": "Feature",
  "properties": {
    "geom:area": 0,
    "geom:bbox": "-123.133690,37.518580,-122.046010,38.516140",
    "geom:latitude": 37.90948469941111,
    "geom:longitude": -122.54110053037037,
    "src:alt_label": "swim-approach",
    "src:geom": "swim",
    "swim:elevations": [
      8260,
      8045,
      7692,
      7481,
      7212,
      6947,
      6579,
      6245,
      6061,
      5906,
      5565,
      5402,
      4956,
      4588,
      4457,
      4111,
      3865,
      3658,
      3450,
      3382,
      3353,
      3291,
      3133,
      3023,
      2857,
      2775,
      2601,
      2455,
      2232,
      1787,
      1594,
      1525,
      1305,
      1249,
      1141,
      1043,
      929,
      785,
      534,
      494,
      427,
      332,
      157,
      88
    ],
    "swim:geom": "approach",
    "swim:timestamps": [
      1769868907,
      1769868932,
      1769868970,
      1769868996,
      1769869029,
      1769869058,
      1769869098,
      1769869137,
      1769869155,
      1769869173,
      1769869209,
      1769869234,
      1769869273,
      1769869315,
      1769869330,
      1769869369,
      1769869394,
      1769869420,
      1769869453,
      1769869470,
      1769869509,
      1769869545,
      1769869581,
      1769869603,
      1769869634,
      1769869655,
      1769869688,
      1769869713,
      1769869740,
      1769869794,
      1769869817,
      1769869832,
      1769869884,
      1769869905,
      1769869932,
      1769869962,
      1769869993,
      1769870021,
      1769870066,
      1769870078,
      1769870092,
      1769870114,
      1769870156,
      1769870170
    ],
    "wof:geomhash": "8383f724a38f423733afee6081074f4f",
    "wof:id": 2014680113,
    "wof:repo": "sfomuseum-data-flights-2026-01"
  },
  "bbox": [
    -123.13369,
    37.51858,
    -122.04601,
    38.51614
  ],
  "geometry": {"coordinates":[[-123.13369,38.51614],[-123.09179,38.48336],[-123.0313,38.43437],[-122.9899,38.40201],[-122.93844,38.36115],[-122.89389,38.32547],[-122.83059,38.27497],[-122.77505,38.22514],[-122.76047,38.19875],[-122.75168,38.17094],[-122.73531,38.11508],[-122.7246,38.07714],[-122.70696,38.01591],[-122.68867,37.95254],[-122.6821,37.92965],[-122.64788,37.87538],[-122.61592,37.84514],[-122.58411,37.81522],[-122.54238,37.77607],[-122.52108,37.75601],[-122.47181,37.71719],[-122.4149,37.70459],[-122.35953,37.69374],[-122.32685,37.68722],[-122.28112,37.67772],[-122.25095,37.67129],[-122.20585,37.65838],[-122.1729,37.64832],[-122.13662,37.63696],[-122.07187,37.60724],[-122.05042,37.58946],[-122.04601,37.57471],[-122.06186,37.52508],[-122.08589,37.51969],[-122.11696,37.51858],[-122.15098,37.52667],[-122.18303,37.54055],[-122.2129,37.55287],[-122.25823,37.57193],[-122.26882,37.57641],[-122.28081,37.58146],[-122.29919,37.5892],[-122.33235,37.60309],[-122.34344,37.60776]],"type":"LineString"}
}
