{
  "id": 2014682051,
  "type": "Feature",
  "properties": {
    "geom:area": 0,
    "geom:bbox": "-122.360080,37.491820,-121.389160,37.614580",
    "geom:latitude": 37.541385629535405,
    "geom:longitude": -121.87881532427237,
    "src:alt_label": "swim-approach",
    "src:geom": "swim",
    "swim:elevations": [
      4243,
      3579,
      3444,
      3258,
      2809,
      2490,
      2314,
      2050,
      1814,
      1674,
      1539,
      999,
      844,
      516,
      394,
      270,
      177,
      0
    ],
    "swim:geom": "approach",
    "swim:timestamps": [
      1769874917,
      1769874977,
      1769874990,
      1769875020,
      1769875099,
      1769875153,
      1769875180,
      1769875228,
      1769875288,
      1769875310,
      1769875332,
      1769875421,
      1769875449,
      1769875512,
      1769875541,
      1769875572,
      1769875596,
      1769875637
    ],
    "wof:geomhash": "398336611dbf985338640cce8eef78ee",
    "wof:id": 2014682051,
    "wof:repo": "sfomuseum-data-flights-2026-01"
  },
  "bbox": [
    -122.36008,
    37.49182,
    -121.38916,
    37.61458
  ],
  "geometry": {"coordinates":[[-121.38916,37.57846],[-121.50509,37.56488],[-121.52967,37.56194],[-121.58732,37.55527],[-121.71456,37.52951],[-121.79603,37.50977],[-121.83607,37.50024],[-121.90631,37.49182],[-121.99078,37.49603],[-122.01888,37.50473],[-122.04666,37.51378],[-122.16082,37.55068],[-122.19542,37.56199],[-122.26024,37.58269],[-122.28613,37.59024],[-122.31101,37.59769],[-122.32937,37.60329],[-122.36008,37.61458]],"type":"LineString"}
}
