{
  "id": 2014680081,
  "type": "Feature",
  "properties": {
    "geom:area": 0,
    "geom:bbox": "-122.354840,37.491130,-121.257230,37.612580",
    "geom:latitude": 37.54621642927481,
    "geom:longitude": -121.81087502958907,
    "src:alt_label": "swim-approach",
    "src:geom": "swim",
    "swim:elevations": [
      4752,
      4637,
      4499,
      4311,
      4085,
      4017,
      3855,
      3635,
      3481,
      3346,
      3215,
      2976,
      2720,
      2563,
      2382,
      2155,
      2111,
      2019,
      1999,
      1826,
      1589,
      1480,
      1248,
      1232,
      1073,
      997,
      890,
      605,
      518,
      425,
      349,
      211,
      142,
      35
    ],
    "swim:geom": "approach",
    "swim:timestamps": [
      1769893288,
      1769893303,
      1769893318,
      1769893345,
      1769893377,
      1769893386,
      1769893410,
      1769893444,
      1769893466,
      1769893487,
      1769893505,
      1769893540,
      1769893580,
      1769893606,
      1769893633,
      1769893674,
      1769893680,
      1769893707,
      1769893710,
      1769893754,
      1769893797,
      1769893817,
      1769893855,
      1769893862,
      1769893887,
      1769893902,
      1769893922,
      1769893978,
      1769893996,
      1769894014,
      1769894033,
      1769894067,
      1769894085,
      1769894111
    ],
    "wof:geomhash": "c8e2803aa227b597556d99c296f4d7b1",
    "wof:id": 2014680081,
    "wof:repo": "sfomuseum-data-flights-2026-01"
  },
  "bbox": [
    -122.35484,
    37.49113,
    -121.25723,
    37.61258
  ],
  "geometry": {"coordinates":[[-121.25723,37.59347],[-121.28463,37.58979],[-121.3117,37.58671],[-121.35943,37.58175],[-121.41431,37.57553],[-121.42951,37.57377],[-121.46944,37.56903],[-121.52578,37.56246],[-121.56027,37.55847],[-121.59542,37.55429],[-121.62482,37.55057],[-121.67905,37.53781],[-121.73944,37.52334],[-121.77845,37.51403],[-121.8182,37.50458],[-121.87704,37.49171],[-121.88602,37.49113],[-121.9239,37.49199],[-121.92799,37.49211],[-121.98649,37.49493],[-122.03895,37.51119],[-122.06308,37.519],[-122.10912,37.53387],[-122.11659,37.53627],[-122.14631,37.54603],[-122.16224,37.55124],[-122.18372,37.55822],[-122.24176,37.57676],[-122.26,37.58268],[-122.27748,37.5878],[-122.2943,37.59267],[-122.32188,37.60097],[-122.3363,37.60529],[-122.35484,37.61258]],"type":"LineString"}
}
