{
  "id": 2014682347,
  "type": "Feature",
  "properties": {
    "geom:area": 0,
    "geom:bbox": "-123.442100,37.261360,-122.111150,37.614630",
    "geom:latitude": 37.360627628675616,
    "geom:longitude": -122.66790299466162,
    "src:alt_label": "swim-approach",
    "src:geom": "swim",
    "swim:elevations": [
      5602,
      5386,
      5172,
      4788,
      4558,
      4163,
      3849,
      3593,
      3341,
      3108,
      3086,
      3048,
      3006,
      2895,
      2835,
      2649,
      2534,
      2496,
      2438,
      2438,
      2438,
      2438,
      2360,
      2238,
      2082,
      2011,
      1712,
      1601,
      1376,
      1178,
      965,
      874,
      676,
      427,
      305,
      200,
      49,
      69
    ],
    "swim:geom": "approach",
    "swim:timestamps": [
      1769926797,
      1769926825,
      1769926844,
      1769926883,
      1769926904,
      1769926945,
      1769926978,
      1769927005,
      1769927029,
      1769927068,
      1769927071,
      1769927111,
      1769927155,
      1769927182,
      1769927192,
      1769927237,
      1769927270,
      1769927282,
      1769927315,
      1769927365,
      1769927385,
      1769927412,
      1769927436,
      1769927454,
      1769927485,
      1769927503,
      1769927542,
      1769927554,
      1769927590,
      1769927618,
      1769927654,
      1769927671,
      1769927707,
      1769927757,
      1769927787,
      1769927811,
      1769927845,
      1769927856
    ],
    "wof:geomhash": "ccabaf26dc4c291a822a2d358c4389da",
    "wof:id": 2014682347,
    "wof:repo": "sfomuseum-data-flights-2026-01"
  },
  "bbox": [
    -123.4421,
    37.26136,
    -122.11115,
    37.61463
  ],
  "geometry": {"coordinates":[[-123.4421,37.30096],[-123.37856,37.29631],[-123.33404,37.29304],[-123.24819,37.28672],[-123.20027,37.28315],[-123.11056,37.27631],[-123.03982,37.27113],[-122.98286,37.2668],[-122.93275,37.26298],[-122.85395,37.26136],[-122.8481,37.26218],[-122.77434,37.27828],[-122.69721,37.29637],[-122.65232,37.30689],[-122.63497,37.31097],[-122.56065,37.3281],[-122.50654,37.3407],[-122.48697,37.34524],[-122.43342,37.35761],[-122.35364,37.3759],[-122.32183,37.38318],[-122.28062,37.39261],[-122.24531,37.40073],[-122.21902,37.40682],[-122.17589,37.41655],[-122.15149,37.42205],[-122.11574,37.44925],[-122.11115,37.46119],[-122.13009,37.49365],[-122.1495,37.51505],[-122.17833,37.53825],[-122.19558,37.54536],[-122.23093,37.56045],[-122.27902,37.58067],[-122.3045,37.59146],[-122.32393,37.59948],[-122.3517,37.61123],[-122.35961,37.61463]],"type":"LineString"}
}
