{
  "id": 2014679603,
  "type": "Feature",
  "properties": {
    "geom:area": 0,
    "geom:bbox": "-122.359080,37.491390,-121.244120,37.614210",
    "geom:latitude": 37.546894443393704,
    "geom:longitude": -121.80655702892331,
    "src:alt_label": "swim-approach",
    "src:geom": "swim",
    "swim:elevations": [
      4643,
      4386,
      4205,
      4085,
      3930,
      3799,
      3365,
      3206,
      3070,
      3043,
      2940,
      2886,
      2768,
      2623,
      2515,
      2349,
      2183,
      2124,
      1925,
      1858,
      1831,
      1737,
      1325,
      1177,
      1077,
      912,
      785,
      657,
      550,
      553,
      509,
      302,
      249,
      151,
      33,
      280
    ],
    "swim:geom": "approach",
    "swim:timestamps": [
      1769900757,
      1769900784,
      1769900805,
      1769900817,
      1769900835,
      1769900850,
      1769900897,
      1769900919,
      1769900957,
      1769900972,
      1769900995,
      1769901004,
      1769901019,
      1769901039,
      1769901077,
      1769901109,
      1769901145,
      1769901157,
      1769901194,
      1769901206,
      1769901227,
      1769901242,
      1769901294,
      1769901315,
      1769901330,
      1769901368,
      1769901392,
      1769901416,
      1769901443,
      1769901462,
      1769901480,
      1769901528,
      1769901543,
      1769901567,
      1769901592,
      1769901602
    ],
    "wof:geomhash": "29c8c4bd05bb5bf259f0bc4273b871f6",
    "wof:id": 2014679603,
    "wof:repo": "sfomuseum-data-flights-2026-01"
  },
  "bbox": [
    -122.35908,
    37.49139,
    -121.24412,
    37.61421
  ],
  "geometry": {"coordinates":[[-121.24412,37.59503],[-121.29538,37.58828],[-121.33503,37.58394],[-121.35752,37.5815],[-121.3911,37.57766],[-121.41897,37.57444],[-121.50588,37.56449],[-121.5457,37.55984],[-121.61045,37.55221],[-121.6345,37.54814],[-121.66965,37.53981],[-121.68363,37.53649],[-121.70709,37.53095],[-121.73872,37.52339],[-121.79434,37.51009],[-121.83881,37.49946],[-121.88641,37.49139],[-121.90219,37.49168],[-121.9488,37.4929],[-121.96364,37.49322],[-121.98963,37.49579],[-122.00823,37.50121],[-122.07036,37.5214],[-122.09469,37.52909],[-122.11097,37.53454],[-122.15119,37.5476],[-122.17679,37.55584],[-122.2017,37.56385],[-122.22799,37.57233],[-122.24505,37.57787],[-122.26171,37.58316],[-122.30201,37.59487],[-122.3133,37.59829],[-122.33229,37.60392],[-122.35136,37.61121],[-122.35908,37.61421]],"type":"LineString"}
}
