{
  "id": 2014686257,
  "type": "Feature",
  "properties": {
    "geom:area": 0,
    "geom:bbox": "-123.500520,37.413160,-122.400810,37.669930",
    "geom:latitude": 37.5549392248498,
    "geom:longitude": -122.94912366310517,
    "src:alt_label": "swim-takeoff",
    "src:geom": "swim",
    "swim:elevations": [
      244,
      531,
      645,
      829,
      1179,
      1360,
      1722,
      2154,
      2334,
      2640,
      3099,
      3337,
      3543,
      3621,
      4114,
      4435,
      4743,
      4893,
      5270,
      5346,
      5691,
      5997,
      6373,
      6566,
      6610
    ],
    "swim:geom": "takeoff",
    "swim:timestamps": [
      1769851933,
      1769851959,
      1769851971,
      1769851988,
      1769852024,
      1769852054,
      1769852084,
      1769852119,
      1769852133,
      1769852155,
      1769852187,
      1769852205,
      1769852244,
      1769852254,
      1769852302,
      1769852329,
      1769852364,
      1769852382,
      1769852423,
      1769852432,
      1769852474,
      1769852505,
      1769852544,
      1769852572,
      1769852582
    ],
    "wof:geomhash": "bd84de6cb30a671095b29baa9696c7d6",
    "wof:id": 2014686257,
    "wof:repo": "sfomuseum-data-flights-2026-01"
  },
  "bbox": [
    -123.50052,
    37.41316,
    -122.40081,
    37.66993
  ],
  "geometry": {"coordinates":[[-122.40081,37.62983],[-122.42738,37.64142],[-122.43906,37.64642],[-122.45708,37.65414],[-122.49553,37.66993],[-122.5358,37.66627],[-122.57792,37.65489],[-122.62983,37.64194],[-122.65072,37.63624],[-122.68598,37.62705],[-122.73608,37.61411],[-122.76356,37.60726],[-122.82751,37.59109],[-122.84657,37.58607],[-122.93634,37.56339],[-122.98639,37.54977],[-123.05371,37.53171],[-123.08927,37.52228],[-123.17168,37.50058],[-123.18876,37.49603],[-123.27607,37.473],[-123.33926,37.4562],[-123.42051,37.43447],[-123.47755,37.4193],[-123.50052,37.41316]],"type":"LineString"}
}
