{
  "id": 2014682289,
  "type": "Feature",
  "properties": {
    "geom:area": 0,
    "geom:bbox": "-122.363020,37.490570,-121.242490,37.616980",
    "geom:latitude": 37.54728582380137,
    "geom:longitude": -121.80806383122417,
    "src:alt_label": "swim-approach",
    "src:geom": "swim",
    "swim:elevations": [
      4988,
      4567,
      4280,
      4056,
      3747,
      3615,
      3450,
      3082,
      2920,
      2692,
      2495,
      2395,
      2296,
      2112,
      2001,
      1953,
      1860,
      1638,
      1482,
      1333,
      1128,
      1074,
      764,
      731,
      638,
      633,
      472,
      298,
      184,
      82,
      0
    ],
    "swim:geom": "approach",
    "swim:timestamps": [
      1769892461,
      1769892505,
      1769892535,
      1769892562,
      1769892598,
      1769892613,
      1769892632,
      1769892689,
      1769892716,
      1769892746,
      1769892772,
      1769892797,
      1769892810,
      1769892853,
      1769892886,
      1769892896,
      1769892919,
      1769892958,
      1769892985,
      1769893010,
      1769893044,
      1769893056,
      1769893108,
      1769893117,
      1769893136,
      1769893142,
      1769893175,
      1769893213,
      1769893247,
      1769893270,
      1769893291
    ],
    "wof:geomhash": "3436cd3a77a56ffd3604e2bac4236fb5",
    "wof:id": 2014682289,
    "wof:repo": "sfomuseum-data-flights-2026-01"
  },
  "bbox": [
    -122.36302,
    37.49057,
    -121.24249,
    37.61698
  ],
  "geometry": {"coordinates":[[-121.24249,37.59546],[-121.3234,37.58582],[-121.37736,37.57988],[-121.42468,37.5741],[-121.48739,37.56675],[-121.51343,37.56381],[-121.54554,37.56004],[-121.64117,37.54685],[-121.68301,37.53687],[-121.72911,37.52586],[-121.76914,37.51633],[-121.80667,37.50737],[-121.82497,37.50247],[-121.88768,37.49057],[-121.93355,37.49188],[-121.94763,37.49222],[-121.97869,37.49351],[-122.02758,37.5072],[-122.06122,37.51819],[-122.09067,37.52786],[-122.13114,37.54114],[-122.14533,37.54578],[-122.20357,37.5645],[-122.21317,37.56767],[-122.23251,37.57397],[-122.2387,37.57591],[-122.26968,37.58544],[-122.30163,37.59476],[-122.32882,37.60276],[-122.34635,37.60898],[-122.36302,37.61698]],"type":"LineString"}
}
