{
  "id": 2014686367,
  "type": "Feature",
  "properties": {
    "geom:area": 0,
    "geom:bbox": "-123.305450,37.629000,-122.399810,38.477670",
    "geom:latitude": 38.01302380898453,
    "geom:longitude": -122.88495327485846,
    "src:alt_label": "swim-takeoff",
    "src:geom": "swim",
    "swim:elevations": [
      213,
      379,
      741,
      1012,
      1110,
      1370,
      1667,
      1980,
      2324,
      2670,
      2853,
      3167,
      3446,
      3660,
      3957,
      4071,
      4591,
      4648,
      4967,
      5372,
      5446,
      5731,
      5926,
      6248,
      6328
    ],
    "swim:geom": "takeoff",
    "swim:timestamps": [
      1769867785,
      1769867796,
      1769867830,
      1769867870,
      1769867891,
      1769867930,
      1769867969,
      1769867997,
      1769868025,
      1769868055,
      1769868067,
      1769868094,
      1769868136,
      1769868175,
      1769868204,
      1769868214,
      1769868265,
      1769868274,
      1769868306,
      1769868353,
      1769868369,
      1769868403,
      1769868428,
      1769868474,
      1769868484
    ],
    "wof:geomhash": "81af6cb389f4e3f7eb052901957324e6",
    "wof:id": 2014686367,
    "wof:repo": "sfomuseum-data-flights-2026-01"
  },
  "bbox": [
    -123.30545,
    37.629,
    -122.39981,
    38.47767
  ],
  "geometry": {"coordinates":[[-122.39981,37.629],[-122.41119,37.6338],[-122.44447,37.64892],[-122.48724,37.66758],[-122.51186,37.6795],[-122.55897,37.7074],[-122.61164,37.7385],[-122.65264,37.76274],[-122.69305,37.78645],[-122.73884,37.8135],[-122.75477,37.82536],[-122.78544,37.85857],[-122.83071,37.91339],[-122.87865,37.97071],[-122.91507,38.0145],[-122.92845,38.03048],[-122.99519,38.1104],[-123.00716,38.12463],[-123.05011,38.17587],[-123.11535,38.25373],[-123.13703,38.27961],[-123.186,38.33787],[-123.22269,38.3812],[-123.29119,38.46086],[-123.30545,38.47767]],"type":"LineString"}
}
