{
  "id": 2014679627,
  "type": "Feature",
  "properties": {
    "geom:area": 0,
    "geom:bbox": "-122.352200,37.492220,-121.258870,37.611420",
    "geom:latitude": 37.54601321284506,
    "geom:longitude": -121.81023699065345,
    "src:alt_label": "swim-approach",
    "src:geom": "swim",
    "swim:elevations": [
      4832,
      4591,
      4152,
      3928,
      3717,
      3541,
      3352,
      3139,
      2929,
      2767,
      2634,
      2558,
      2345,
      2259,
      2196,
      2044,
      1980,
      1762,
      1452,
      1329,
      1159,
      1037,
      913,
      761,
      547,
      552,
      547,
      464,
      370,
      313,
      252,
      119,
      58
    ],
    "swim:geom": "approach",
    "swim:timestamps": [
      1769899485,
      1769899512,
      1769899557,
      1769899581,
      1769899602,
      1769899623,
      1769899661,
      1769899700,
      1769899727,
      1769899754,
      1769899778,
      1769899790,
      1769899823,
      1769899835,
      1769899847,
      1769899879,
      1769899894,
      1769899947,
      1769899977,
      1769899995,
      1769900028,
      1769900049,
      1769900073,
      1769900108,
      1769900152,
      1769900182,
      1769900206,
      1769900224,
      1769900247,
      1769900269,
      1769900284,
      1769900321,
      1769900341
    ],
    "wof:geomhash": "929c626fe0783f2c44a30e91d618a76b",
    "wof:id": 2014679627,
    "wof:repo": "sfomuseum-data-flights-2026-01"
  },
  "bbox": [
    -122.3522,
    37.49222,
    -121.25887,
    37.61142
  ],
  "geometry": {"coordinates":[[-121.25887,37.59337],[-121.31228,37.58672],[-121.39771,37.57721],[-121.44261,37.57199],[-121.48151,37.56744],[-121.52021,37.563],[-121.58724,37.55534],[-121.65029,37.54463],[-121.69191,37.53457],[-121.73322,37.5248],[-121.76832,37.51641],[-121.78558,37.51221],[-121.83227,37.501],[-121.84913,37.49693],[-121.86561,37.49312],[-121.90979,37.49222],[-121.93025,37.49266],[-121.99689,37.49779],[-122.03481,37.50989],[-122.05719,37.51727],[-122.09502,37.52958],[-122.11806,37.53699],[-122.14203,37.54472],[-122.17553,37.55557],[-122.21495,37.5683],[-122.23706,37.57524],[-122.25474,37.58107],[-122.26778,37.58504],[-122.28534,37.59006],[-122.30195,37.5951],[-122.31244,37.59823],[-122.33905,37.60616],[-122.3522,37.61142]],"type":"LineString"}
}
