{
  "id": 2014681751,
  "type": "Feature",
  "properties": {
    "geom:area": 0,
    "geom:bbox": "-122.679340,37.423150,-122.140520,38.479280",
    "geom:latitude": 37.84296082489589,
    "geom:longitude": -122.46801426588944,
    "src:alt_label": "swim-approach",
    "src:geom": "swim",
    "swim:elevations": [
      7894,
      7803,
      7357,
      7089,
      6924,
      6566,
      6268,
      6018,
      5830,
      5380,
      5083,
      4783,
      4505,
      4427,
      3971,
      3895,
      3567,
      3446,
      3352,
      3353,
      3343,
      3046,
      2800,
      2613,
      2474,
      2321,
      2102,
      1871,
      1641,
      1315,
      1105,
      913,
      753,
      721,
      426,
      301,
      160,
      54,
      0
    ],
    "swim:geom": "approach",
    "swim:timestamps": [
      1769859385,
      1769859394,
      1769859444,
      1769859473,
      1769859491,
      1769859537,
      1769859568,
      1769859590,
      1769859605,
      1769859654,
      1769859681,
      1769859715,
      1769859746,
      1769859753,
      1769859834,
      1769859853,
      1769859895,
      1769859925,
      1769859953,
      1769859964,
      1769860015,
      1769860062,
      1769860101,
      1769860138,
      1769860161,
      1769860196,
      1769860225,
      1769860246,
      1769860272,
      1769860315,
      1769860341,
      1769860377,
      1769860436,
      1769860441,
      1769860492,
      1769860516,
      1769860550,
      1769860578,
      1769860591
    ],
    "wof:geomhash": "6b83c43ac1cebb805f57ba713abc24e9",
    "wof:id": 2014681751,
    "wof:repo": "sfomuseum-data-flights-2026-01"
  },
  "bbox": [
    -122.67934,
    37.42315,
    -122.14052,
    38.47928
  ],
  "geometry": {"coordinates":[[-122.50642,38.47928],[-122.51906,38.46672],[-122.58688,38.40047],[-122.62535,38.36299],[-122.64855,38.34021],[-122.67934,38.27126],[-122.67875,38.22151],[-122.67817,38.18627],[-122.67762,38.16236],[-122.67604,38.08546],[-122.67545,38.04336],[-122.67452,37.98947],[-122.67363,37.94097],[-122.67337,37.9302],[-122.59308,37.82352],[-122.56999,37.80188],[-122.5177,37.75258],[-122.48186,37.71887],[-122.45061,37.68954],[-122.43894,37.67859],[-122.38831,37.63088],[-122.34989,37.58529],[-122.32659,37.54519],[-122.30411,37.50683],[-122.28985,37.48253],[-122.26737,37.44814],[-122.23325,37.43191],[-122.20601,37.42315],[-122.17209,37.42782],[-122.14554,37.46707],[-122.14052,37.49119],[-122.16461,37.52104],[-122.21979,37.55574],[-122.22519,37.55802],[-122.2799,37.58095],[-122.30111,37.59007],[-122.329,37.60165],[-122.35129,37.61108],[-122.36069,37.61493]],"type":"LineString"}
}
