{
  "id": 2014682325,
  "type": "Feature",
  "properties": {
    "geom:area": 0,
    "geom:bbox": "-122.796360,37.920670,-122.679100,38.490790",
    "geom:latitude": 38.20330848077513,
    "geom:longitude": -122.74994441528027,
    "src:alt_label": "swim-approach",
    "src:geom": "swim",
    "swim:elevations": [
      8343,
      7858,
      7635,
      7430,
      7103,
      6755,
      6410,
      6194,
      6020,
      5702,
      5211,
      5086,
      4678
    ],
    "swim:geom": "approach",
    "swim:timestamps": [
      1769869932,
      1769869977,
      1769870000,
      1769870021,
      1769870056,
      1769870092,
      1769870125,
      1769870146,
      1769870164,
      1769870197,
      1769870248,
      1769870260,
      1769870301
    ],
    "wof:geomhash": "9ca0c9ed3dcc3809140a88aff9b0adc4",
    "wof:id": 2014682325,
    "wof:repo": "sfomuseum-data-flights-2026-01"
  },
  "bbox": [
    -122.79636,
    37.92067,
    -122.6791,
    38.49079
  ],
  "geometry": {"coordinates":[[-122.79636,38.49079],[-122.78767,38.41393],[-122.78391,38.376],[-122.78,38.34086],[-122.77378,38.28486],[-122.76745,38.22868],[-122.75371,38.1781],[-122.74467,38.1468],[-122.73708,38.12028],[-122.72303,38.07239],[-122.70126,37.99757],[-122.69617,37.97998],[-122.6791,37.92067]],"type":"LineString"}
}
