{
  "id": 2014685637,
  "type": "Feature",
  "properties": {
    "geom:area": 0,
    "geom:bbox": "-122.466380,36.730050,-121.310640,37.715720",
    "geom:latitude": 37.218062828863474,
    "geom:longitude": -121.99983945285177,
    "src:alt_label": "swim-takeoff",
    "src:geom": "swim",
    "swim:elevations": [
      183,
      552,
      643,
      841,
      1016,
      1378,
      2097,
      2765,
      3356,
      3713,
      3890,
      4065,
      4926,
      5408,
      5838,
      6283,
      6624,
      7234,
      7667,
      7918,
      8293,
      8561,
      8878,
      8970,
      9410,
      9683,
      10089,
      10271,
      10514,
      10659,
      10883,
      11100,
      11422,
      11615
    ],
    "swim:geom": "takeoff",
    "swim:timestamps": [
      1769847325,
      1769847356,
      1769847368,
      1769847384,
      1769847393,
      1769847431,
      1769847476,
      1769847505,
      1769847533,
      1769847558,
      1769847568,
      1769847577,
      1769847625,
      1769847653,
      1769847688,
      1769847712,
      1769847734,
      1769847772,
      1769847806,
      1769847826,
      1769847866,
      1769847893,
      1769847928,
      1769847938,
      1769847986,
      1769848014,
      1769848045,
      1769848060,
      1769848083,
      1769848098,
      1769848127,
      1769848152,
      1769848193,
      1769848223
    ],
    "wof:geomhash": "a38daf728f23142f30a0dde10f0939d3",
    "wof:id": 2014685637,
    "wof:repo": "sfomuseum-data-flights-2026-01"
  },
  "bbox": [
    -122.46638,
    36.73005,
    -121.31064,
    37.71572
  ],
  "geometry": {"coordinates":[[-122.36883,37.62947],[-122.36453,37.65186],[-122.36386,37.66208],[-122.36238,37.67738],[-122.36218,37.68641],[-122.39257,37.71572],[-122.44896,37.69174],[-122.45427,37.65453],[-122.45827,37.61897],[-122.46266,37.58392],[-122.46472,37.56819],[-122.46638,37.5547],[-122.45579,37.48232],[-122.41266,37.45058],[-122.35335,37.41224],[-122.31261,37.38592],[-122.27691,37.36215],[-122.20921,37.31801],[-122.14902,37.2795],[-122.11234,37.25551],[-122.03714,37.20671],[-121.98506,37.1729],[-121.9168,37.12891],[-121.89427,37.11444],[-121.79586,37.05165],[-121.73838,37.01367],[-121.67243,36.96998],[-121.64288,36.94955],[-121.59781,36.91993],[-121.56629,36.89904],[-121.50843,36.86054],[-121.45658,36.82613],[-121.37184,36.77005],[-121.31064,36.73005]],"type":"LineString"}
}
