{
  "id": 2014682405,
  "type": "Feature",
  "properties": {
    "geom:area": 0,
    "geom:bbox": "-123.494460,37.259490,-122.130020,37.612050",
    "geom:latitude": 37.36396112333054,
    "geom:longitude": -122.69399294054207,
    "src:alt_label": "swim-approach",
    "src:geom": "swim",
    "swim:elevations": [
      5440,
      5296,
      4724,
      4532,
      4195,
      3932,
      3520,
      3236,
      3145,
      3078,
      3046,
      3047,
      3048,
      3015,
      2869,
      2811,
      2613,
      2474,
      2437,
      2438,
      2438,
      2438,
      2396,
      2306,
      2173,
      2072,
      1979,
      1962,
      1843,
      1829,
      1829,
      1786,
      1658,
      1562,
      1554,
      1539,
      1485,
      1250,
      1073,
      873,
      839,
      715,
      631,
      426,
      305,
      226,
      198,
      131,
      0
    ],
    "swim:geom": "approach",
    "swim:timestamps": [
      1769849573,
      1769849585,
      1769849637,
      1769849657,
      1769849690,
      1769849717,
      1769849756,
      1769849785,
      1769849795,
      1769849843,
      1769849862,
      1769849876,
      1769849880,
      1769849906,
      1769849931,
      1769849946,
      1769849981,
      1769850015,
      1769850047,
      1769850050,
      1769850076,
      1769850117,
      1769850145,
      1769850162,
      1769850182,
      1769850201,
      1769850220,
      1769850229,
      1769850256,
      1769850272,
      1769850317,
      1769850350,
      1769850376,
      1769850398,
      1769850413,
      1769850429,
      1769850462,
      1769850507,
      1769850530,
      1769850563,
      1769850572,
      1769850594,
      1769850611,
      1769850654,
      1769850678,
      1769850699,
      1769850709,
      1769850724,
      1769850752
    ],
    "wof:geomhash": "ec42dff30ed722a3f5a8ed2bc38f5e78",
    "wof:id": 2014682405,
    "wof:repo": "sfomuseum-data-flights-2026-01"
  },
  "bbox": [
    -123.49446,
    37.25949,
    -122.13002,
    37.61205
  ],
  "geometry": {"coordinates":[[-123.49446,37.30487],[-123.46607,37.30281],[-123.34503,37.29419],[-123.29801,37.29074],[-123.22199,37.28498],[-123.16111,37.28032],[-123.07355,37.27373],[-123.00906,37.26923],[-122.98848,37.26755],[-122.89632,37.26028],[-122.86217,37.25949],[-122.83815,37.26271],[-122.83297,37.26374],[-122.79081,37.27409],[-122.75112,37.28396],[-122.72777,37.28949],[-122.67172,37.30263],[-122.61938,37.31477],[-122.57162,37.32572],[-122.56715,37.32676],[-122.53011,37.33529],[-122.47537,37.34797],[-122.43813,37.35645],[-122.41667,37.3614],[-122.39025,37.36756],[-122.36455,37.37361],[-122.34272,37.38467],[-122.33482,37.39273],[-122.32708,37.42019],[-122.32861,37.43838],[-122.28944,37.46978],[-122.24754,37.4601],[-122.21632,37.44933],[-122.19027,37.44036],[-122.17151,37.43739],[-122.15245,37.44112],[-122.13002,37.46697],[-122.14301,37.50516],[-122.15983,37.52136],[-122.18871,37.54052],[-122.19768,37.54453],[-122.22037,37.55369],[-122.23699,37.56072],[-122.27938,37.57863],[-122.30061,37.58745],[-122.31724,37.5944],[-122.32557,37.5979],[-122.3371,37.60278],[-122.3599,37.61205]],"type":"LineString"}
}
