{
  "id": 2014682439,
  "type": "Feature",
  "properties": {
    "geom:area": 0,
    "geom:bbox": "-122.360060,37.491540,-121.286280,37.615310",
    "geom:latitude": 37.545309683826666,
    "geom:longitude": -121.82813280379462,
    "src:alt_label": "swim-approach",
    "src:geom": "swim",
    "swim:elevations": [
      4831,
      4530,
      4415,
      4144,
      3934,
      3522,
      3267,
      3153,
      3137,
      2892,
      2763,
      2694,
      2408,
      2266,
      2156,
      2048,
      1951,
      1870,
      1821,
      1598,
      1457,
      1275,
      1188,
      1010,
      941,
      848,
      794,
      548,
      427,
      305,
      273,
      122,
      0
    ],
    "swim:geom": "approach",
    "swim:timestamps": [
      1769897458,
      1769897482,
      1769897491,
      1769897515,
      1769897536,
      1769897577,
      1769897602,
      1769897636,
      1769897640,
      1769897685,
      1769897703,
      1769897712,
      1769897758,
      1769897785,
      1769897808,
      1769897833,
      1769897865,
      1769897889,
      1769897901,
      1769897937,
      1769897967,
      1769897997,
      1769898012,
      1769898045,
      1769898060,
      1769898081,
      1769898090,
      1769898143,
      1769898171,
      1769898204,
      1769898213,
      1769898252,
      1769898282
    ],
    "wof:geomhash": "001dcd4ba58c7b384da869a337a75eff",
    "wof:id": 2014682439,
    "wof:repo": "sfomuseum-data-flights-2026-01"
  },
  "bbox": [
    -122.36006,
    37.49154,
    -121.28628,
    37.61531
  ],
  "geometry": {"coordinates":[[-121.28628,37.58947],[-121.33164,37.58477],[-121.34852,37.58294],[-121.39329,37.57772],[-121.43203,37.57319],[-121.5053,37.56479],[-121.55044,37.5595],[-121.61105,37.55245],[-121.6177,37.55161],[-121.68813,37.53569],[-121.71591,37.52905],[-121.7299,37.52566],[-121.7996,37.50905],[-121.83705,37.49999],[-121.86832,37.49282],[-121.90186,37.49154],[-121.94364,37.49269],[-121.97438,37.49348],[-121.98957,37.49558],[-122.03274,37.50914],[-122.06794,37.52056],[-122.10289,37.53196],[-122.11962,37.53743],[-122.15515,37.54886],[-122.17083,37.55396],[-122.19272,37.56108],[-122.20215,37.56408],[-122.2534,37.58063],[-122.27712,37.58759],[-122.30245,37.59508],[-122.30933,37.59713],[-122.33863,37.60605],[-122.36006,37.61531]],"type":"LineString"}
}
