{
  "id": 2014682257,
  "type": "Feature",
  "properties": {
    "geom:area": 0,
    "geom:bbox": "-122.362800,36.744330,-121.891260,37.614110",
    "geom:latitude": 37.22234610687796,
    "geom:longitude": -122.07577868483713,
    "src:alt_label": "swim-approach",
    "src:geom": "swim",
    "swim:elevations": [
      5092,
      4739,
      4447,
      4272,
      4003,
      3777,
      3447,
      3229,
      3138,
      3090,
      2969,
      2757,
      2500,
      2412,
      2185,
      2034,
      1955,
      1723,
      1552,
      1485,
      1237,
      1146,
      907,
      754,
      620,
      474,
      268,
      157,
      53,
      0
    ],
    "swim:geom": "approach",
    "swim:timestamps": [
      1769892922,
      1769892958,
      1769892988,
      1769893006,
      1769893034,
      1769893059,
      1769893096,
      1769893120,
      1769893136,
      1769893154,
      1769893179,
      1769893213,
      1769893247,
      1769893270,
      1769893300,
      1769893318,
      1769893330,
      1769893368,
      1769893404,
      1769893416,
      1769893451,
      1769893463,
      1769893496,
      1769893518,
      1769893546,
      1769893571,
      1769893618,
      1769893643,
      1769893671,
      1769893683
    ],
    "wof:geomhash": "618a8348ccc8a6749fb63d10856c270e",
    "wof:id": 2014682257,
    "wof:repo": "sfomuseum-data-flights-2026-01"
  },
  "bbox": [
    -122.3628,
    36.74433,
    -121.89126,
    37.61411
  ],
  "geometry": {"coordinates":[[-121.89126,36.74433],[-121.91224,36.80623],[-121.92706,36.85899],[-121.93523,36.88808],[-121.94843,36.93575],[-121.96237,36.97533],[-121.98469,37.03274],[-121.99873,37.06893],[-122.00773,37.09206],[-122.01844,37.11942],[-122.03287,37.15626],[-122.05141,37.20354],[-122.06954,37.24997],[-122.08114,37.27984],[-122.09658,37.3186],[-122.10547,37.34171],[-122.11141,37.35668],[-122.12841,37.40243],[-122.14259,37.44409],[-122.14756,37.45752],[-122.16821,37.49481],[-122.1766,37.50679],[-122.19927,37.53913],[-122.22002,37.55289],[-122.24872,37.56549],[-122.27279,37.57579],[-122.31292,37.59259],[-122.3324,37.60059],[-122.35368,37.60978],[-122.3628,37.61411]],"type":"LineString"}
}
