{
  "id": 2014682785,
  "type": "Feature",
  "properties": {
    "geom:area": 0,
    "geom:bbox": "-123.461410,37.259640,-122.154750,37.605750",
    "geom:latitude": 37.352785717617586,
    "geom:longitude": -122.70550948344446,
    "src:alt_label": "swim-approach",
    "src:geom": "swim",
    "swim:elevations": [
      5408,
      5153,
      4900,
      4420,
      4094,
      3784,
      3505,
      3480,
      3169,
      3133,
      3126,
      3045,
      3048,
      3048,
      2989,
      2858,
      2758,
      2643,
      2601,
      2345,
      2066,
      1894,
      1845,
      1829,
      1829,
      1822,
      1747,
      1589,
      1511,
      1371,
      1298,
      1220,
      1219,
      820,
      756,
      520,
      385,
      250,
      143,
      87
    ],
    "swim:geom": "approach",
    "swim:timestamps": [
      1769853560,
      1769853584,
      1769853608,
      1769853651,
      1769853681,
      1769853713,
      1769853745,
      1769853751,
      1769853795,
      1769853810,
      1769853818,
      1769853843,
      1769853894,
      1769853907,
      1769853955,
      1769853976,
      1769853991,
      1769854014,
      1769854021,
      1769854064,
      1769854108,
      1769854132,
      1769854148,
      1769854166,
      1769854175,
      1769854216,
      1769854231,
      1769854262,
      1769854285,
      1769854308,
      1769854323,
      1769854344,
      1769854360,
      1769854408,
      1769854416,
      1769854463,
      1769854495,
      1769854528,
      1769854555,
      1769854565
    ],
    "wof:geomhash": "40335c7807d0f20ff8c13580ff15f762",
    "wof:id": 2014682785,
    "wof:repo": "sfomuseum-data-flights-2026-01"
  },
  "bbox": [
    -123.46141,
    37.25964,
    -122.15475,
    37.60575
  ],
  "geometry": {"coordinates":[[-123.46141,37.3021],[-123.40542,37.29809],[-123.35355,37.29435],[-123.26024,37.28756],[-123.19555,37.28265],[-123.12566,37.27746],[-123.05795,37.27242],[-123.04456,37.27141],[-122.95584,37.26468],[-122.92874,37.26262],[-122.91451,37.26158],[-122.86891,37.25964],[-122.78132,37.27675],[-122.76086,37.28156],[-122.67899,37.30079],[-122.64413,37.30888],[-122.61899,37.31473],[-122.58006,37.32372],[-122.56965,37.32611],[-122.50088,37.34203],[-122.43331,37.35756],[-122.39621,37.36608],[-122.37038,37.37209],[-122.34291,37.37839],[-122.3292,37.38146],[-122.26623,37.39594],[-122.24519,37.4008],[-122.2006,37.41178],[-122.17969,37.4296],[-122.16695,37.45317],[-122.15966,37.46772],[-122.15475,37.48889],[-122.16137,37.50616],[-122.20016,37.54507],[-122.20833,37.54879],[-122.25761,37.56936],[-122.28729,37.58186],[-122.3144,37.59306],[-122.33606,37.60235],[-122.34409,37.60575]],"type":"LineString"}
}
