{
  "id": 2014682291,
  "type": "Feature",
  "properties": {
    "geom:area": 0,
    "geom:bbox": "-122.360940,37.491850,-121.255720,37.615670",
    "geom:latitude": 37.54671407584492,
    "geom:longitude": -121.81339917662939,
    "src:alt_label": "swim-approach",
    "src:geom": "swim",
    "swim:elevations": [
      4460,
      4251,
      3909,
      3787,
      3740,
      3541,
      3375,
      3162,
      3108,
      2997,
      2762,
      2586,
      2487,
      2433,
      2262,
      2187,
      2001,
      1949,
      1879,
      1412,
      1253,
      1156,
      882,
      772,
      639,
      536,
      395,
      333,
      234,
      182,
      0
    ],
    "swim:geom": "approach",
    "swim:timestamps": [
      1769892250,
      1769892274,
      1769892313,
      1769892327,
      1769892333,
      1769892357,
      1769892376,
      1769892406,
      1769892435,
      1769892461,
      1769892502,
      1769892535,
      1769892550,
      1769892562,
      1769892598,
      1769892610,
      1769892649,
      1769892667,
      1769892692,
      1769892746,
      1769892769,
      1769892784,
      1769892833,
      1769892853,
      1769892892,
      1769892915,
      1769892958,
      1769892979,
      1769893015,
      1769893028,
      1769893075
    ],
    "wof:geomhash": "2eeae6303db535d7d67b038e0969f18d",
    "wof:id": 2014682291,
    "wof:repo": "sfomuseum-data-flights-2026-01"
  },
  "bbox": [
    -122.36094,
    37.49185,
    -121.25572,
    37.61567
  ],
  "geometry": {"coordinates":[[-121.25572,37.59364],[-121.3011,37.5879],[-121.37381,37.57994],[-121.40033,37.57704],[-121.41152,37.57573],[-121.4559,37.57064],[-121.49144,37.5665],[-121.54722,37.55989],[-121.5991,37.55388],[-121.64181,37.54666],[-121.70571,37.53153],[-121.75706,37.5192],[-121.78039,37.51364],[-121.79793,37.50946],[-121.85012,37.4969],[-121.86724,37.49308],[-121.92289,37.49185],[-121.94897,37.49269],[-121.98134,37.49434],[-122.04984,37.51467],[-122.07791,37.52396],[-122.0963,37.53002],[-122.15415,37.54864],[-122.17664,37.556],[-122.21705,37.56896],[-122.23987,37.5762],[-122.27788,37.58788],[-122.2942,37.59256],[-122.31921,37.59972],[-122.32903,37.60261],[-122.36094,37.61567]],"type":"LineString"}
}
