{
  "id": 2014682269,
  "type": "Feature",
  "properties": {
    "geom:area": 0,
    "geom:bbox": "-122.349460,37.491540,-121.280840,37.610290",
    "geom:latitude": 37.544844850705445,
    "geom:longitude": -121.81974080868129,
    "src:alt_label": "swim-approach",
    "src:geom": "swim",
    "swim:elevations": [
      4758,
      4454,
      4062,
      3733,
      3600,
      3230,
      3174,
      2955,
      2692,
      2495,
      2439,
      2240,
      2134,
      2056,
      1837,
      1828,
      1589,
      1340,
      1042,
      897,
      675,
      600,
      571,
      431,
      247,
      183,
      60
    ],
    "swim:geom": "approach",
    "swim:timestamps": [
      1769862682,
      1769862710,
      1769862743,
      1769862777,
      1769862792,
      1769862827,
      1769862843,
      1769862885,
      1769862919,
      1769862946,
      1769862971,
      1769863006,
      1769863038,
      1769863057,
      1769863106,
      1769863110,
      1769863148,
      1769863182,
      1769863224,
      1769863249,
      1769863288,
      1769863317,
      1769863324,
      1769863356,
      1769863401,
      1769863417,
      1769863450
    ],
    "wof:geomhash": "adcd3b33a27539375869ed1f192e9bf0",
    "wof:id": 2014682269,
    "wof:repo": "sfomuseum-data-flights-2026-01"
  },
  "bbox": [
    -122.34946,
    37.49154,
    -121.28084,
    37.61029
  ],
  "geometry": {"coordinates":[[-121.28084,37.59031],[-121.3355,37.5844],[-121.4015,37.57722],[-121.4637,37.56969],[-121.49074,37.56629],[-121.55502,37.55881],[-121.5842,37.55547],[-121.65417,37.54359],[-121.707,37.53111],[-121.74984,37.52105],[-121.78659,37.51225],[-121.83479,37.50054],[-121.87637,37.49185],[-121.90299,37.49154],[-121.97035,37.49331],[-121.97616,37.49364],[-122.02674,37.5072],[-122.07195,37.52189],[-122.12586,37.53954],[-122.15617,37.5492],[-122.20202,37.56392],[-122.23298,37.57416],[-122.24019,37.57661],[-122.27122,37.58624],[-122.31058,37.59759],[-122.32349,37.60148],[-122.34946,37.61029]],"type":"LineString"}
}
