{
  "id": 2014682395,
  "type": "Feature",
  "properties": {
    "geom:area": 0,
    "geom:bbox": "-122.752070,37.559360,-122.096970,38.385420",
    "geom:latitude": 37.872765472589776,
    "geom:longitude": -122.47596125460578,
    "src:alt_label": "swim-approach",
    "src:geom": "swim",
    "swim:elevations": [
      7498,
      7282,
      6842,
      6540,
      6429,
      6355,
      6004,
      5825,
      5421,
      5247,
      4884,
      4655,
      4312,
      4101,
      3958,
      3687,
      3455,
      3355,
      3103,
      3006,
      2694,
      2122,
      2011,
      1810,
      1660,
      1537,
      1465,
      1268,
      1172,
      924,
      787,
      635,
      556,
      454,
      330,
      183,
      100
    ],
    "swim:geom": "approach",
    "swim:timestamps": [
      1769867992,
      1769868012,
      1769868048,
      1769868075,
      1769868104,
      1769868129,
      1769868169,
      1769868188,
      1769868232,
      1769868248,
      1769868284,
      1769868306,
      1769868340,
      1769868373,
      1769868394,
      1769868428,
      1769868455,
      1769868489,
      1769868533,
      1769868540,
      1769868571,
      1769868624,
      1769868643,
      1769868688,
      1769868709,
      1769868732,
      1769868760,
      1769868808,
      1769868827,
      1769868864,
      1769868894,
      1769868928,
      1769868945,
      1769868974,
      1769868996,
      1769869037,
      1769869058
    ],
    "wof:geomhash": "6ecb2f805767e5b7a4b3a4411b795440",
    "wof:id": 2014682395,
    "wof:repo": "sfomuseum-data-flights-2026-01"
  },
  "bbox": [
    -122.75207,
    37.55936,
    -122.09697,
    38.38542
  ],
  "geometry": {"coordinates":[[-122.53294,38.38542],[-122.56848,38.36115],[-122.6316,38.31792],[-122.67871,38.28573],[-122.72684,38.25191],[-122.75207,38.21711],[-122.74822,38.15462],[-122.73979,38.12568],[-122.71889,38.05775],[-122.71167,38.03359],[-122.69537,37.97731],[-122.68582,37.94428],[-122.6638,37.89284],[-122.623,37.85182],[-122.59596,37.82632],[-122.55284,37.78581],[-122.51965,37.75468],[-122.47066,37.72486],[-122.40416,37.70669],[-122.39298,37.70371],[-122.34843,37.69121],[-122.27672,37.6693],[-122.25114,37.66115],[-122.19388,37.64255],[-122.16745,37.63377],[-122.13907,37.62429],[-122.10681,37.61183],[-122.09697,37.57227],[-122.10818,37.55978],[-122.15008,37.55936],[-122.18379,37.56667],[-122.22144,37.57412],[-122.23994,37.57802],[-122.2701,37.58515],[-122.29031,37.5912],[-122.32459,37.6018],[-122.34108,37.60699]],"type":"LineString"}
}
