{
  "id": 2014681607,
  "type": "Feature",
  "properties": {
    "geom:area": 0,
    "geom:bbox": "-123.122970,37.265410,-122.149350,37.612070",
    "geom:latitude": 37.38029910547764,
    "geom:longitude": -122.54437258950894,
    "src:alt_label": "swim-approach",
    "src:geom": "swim",
    "swim:elevations": [
      3048,
      3048,
      3048,
      3048,
      3048,
      2971,
      2824,
      2690,
      2448,
      2438,
      2438,
      2177,
      2133,
      1781,
      1542,
      1368,
      1203,
      947,
      914,
      780,
      655,
      533,
      418,
      341,
      176,
      86,
      0
    ],
    "swim:geom": "approach",
    "swim:timestamps": [
      1769874921,
      1769874977,
      1769875012,
      1769875020,
      1769875107,
      1769875141,
      1769875180,
      1769875211,
      1769875272,
      1769875310,
      1769875332,
      1769875427,
      1769875452,
      1769875509,
      1769875541,
      1769875569,
      1769875604,
      1769875643,
      1769875666,
      1769875703,
      1769875730,
      1769875753,
      1769875784,
      1769875802,
      1769875849,
      1769875872,
      1769875890
    ],
    "wof:geomhash": "717953052391bf857c7198c6b8c4346d",
    "wof:id": 2014681607,
    "wof:repo": "sfomuseum-data-flights-2026-01"
  },
  "bbox": [
    -123.12297,
    37.26541,
    -122.14935,
    37.61207
  ],
  "geometry": {"coordinates":[[-123.12297,37.33826],[-123.0354,37.31132],[-122.97919,37.29366],[-122.96612,37.28959],[-122.82719,37.26541],[-122.7703,37.2798],[-122.70659,37.29424],[-122.6552,37.30613],[-122.55867,37.32853],[-122.49818,37.34253],[-122.46386,37.35049],[-122.32267,37.38301],[-122.28883,37.39073],[-122.21774,37.40697],[-122.18049,37.42224],[-122.16523,37.4486],[-122.14935,37.48132],[-122.1566,37.51533],[-122.17314,37.53103],[-122.20841,37.5484],[-122.23384,37.55938],[-122.25553,37.56851],[-122.2817,37.57954],[-122.29548,37.58534],[-122.32923,37.59948],[-122.34645,37.60672],[-122.35966,37.61207]],"type":"LineString"}
}
