{
  "id": 2014679609,
  "type": "Feature",
  "properties": {
    "geom:area": 0,
    "geom:bbox": "-122.339130,37.491150,-121.253200,37.606230",
    "geom:latitude": 37.54538068441871,
    "geom:longitude": -121.80061046430549,
    "src:alt_label": "swim-approach",
    "src:geom": "swim",
    "swim:elevations": [
      4663,
      4446,
      4270,
      4100,
      3711,
      3602,
      3384,
      3294,
      3082,
      2963,
      2687,
      2665,
      2437,
      2438,
      2289,
      2168,
      2119,
      1958,
      1826,
      1643,
      1549,
      1444,
      1238,
      1069,
      930,
      758,
      568,
      549,
      517,
      396,
      324,
      255,
      123
    ],
    "swim:geom": "approach",
    "swim:timestamps": [
      1769849142,
      1769849165,
      1769849195,
      1769849212,
      1769849246,
      1769849258,
      1769849300,
      1769849327,
      1769849368,
      1769849384,
      1769849427,
      1769849430,
      1769849488,
      1769849498,
      1769849535,
      1769849556,
      1769849563,
      1769849582,
      1769849612,
      1769849663,
      1769849680,
      1769849704,
      1769849728,
      1769849752,
      1769849779,
      1769849811,
      1769849847,
      1769849868,
      1769849883,
      1769849906,
      1769849922,
      1769849941,
      1769849972
    ],
    "wof:geomhash": "ce5750cbca659cb8a18e1528746b0db3",
    "wof:id": 2014679609,
    "wof:repo": "sfomuseum-data-flights-2026-01"
  },
  "bbox": [
    -122.33913,
    37.49115,
    -121.2532,
    37.60623
  ],
  "geometry": {"coordinates":[[-121.2532,37.59402],[-121.29666,37.58836],[-121.3516,37.58249],[-121.37985,37.57929],[-121.43605,37.57265],[-121.45612,37.57033],[-121.52568,37.56225],[-121.56537,37.55761],[-121.62332,37.55074],[-121.6444,37.54601],[-121.70075,37.53247],[-121.70472,37.53153],[-121.78217,37.51302],[-121.79533,37.50984],[-121.84532,37.49785],[-121.87304,37.49168],[-121.88268,37.49115],[-121.90831,37.49151],[-121.94909,37.49258],[-122.01091,37.50188],[-122.02985,37.50809],[-122.05762,37.51711],[-122.08471,37.52593],[-122.11268,37.53504],[-122.14247,37.54469],[-122.17888,37.55659],[-122.21983,37.56976],[-122.24257,37.57707],[-122.25905,37.58245],[-122.28164,37.58905],[-122.29642,37.59336],[-122.31234,37.5982],[-122.33913,37.60623]],"type":"LineString"}
}
