{
  "id": 2014682515,
  "type": "Feature",
  "properties": {
    "geom:area": 0,
    "geom:bbox": "-122.344480,37.491490,-121.258970,37.608300",
    "geom:latitude": 37.54558668104624,
    "geom:longitude": -121.80627671899985,
    "src:alt_label": "swim-approach",
    "src:geom": "swim",
    "swim:elevations": [
      4769,
      4335,
      3999,
      3778,
      3590,
      3315,
      3199,
      3132,
      2888,
      2612,
      2590,
      2467,
      2263,
      2071,
      1979,
      1832,
      1819,
      1667,
      1496,
      1491,
      1191,
      894,
      679,
      641,
      539,
      400,
      311,
      158,
      105
    ],
    "swim:geom": "approach",
    "swim:timestamps": [
      1769879134,
      1769879180,
      1769879214,
      1769879237,
      1769879260,
      1769879302,
      1769879326,
      1769879341,
      1769879370,
      1769879408,
      1769879417,
      1769879448,
      1769879478,
      1769879508,
      1769879528,
      1769879568,
      1769879590,
      1769879620,
      1769879663,
      1769879670,
      1769879722,
      1769879753,
      1769879777,
      1769879784,
      1769879805,
      1769879833,
      1769879854,
      1769879898,
      1769879918
    ],
    "wof:geomhash": "1056015d9f3319fc6729d727b235213a",
    "wof:id": 2014682515,
    "wof:repo": "sfomuseum-data-flights-2026-01"
  },
  "bbox": [
    -122.34448,
    37.49149,
    -121.25897,
    37.6083
  ],
  "geometry": {"coordinates":[[-121.25897,37.59328],[-121.34981,37.58268],[-121.41569,37.57515],[-121.45763,37.57043],[-121.50075,37.56527],[-121.57849,37.55624],[-121.61899,37.55146],[-121.64198,37.54675],[-121.68817,37.5355],[-121.74761,37.5213],[-121.76155,37.518],[-121.80614,37.50734],[-121.85028,37.49676],[-121.89459,37.49149],[-121.92498,37.49248],[-121.98197,37.49438],[-122.01004,37.50241],[-122.04763,37.51438],[-122.10138,37.53164],[-122.10915,37.53413],[-122.16794,37.5532],[-122.2,37.56348],[-122.2246,37.57139],[-122.23139,37.57359],[-122.2525,37.58055],[-122.27884,37.58828],[-122.29618,37.59337],[-122.32997,37.60338],[-122.34448,37.6083]],"type":"LineString"}
}
