{
  "id": 2014679613,
  "type": "Feature",
  "properties": {
    "geom:area": 0,
    "geom:bbox": "-122.340740,37.491760,-121.250890,37.606880",
    "geom:latitude": 37.54572197104894,
    "geom:longitude": -121.80033960105845,
    "src:alt_label": "swim-approach",
    "src:geom": "swim",
    "swim:elevations": [
      4785,
      4703,
      4346,
      4307,
      3784,
      3413,
      3292,
      3232,
      3017,
      2810,
      2593,
      2474,
      2142,
      2045,
      1951,
      1833,
      1791,
      1541,
      1407,
      1228,
      1081,
      823,
      552,
      499,
      429,
      377,
      225,
      109
    ],
    "swim:geom": "approach",
    "swim:timestamps": [
      1769857852,
      1769857861,
      1769857916,
      1769857920,
      1769857971,
      1769858033,
      1769858065,
      1769858085,
      1769858113,
      1769858143,
      1769858181,
      1769858212,
      1769858259,
      1769858282,
      1769858302,
      1769858333,
      1769858364,
      1769858396,
      1769858410,
      1769858430,
      1769858443,
      1769858467,
      1769858513,
      1769858558,
      1769858569,
      1769858581,
      1769858614,
      1769858645
    ],
    "wof:geomhash": "af333b8254471bc7b4d428b7557274c4",
    "wof:id": 2014679613,
    "wof:repo": "sfomuseum-data-flights-2026-01"
  },
  "bbox": [
    -122.34074,
    37.49176,
    -121.25089,
    37.60688
  ],
  "geometry": {"coordinates":[[-121.25089,37.59434],[-121.266,37.59237],[-121.36031,37.58158],[-121.36646,37.58086],[-121.44848,37.57141],[-121.54256,37.56051],[-121.59081,37.55482],[-121.61975,37.55135],[-121.66145,37.54185],[-121.70423,37.53182],[-121.76036,37.51843],[-121.8054,37.50757],[-121.87433,37.49176],[-121.90897,37.49207],[-121.93969,37.49281],[-121.98617,37.49515],[-122.02936,37.50846],[-122.07017,37.52159],[-122.08836,37.52752],[-122.11312,37.5355],[-122.1297,37.54085],[-122.16034,37.55077],[-122.21648,37.56896],[-122.26452,37.58434],[-122.27626,37.58762],[-122.28798,37.59101],[-122.31564,37.5991],[-122.34074,37.60688]],"type":"LineString"}
}
