{
  "id": 2014683223,
  "type": "Feature",
  "properties": {
    "geom:area": 0,
    "geom:bbox": "-122.367610,37.626690,-121.252430,37.964270",
    "geom:latitude": 37.83730265911856,
    "geom:longitude": -121.82523587592188,
    "src:alt_label": "swim-takeoff",
    "src:geom": "swim",
    "swim:elevations": [
      183,
      673,
      891,
      1021,
      1693,
      2196,
      2711,
      3024,
      3290,
      3416,
      3776,
      4075,
      4354,
      4717,
      5051,
      5455,
      5668,
      5814,
      5886,
      6158,
      6400,
      6592
    ],
    "swim:geom": "takeoff",
    "swim:timestamps": [
      1769858802,
      1769858841,
      1769858876,
      1769858893,
      1769858933,
      1769858964,
      1769858998,
      1769859022,
      1769859056,
      1769859082,
      1769859116,
      1769859141,
      1769859167,
      1769859201,
      1769859224,
      1769859266,
      1769859288,
      1769859304,
      1769859312,
      1769859346,
      1769859373,
      1769859396
    ],
    "wof:geomhash": "dccb99cd1c4ba90f19f8cd516b4c4132",
    "wof:id": 2014683223,
    "wof:repo": "sfomuseum-data-flights-2026-01"
  },
  "bbox": [
    -122.36761,
    37.62669,
    -121.25243,
    37.96427
  ],
  "geometry": {"coordinates":[[-122.36761,37.62669],[-122.3406,37.64656],[-122.30513,37.66772],[-122.28476,37.67969],[-122.23337,37.70787],[-122.19104,37.73019],[-122.14304,37.75506],[-122.10811,37.773],[-122.05484,37.80043],[-122.00998,37.8225],[-121.93593,37.83881],[-121.88112,37.84908],[-121.81981,37.86051],[-121.73804,37.87573],[-121.6828,37.88595],[-121.58159,37.90451],[-121.52795,37.91429],[-121.48822,37.92157],[-121.46789,37.92526],[-121.38417,37.94043],[-121.31155,37.95357],[-121.25243,37.96427]],"type":"LineString"}
}
