{
  "id": 2014682273,
  "type": "Feature",
  "properties": {
    "geom:area": 0,
    "geom:bbox": "-122.361490,37.491510,-121.293320,37.615160",
    "geom:latitude": 37.545137785532525,
    "geom:longitude": -121.83226233012074,
    "src:alt_label": "swim-approach",
    "src:geom": "swim",
    "swim:elevations": [
      5014,
      4891,
      4340,
      3984,
      3657,
      3501,
      3298,
      3046,
      2789,
      2583,
      2436,
      2315,
      2134,
      1984,
      1876,
      1817,
      1605,
      1372,
      1217,
      1035,
      1013,
      896,
      819,
      693,
      544,
      455,
      296,
      272,
      198,
      147,
      177
    ],
    "swim:geom": "approach",
    "swim:timestamps": [
      1769896736,
      1769896745,
      1769896793,
      1769896822,
      1769896852,
      1769896866,
      1769896900,
      1769896936,
      1769896966,
      1769896990,
      1769897026,
      1769897049,
      1769897093,
      1769897119,
      1769897155,
      1769897168,
      1769897203,
      1769897245,
      1769897275,
      1769897305,
      1769897314,
      1769897335,
      1769897359,
      1769897386,
      1769897425,
      1769897446,
      1769897485,
      1769897491,
      1769897512,
      1769897527,
      1769897563
    ],
    "wof:geomhash": "fcc9382052c81d41bfd8c70ca0f98b5d",
    "wof:id": 2014682273,
    "wof:repo": "sfomuseum-data-flights-2026-01"
  },
  "bbox": [
    -122.36149,
    37.49151,
    -121.29332,
    37.61516
  ],
  "geometry": {"coordinates":[[-121.29332,37.58872],[-121.31144,37.5867],[-121.40426,37.57668],[-121.45931,37.57027],[-121.51448,37.56385],[-121.53879,37.56096],[-121.60278,37.5534],[-121.66356,37.54152],[-121.71221,37.52992],[-121.75062,37.52082],[-121.80539,37.50757],[-121.83703,37.4999],[-121.89879,37.49151],[-121.93323,37.49241],[-121.97969,37.49396],[-121.99486,37.4968],[-122.03625,37.50992],[-122.08459,37.52629],[-122.11751,37.5372],[-122.14799,37.54655],[-122.15699,37.54925],[-122.17722,37.5554],[-122.1996,37.56289],[-122.22349,37.57093],[-122.25498,37.58074],[-122.27137,37.58572],[-122.30211,37.59465],[-122.30686,37.59607],[-122.3229,37.60082],[-122.33444,37.60444],[-122.36149,37.61516]],"type":"LineString"}
}
