{
  "id": 2014686311,
  "type": "Feature",
  "properties": {
    "geom:area": 0,
    "geom:bbox": "-122.366750,37.627610,-121.246680,38.386560",
    "geom:latitude": 38.02343657231822,
    "geom:longitude": -121.81988645293718,
    "src:alt_label": "swim-takeoff",
    "src:geom": "swim",
    "swim:elevations": [
      122,
      736,
      1045,
      1541,
      2012,
      2514,
      2959,
      3267,
      3395,
      3511,
      3839,
      4145,
      4670,
      4852,
      4923,
      5387,
      5787,
      6104,
      6416,
      6526,
      6747,
      7204
    ],
    "swim:geom": "takeoff",
    "swim:timestamps": [
      1769858143,
      1769858186,
      1769858212,
      1769858272,
      1769858302,
      1769858333,
      1769858364,
      1769858396,
      1769858426,
      1769858438,
      1769858482,
      1769858513,
      1769858561,
      1769858577,
      1769858581,
      1769858614,
      1769858656,
      1769858693,
      1769858728,
      1769858739,
      1769858766,
      1769858813
    ],
    "wof:geomhash": "aa1cb30d2373dd05ccc5035580601450",
    "wof:id": 2014686311,
    "wof:repo": "sfomuseum-data-flights-2026-01"
  },
  "bbox": [
    -122.36675,
    37.62761,
    -121.24668,
    38.38656
  ],
  "geometry": {"coordinates":[[-122.36675,37.62761],[-122.33781,37.65235],[-122.31545,37.66411],[-122.24918,37.69972],[-122.21092,37.72245],[-122.18099,37.75492],[-122.15035,37.78878],[-122.11703,37.82578],[-122.08104,37.86519],[-122.06235,37.88229],[-121.9845,37.93723],[-121.92447,37.97759],[-121.82608,38.04161],[-121.79247,38.06194],[-121.78208,38.0682],[-121.71133,38.11036],[-121.61735,38.16653],[-121.53454,38.21576],[-121.45141,38.26503],[-121.4253,38.28054],[-121.36311,38.31777],[-121.24668,38.38656]],"type":"LineString"}
}
