{
  "id": 2014682329,
  "type": "Feature",
  "properties": {
    "geom:area": 0,
    "geom:bbox": "-122.354020,37.492050,-121.268920,37.612190",
    "geom:latitude": 37.54577585921956,
    "geom:longitude": -121.81620608511454,
    "src:alt_label": "swim-approach",
    "src:geom": "swim",
    "swim:elevations": [
      4730,
      4381,
      4122,
      3917,
      3534,
      3280,
      3231,
      3081,
      2943,
      2617,
      2572,
      2388,
      2242,
      2009,
      1932,
      1768,
      1613,
      1409,
      1230,
      960,
      893,
      724,
      585,
      433,
      299,
      176,
      31
    ],
    "swim:geom": "approach",
    "swim:timestamps": [
      1769864483,
      1769864517,
      1769864545,
      1769864565,
      1769864606,
      1769864634,
      1769864651,
      1769864686,
      1769864704,
      1769864750,
      1769864762,
      1769864801,
      1769864821,
      1769864866,
      1769864882,
      1769864921,
      1769864945,
      1769864977,
      1769865006,
      1769865052,
      1769865065,
      1769865095,
      1769865124,
      1769865151,
      1769865182,
      1769865211,
      1769865246
    ],
    "wof:geomhash": "55e4246b910ffaa37a3cf9a0de006079",
    "wof:id": 2014682329,
    "wof:repo": "sfomuseum-data-flights-2026-01"
  },
  "bbox": [
    -122.35402,
    37.49205,
    -121.26892,
    37.61219
  ],
  "geometry": {"coordinates":[[-121.26892,37.59192],[-121.33821,37.58387],[-121.39187,37.57811],[-121.42875,37.57392],[-121.50449,37.56491],[-121.555,37.55897],[-121.58445,37.55549],[-121.64287,37.54642],[-121.6709,37.5396],[-121.74189,37.52287],[-121.76215,37.51804],[-121.81976,37.50425],[-121.84979,37.49697],[-121.91795,37.49205],[-121.9418,37.49269],[-121.99698,37.49755],[-122.02936,37.50804],[-122.07064,37.52143],[-122.10808,37.53354],[-122.16433,37.55177],[-122.18041,37.55694],[-122.21463,37.56795],[-122.24706,37.57849],[-122.27431,37.58684],[-122.30164,37.59481],[-122.32612,37.60213],[-122.35402,37.61219]],"type":"LineString"}
}
