{
  "id": 2014680073,
  "type": "Feature",
  "properties": {
    "geom:area": 0,
    "geom:bbox": "-122.813420,37.547070,-122.113910,38.498440",
    "geom:latitude": 37.88337295441998,
    "geom:longitude": -122.51237330402346,
    "src:alt_label": "swim-approach",
    "src:geom": "swim",
    "swim:elevations": [
      8053,
      7664,
      7407,
      7055,
      6694,
      6555,
      6303,
      5977,
      5641,
      5488,
      5078,
      5039,
      4587,
      4273,
      3847,
      3814,
      3441,
      3351,
      3353,
      3353,
      3140,
      3080,
      2767,
      2623,
      2220,
      1970,
      1735,
      1337,
      1203,
      884,
      772,
      563,
      452,
      276,
      150,
      110,
      56
    ],
    "swim:geom": "approach",
    "swim:timestamps": [
      1769861385,
      1769861421,
      1769861447,
      1769861480,
      1769861517,
      1769861532,
      1769861567,
      1769861601,
      1769861633,
      1769861648,
      1769861697,
      1769861701,
      1769861746,
      1769861778,
      1769861818,
      1769861822,
      1769861868,
      1769861896,
      1769861937,
      1769861945,
      1769861998,
      1769862014,
      1769862057,
      1769862074,
      1769862117,
      1769862143,
      1769862169,
      1769862225,
      1769862246,
      1769862297,
      1769862316,
      1769862358,
      1769862379,
      1769862418,
      1769862448,
      1769862460,
      1769862485
    ],
    "wof:geomhash": "f54de458aa7100d66567e8032c1a68af",
    "wof:id": 2014680073,
    "wof:repo": "sfomuseum-data-flights-2026-01"
  },
  "bbox": [
    -122.81342,
    37.54707,
    -122.11391,
    38.49844
  ],
  "geometry": {"coordinates":[[-122.81342,38.49844],[-122.80312,38.43612],[-122.79531,38.39275],[-122.78581,38.33621],[-122.77601,38.27639],[-122.77207,38.25197],[-122.75963,38.19653],[-122.74421,38.1435],[-122.72956,38.09428],[-122.72274,38.07117],[-122.70158,37.99739],[-122.69988,37.99134],[-122.68039,37.92467],[-122.6528,37.88048],[-122.60187,37.83189],[-122.59685,37.82708],[-122.54001,37.77354],[-122.50734,37.74287],[-122.44861,37.7146],[-122.43649,37.71138],[-122.3615,37.69118],[-122.33874,37.68483],[-122.28166,37.66703],[-122.2615,37.65729],[-122.21217,37.63285],[-122.18358,37.61844],[-122.15477,37.60392],[-122.11391,37.56306],[-122.12931,37.54707],[-122.19133,37.54828],[-122.21244,37.55189],[-122.25509,37.57068],[-122.27414,37.5788],[-122.30792,37.59282],[-122.33129,37.60272],[-122.34117,37.60684],[-122.35987,37.61465]],"type":"LineString"}
}
