{
  "id": 2014681713,
  "type": "Feature",
  "properties": {
    "geom:area": 0,
    "geom:bbox": "-122.360420,37.491230,-121.268780,37.614360",
    "geom:latitude": 37.546093357515396,
    "geom:longitude": -121.819394626296,
    "src:alt_label": "swim-approach",
    "src:geom": "swim",
    "swim:elevations": [
      4712,
      4374,
      4137,
      3995,
      3818,
      3723,
      3413,
      3065,
      3017,
      2485,
      2466,
      2438,
      2430,
      2278,
      2154,
      2026,
      1840,
      1806,
      1732,
      1468,
      1414,
      1174,
      966,
      881,
      754,
      701,
      597,
      537,
      400,
      365,
      224,
      68,
      214
    ],
    "swim:geom": "approach",
    "swim:timestamps": [
      1769902285,
      1769902318,
      1769902342,
      1769902357,
      1769902375,
      1769902384,
      1769902415,
      1769902468,
      1769902480,
      1769902528,
      1769902537,
      1769902558,
      1769902587,
      1769902617,
      1769902642,
      1769902665,
      1769902704,
      1769902734,
      1769902743,
      1769902764,
      1769902770,
      1769902806,
      1769902853,
      1769902886,
      1769902915,
      1769902927,
      1769902948,
      1769902962,
      1769902998,
      1769903010,
      1769903046,
      1769903085,
      1769903101
    ],
    "wof:geomhash": "b42bde41d7867115a6b684086824702b",
    "wof:id": 2014681713,
    "wof:repo": "sfomuseum-data-flights-2026-01"
  },
  "bbox": [
    -122.36042,
    37.49123,
    -121.26878,
    37.61436
  ],
  "geometry": {"coordinates":[[-121.26878,37.59191],[-121.33409,37.58399],[-121.38093,37.57891],[-121.40998,37.57573],[-121.44471,37.57176],[-121.4621,37.56982],[-121.52112,37.56295],[-121.61554,37.55189],[-121.63513,37.54869],[-121.71302,37.52974],[-121.72712,37.52624],[-121.75817,37.51887],[-121.79918,37.5091],[-121.84094,37.49908],[-121.87542,37.49123],[-121.90704,37.49192],[-121.95983,37.49315],[-121.99931,37.49813],[-122.01054,37.50188],[-122.03798,37.51098],[-122.04605,37.51361],[-122.0932,37.52903],[-122.14928,37.54725],[-122.18419,37.55843],[-122.21311,37.56781],[-122.22474,37.57153],[-122.24347,37.57751],[-122.25476,37.58121],[-122.28261,37.58945],[-122.29167,37.59213],[-122.31964,37.60031],[-122.34858,37.60994],[-122.36042,37.61436]],"type":"LineString"}
}
