{
  "id": 2014686093,
  "type": "Feature",
  "properties": {
    "geom:area": 0,
    "geom:bbox": "-122.356070,37.640190,-121.242710,38.426880",
    "geom:latitude": 38.04306269297396,
    "geom:longitude": -121.80807659688679,
    "src:alt_label": "swim-takeoff",
    "src:geom": "swim",
    "swim:elevations": [
      421,
      692,
      1108,
      1159,
      1638,
      2019,
      2269,
      2932,
      3214,
      3445,
      3562,
      3814,
      4292,
      4489,
      4938,
      5425,
      5589,
      5799,
      5791,
      5791,
      5791,
      5801,
      6009,
      6244,
      6367,
      6556
    ],
    "swim:geom": "takeoff",
    "swim:timestamps": [
      1769865801,
      1769865825,
      1769865861,
      1769865873,
      1769865923,
      1769865947,
      1769865964,
      1769866013,
      1769866037,
      1769866061,
      1769866083,
      1769866116,
      1769866156,
      1769866173,
      1769866208,
      1769866249,
      1769866268,
      1769866294,
      1769866326,
      1769866356,
      1769866402,
      1769866433,
      1769866461,
      1769866487,
      1769866501,
      1769866522
    ],
    "wof:geomhash": "b3f62bbe1e53654e77e0028376599c75",
    "wof:id": 2014686093,
    "wof:repo": "sfomuseum-data-flights-2026-01"
  },
  "bbox": [
    -122.35607,
    37.64019,
    -121.24271,
    38.42688
  ],
  "geometry": {"coordinates":[[-122.35607,37.64019],[-122.33407,37.65123],[-122.30188,37.67073],[-122.29001,37.67766],[-122.22877,37.71064],[-122.2006,37.73258],[-122.18476,37.74987],[-122.13515,37.80504],[-122.11003,37.83266],[-122.08513,37.8606],[-122.05538,37.88805],[-122.00166,37.92498],[-121.9313,37.97193],[-121.90239,37.99152],[-121.83975,38.03446],[-121.76597,38.08419],[-121.7301,38.10764],[-121.68105,38.14023],[-121.6203,38.18111],[-121.56511,38.21831],[-121.47766,38.27707],[-121.4213,38.31534],[-121.36805,38.3511],[-121.31502,38.38415],[-121.2869,38.40053],[-121.24271,38.42688]],"type":"LineString"}
}
