{
  "id": 2014680619,
  "type": "Feature",
  "properties": {
    "geom:area": 0,
    "geom:bbox": "-122.365730,36.759510,-121.898140,37.615440",
    "geom:latitude": 37.2308513395681,
    "geom:longitude": -122.0795723926515,
    "src:alt_label": "swim-approach",
    "src:geom": "swim",
    "swim:elevations": [
      4868,
      4725,
      4515,
      4317,
      4066,
      3893,
      3574,
      3315,
      3138,
      3093,
      3025,
      2938,
      2687,
      2437,
      2389,
      2250,
      2160,
      2058,
      1905,
      1754,
      1470,
      1236,
      1010,
      905,
      619,
      452,
      425,
      271,
      148,
      0
    ],
    "swim:geom": "approach",
    "swim:timestamps": [
      1769891935,
      1769891950,
      1769891973,
      1769891996,
      1769892023,
      1769892043,
      1769892082,
      1769892112,
      1769892144,
      1769892156,
      1769892178,
      1769892191,
      1769892229,
      1769892268,
      1769892280,
      1769892313,
      1769892324,
      1769892336,
      1769892354,
      1769892376,
      1769892412,
      1769892445,
      1769892472,
      1769892487,
      1769892538,
      1769892568,
      1769892575,
      1769892610,
      1769892640,
      1769892683
    ],
    "wof:geomhash": "cd353b72aeefec6c935d4765a008790d",
    "wof:id": 2014680619,
    "wof:repo": "sfomuseum-data-flights-2026-01"
  },
  "bbox": [
    -122.36573,
    36.75951,
    -121.89814,
    37.61544
  ],
  "geometry": {"coordinates":[[-121.89814,36.75951],[-121.90662,36.78587],[-121.9173,36.82385],[-121.92861,36.86433],[-121.94103,36.90936],[-121.95015,36.94195],[-121.97284,37.00265],[-121.9909,37.04881],[-122.00927,37.09607],[-122.01624,37.11383],[-122.02829,37.14476],[-122.03529,37.16255],[-122.05555,37.21437],[-122.07621,37.26679],[-122.08238,37.28241],[-122.09842,37.32391],[-122.10381,37.33754],[-122.10972,37.35208],[-122.11832,37.37378],[-122.12768,37.40068],[-122.14232,37.44376],[-122.15824,37.48115],[-122.17555,37.51013],[-122.18811,37.52453],[-122.23892,37.56167],[-122.27069,37.57475],[-122.27688,37.57734],[-122.30806,37.59055],[-122.33218,37.60083],[-122.36573,37.61544]],"type":"LineString"}
}
