{
  "id": 2014685983,
  "type": "Feature",
  "properties": {
    "geom:area": 0,
    "geom:bbox": "-122.358080,37.637660,-122.114310,38.513310",
    "geom:latitude": 38.043113297034985,
    "geom:longitude": -122.17715013358956,
    "src:alt_label": "swim-takeoff",
    "src:geom": "swim",
    "swim:elevations": [
      381,
      497,
      752,
      1042,
      1392,
      1632,
      2454,
      2866,
      3513,
      3696,
      4412,
      4825,
      5243,
      5667,
      6003,
      6271,
      6438,
      6782,
      7011,
      7153,
      7646,
      8042,
      8083
    ],
    "swim:geom": "takeoff",
    "swim:timestamps": [
      1769886837,
      1769886847,
      1769886865,
      1769886881,
      1769886917,
      1769886935,
      1769886982,
      1769887003,
      1769887042,
      1769887057,
      1769887096,
      1769887123,
      1769887152,
      1769887189,
      1769887210,
      1769887228,
      1769887242,
      1769887267,
      1769887314,
      1769887333,
      1769887373,
      1769887406,
      1769887413
    ],
    "wof:geomhash": "9130f3ee3aa0b668602d04cc6cc6d085",
    "wof:id": 2014685983,
    "wof:repo": "sfomuseum-data-flights-2026-01"
  },
  "bbox": [
    -122.35808,
    37.63766,
    -122.11431,
    38.51331
  ],
  "geometry": {"coordinates":[[-122.35808,37.63766],[-122.35019,37.64242],[-122.33571,37.65038],[-122.32199,37.65832],[-122.28842,37.67834],[-122.26725,37.69091],[-122.21285,37.73415],[-122.20747,37.76324],[-122.19959,37.82015],[-122.19566,37.84298],[-122.18457,37.9059],[-122.17718,37.95104],[-122.1694,38.00119],[-122.15794,38.06819],[-122.15158,38.10799],[-122.14631,38.14238],[-122.14208,38.16819],[-122.13296,38.21851],[-122.11694,38.31059],[-122.11431,38.34961],[-122.11943,38.431],[-122.12441,38.49743],[-122.12548,38.51331]],"type":"LineString"}
}
