{
  "id": 2014681109,
  "type": "Feature",
  "properties": {
    "geom:area": 0,
    "geom:bbox": "-122.359160,36.731200,-121.884140,37.612090",
    "geom:latitude": 37.213879741850654,
    "geom:longitude": -122.07186924188274,
    "src:alt_label": "swim-approach",
    "src:geom": "swim",
    "swim:elevations": [
      5094,
      4708,
      4559,
      4244,
      4033,
      3673,
      3326,
      3143,
      3052,
      2965,
      2670,
      2501,
      2454,
      2303,
      2101,
      1989,
      1805,
      1615,
      1585,
      1414,
      1292,
      1150,
      1083,
      900,
      635,
      500,
      487,
      306,
      131,
      122,
      5
    ],
    "swim:geom": "approach",
    "swim:timestamps": [
      1769899302,
      1769899345,
      1769899363,
      1769899396,
      1769899421,
      1769899460,
      1769899497,
      1769899518,
      1769899554,
      1769899569,
      1769899611,
      1769899634,
      1769899651,
      1769899673,
      1769899706,
      1769899724,
      1769899751,
      1769899784,
      1769899793,
      1769899820,
      1769899832,
      1769899853,
      1769899862,
      1769899891,
      1769899944,
      1769899971,
      1769899980,
      1769900025,
      1769900067,
      1769900070,
      1769900105
    ],
    "wof:geomhash": "9ae1d23a527b14ef928720a3e695a6bf",
    "wof:id": 2014681109,
    "wof:repo": "sfomuseum-data-flights-2026-01"
  },
  "bbox": [
    -122.35916,
    36.7312,
    -121.88414,
    37.61209
  ],
  "geometry": {"coordinates":[[-121.88414,36.7312],[-121.91174,36.80488],[-121.92039,36.83551],[-121.93621,36.89134],[-121.94742,36.93166],[-121.96966,36.99423],[-121.99278,37.05342],[-122.00536,37.08557],[-122.02564,37.13853],[-122.03389,37.15961],[-122.05666,37.2173],[-122.06884,37.24837],[-122.07732,37.27001],[-122.0885,37.29834],[-122.10483,37.33983],[-122.1136,37.36136],[-122.12587,37.39356],[-122.13911,37.43271],[-122.1424,37.44294],[-122.15393,37.47173],[-122.15965,37.48421],[-122.17117,37.5047],[-122.17736,37.51246],[-122.19753,37.53598],[-122.23882,37.56083],[-122.26,37.5697],[-122.26669,37.57272],[-122.30131,37.58745],[-122.33177,37.60051],[-122.33398,37.60144],[-122.35916,37.61209]],"type":"LineString"}
}
