{
  "id": 2014680729,
  "type": "Feature",
  "properties": {
    "geom:area": 0,
    "geom:bbox": "-122.330470,36.733630,-121.885580,37.600010",
    "geom:latitude": 37.2017451623869,
    "geom:longitude": -122.06407676375807,
    "src:alt_label": "swim-approach",
    "src:geom": "swim",
    "swim:elevations": [
      5179,
      4969,
      4643,
      4244,
      3977,
      3569,
      3413,
      3186,
      3092,
      2962,
      2721,
      2683,
      2530,
      2409,
      2199,
      1709,
      1525,
      1463,
      1334,
      1147,
      953,
      769,
      687,
      544,
      431,
      281,
      177
    ],
    "swim:geom": "approach",
    "swim:timestamps": [
      1769875750,
      1769875770,
      1769875802,
      1769875844,
      1769875872,
      1769875916,
      1769875933,
      1769875963,
      1769875993,
      1769876026,
      1769876065,
      1769876076,
      1769876113,
      1769876134,
      1769876160,
      1769876209,
      1769876248,
      1769876268,
      1769876293,
      1769876330,
      1769876362,
      1769876392,
      1769876413,
      1769876438,
      1769876468,
      1769876506,
      1769876532
    ],
    "wof:geomhash": "b94090a75a33286d57b6aa029f747548",
    "wof:id": 2014680729,
    "wof:repo": "sfomuseum-data-flights-2026-01"
  },
  "bbox": [
    -122.33047,
    36.73363,
    -121.88558,
    37.60001
  ],
  "geometry": {"coordinates":[[-121.88558,36.73363],[-121.90074,36.76686],[-121.91697,36.82341],[-121.93699,36.89556],[-121.95048,36.94355],[-121.97745,37.01401],[-121.98807,37.04147],[-122.00598,37.08759],[-122.02329,37.13203],[-122.04114,37.17737],[-122.06076,37.22779],[-122.06626,37.24174],[-122.08294,37.28435],[-122.0922,37.30784],[-122.10333,37.33547],[-122.12361,37.38857],[-122.13793,37.42984],[-122.14442,37.44915],[-122.15435,37.47198],[-122.1774,37.50169],[-122.199,37.52486],[-122.21937,37.54664],[-122.23492,37.55842],[-122.25676,37.56836],[-122.28014,37.57871],[-122.30989,37.59125],[-122.33047,37.60001]],"type":"LineString"}
}
