{
  "id": 2014686103,
  "type": "Feature",
  "properties": {
    "geom:area": 0,
    "geom:bbox": "-122.553140,36.722580,-122.261470,37.699990",
    "geom:latitude": 37.223290611941756,
    "geom:longitude": -122.45304636300116,
    "src:alt_label": "swim-takeoff",
    "src:geom": "swim",
    "swim:elevations": [
      220,
      602,
      940,
      1128,
      1219,
      1395,
      1793,
      2574,
      3151,
      3623,
      3900,
      4100,
      4584,
      4895,
      5236,
      5868,
      6065,
      6416,
      6895,
      7064,
      7371,
      7666,
      7980,
      8261,
      8606,
      8858,
      9302,
      9447,
      9449
    ],
    "swim:geom": "takeoff",
    "swim:timestamps": [
      1769894536,
      1769894569,
      1769894599,
      1769894626,
      1769894638,
      1769894659,
      1769894685,
      1769894718,
      1769894740,
      1769894776,
      1769894812,
      1769894824,
      1769894848,
      1769894866,
      1769894887,
      1769894935,
      1769894950,
      1769894980,
      1769895026,
      1769895044,
      1769895069,
      1769895093,
      1769895127,
      1769895153,
      1769895204,
      1769895231,
      1769895267,
      1769895296,
      1769895307
    ],
    "wof:geomhash": "11588f7b7d621b8a5640512b5e714ba4",
    "wof:id": 2014686103,
    "wof:repo": "sfomuseum-data-flights-2026-01"
  },
  "bbox": [
    -122.55314,
    36.72258,
    -122.26147,
    37.69999
  ],
  "geometry": {"coordinates":[[-122.36852,37.62971],[-122.36513,37.6507],[-122.36229,37.67129],[-122.36637,37.69161],[-122.37722,37.69777],[-122.40404,37.69999],[-122.43011,37.68006],[-122.4389,37.63942],[-122.44313,37.61359],[-122.4509,37.56984],[-122.4619,37.51678],[-122.4652,37.49801],[-122.47232,37.46067],[-122.47801,37.43289],[-122.48454,37.40117],[-122.50016,37.32465],[-122.50509,37.30077],[-122.51509,37.25193],[-122.53032,37.17578],[-122.53678,37.14333],[-122.54524,37.1003],[-122.55314,37.05917],[-122.5389,37.00031],[-122.50108,36.95959],[-122.42249,36.88187],[-122.37976,36.8396],[-122.32304,36.78354],[-122.27819,36.73922],[-122.26147,36.72258]],"type":"LineString"}
}
