{
  "id": 2014682073,
  "type": "Feature",
  "properties": {
    "geom:area": 0,
    "geom:bbox": "-122.364350,37.492170,-121.246290,37.616680",
    "geom:latitude": 37.54732891223785,
    "geom:longitude": -121.81042723459885,
    "src:alt_label": "swim-approach",
    "src:geom": "swim",
    "swim:elevations": [
      4882,
      4535,
      4205,
      3808,
      3660,
      3179,
      3109,
      3075,
      3029,
      2828,
      2596,
      2519,
      2239,
      2163,
      2134,
      1930,
      1857,
      1597,
      1333,
      1137,
      820,
      708,
      496,
      359,
      229,
      83,
      323
    ],
    "swim:geom": "approach",
    "swim:timestamps": [
      1769856998,
      1769857032,
      1769857064,
      1769857102,
      1769857116,
      1769857168,
      1769857192,
      1769857207,
      1769857219,
      1769857249,
      1769857281,
      1769857293,
      1769857345,
      1769857362,
      1769857396,
      1769857432,
      1769857444,
      1769857491,
      1769857528,
      1769857558,
      1769857613,
      1769857633,
      1769857676,
      1769857704,
      1769857732,
      1769857768,
      1769857792
    ],
    "wof:geomhash": "90dc80e8f4cf256312ad5494a8e4fee6",
    "wof:id": 2014682073,
    "wof:repo": "sfomuseum-data-flights-2026-01"
  },
  "bbox": [
    -122.36435,
    37.49217,
    -121.24629,
    37.61668
  ],
  "geometry": {"coordinates":[[-121.24629,37.59523],[-121.31204,37.5869],[-121.37477,37.58002],[-121.44791,37.57157],[-121.47409,37.56838],[-121.57018,37.55711],[-121.61162,37.55211],[-121.63502,37.54817],[-121.65375,37.54372],[-121.69946,37.53306],[-121.74722,37.52182],[-121.76542,37.51727],[-121.8397,37.49918],[-121.8646,37.49341],[-121.9128,37.49217],[-121.96004,37.4931],[-121.97712,37.49361],[-122.03868,37.51096],[-122.08821,37.52718],[-122.12965,37.54076],[-122.1976,37.56265],[-122.22096,37.56977],[-122.26585,37.58421],[-122.29298,37.59228],[-122.31611,37.59895],[-122.34512,37.60832],[-122.36435,37.61668]],"type":"LineString"}
}
