{
  "id": 2014686003,
  "type": "Feature",
  "properties": {
    "geom:area": 0,
    "geom:bbox": "-122.386330,37.632690,-121.324340,38.514460",
    "geom:latitude": 38.14205022113384,
    "geom:longitude": -121.97088477648842,
    "src:alt_label": "swim-takeoff",
    "src:geom": "swim",
    "swim:elevations": [
      274,
      344,
      791,
      1174,
      1252,
      1491,
      1631,
      1972,
      2261,
      2757,
      3049,
      3275,
      3385,
      3479,
      3528,
      3812,
      4161,
      4406,
      4519,
      4829,
      4928,
      5083,
      5171,
      5409,
      5686,
      5861,
      6069,
      6223,
      6308,
      6469,
      6571
    ],
    "swim:geom": "takeoff",
    "swim:timestamps": [
      1769929046,
      1769929051,
      1769929085,
      1769929136,
      1769929166,
      1769929196,
      1769929205,
      1769929228,
      1769929248,
      1769929287,
      1769929317,
      1769929347,
      1769929371,
      1769929398,
      1769929410,
      1769929455,
      1769929498,
      1769929528,
      1769929538,
      1769929579,
      1769929591,
      1769929612,
      1769929624,
      1769929660,
      1769929695,
      1769929720,
      1769929750,
      1769929775,
      1769929788,
      1769929827,
      1769929842
    ],
    "wof:geomhash": "39fdaf3b2ae4d5aa4f2cda533875a7ea",
    "wof:id": 2014686003,
    "wof:repo": "sfomuseum-data-flights-2026-01"
  },
  "bbox": [
    -122.38633,
    37.63269,
    -121.32434,
    38.51446
  ],
  "geometry": {"coordinates":[[-122.36344,37.63269],[-122.36081,37.63592],[-122.33837,37.65739],[-122.30778,37.69202],[-122.32092,37.72059],[-122.34026,37.75395],[-122.34601,37.76442],[-122.3592,37.79139],[-122.37067,37.81541],[-122.38633,37.86299],[-122.38354,37.90353],[-122.36942,37.94472],[-122.33633,37.97067],[-122.28991,37.99778],[-122.26936,38.00981],[-122.18495,38.06162],[-122.10173,38.11264],[-122.04214,38.14912],[-122.02107,38.16197],[-121.93738,38.21251],[-121.91231,38.22762],[-121.86809,38.25422],[-121.84258,38.26968],[-121.76524,38.31608],[-121.68957,38.36129],[-121.63034,38.38887],[-121.55675,38.41903],[-121.49424,38.44486],[-121.46185,38.45814],[-121.36292,38.49873],[-121.32434,38.51446]],"type":"LineString"}
}
