{
  "id": 2014686019,
  "type": "Feature",
  "properties": {
    "geom:area": 0,
    "geom:bbox": "-122.531130,36.741830,-122.138590,37.699750",
    "geom:latitude": 37.23792142764816,
    "geom:longitude": -122.40773465184718,
    "src:alt_label": "swim-takeoff",
    "src:geom": "swim",
    "swim:elevations": [
      213,
      551,
      835,
      1144,
      1259,
      1761,
      2034,
      2689,
      3144,
      3552,
      3724,
      4238,
      4347,
      4686,
      4983,
      5234,
      5483,
      5979,
      6064,
      6337,
      6428,
      6621,
      6748,
      7227,
      7320,
      7620,
      7978,
      8088,
      8362,
      8467,
      8626
    ],
    "swim:geom": "takeoff",
    "swim:timestamps": [
      1769858785,
      1769858813,
      1769858841,
      1769858876,
      1769858893,
      1769858937,
      1769858953,
      1769858994,
      1769859022,
      1769859056,
      1769859071,
      1769859116,
      1769859124,
      1769859150,
      1769859176,
      1769859198,
      1769859224,
      1769859266,
      1769859274,
      1769859296,
      1769859304,
      1769859324,
      1769859337,
      1769859384,
      1769859396,
      1769859432,
      1769859473,
      1769859491,
      1769859533,
      1769859552,
      1769859578
    ],
    "wof:geomhash": "2d5251871cfd5320c635412d707881a7",
    "wof:id": 2014686019,
    "wof:repo": "sfomuseum-data-flights-2026-01"
  },
  "bbox": [
    -122.53113,
    36.74183,
    -122.13859,
    37.69975
  ],
  "geometry": {"coordinates":[[-122.36661,37.63239],[-122.36419,37.65402],[-122.36185,37.67648],[-122.38515,37.69975],[-122.40689,37.69744],[-122.45979,37.66755],[-122.46546,37.64834],[-122.47431,37.59636],[-122.48013,37.5607],[-122.4869,37.51536],[-122.48977,37.49559],[-122.49954,37.42997],[-122.50136,37.41806],[-122.50748,37.37885],[-122.51369,37.3379],[-122.51872,37.30473],[-122.52517,37.2626],[-122.53113,37.19492],[-122.52668,37.18229],[-122.50426,37.15166],[-122.49381,37.14027],[-122.46997,37.1139],[-122.45364,37.09561],[-122.39413,37.02912],[-122.37886,37.01214],[-122.33308,36.96107],[-122.27986,36.90059],[-122.25649,36.87458],[-122.20005,36.81122],[-122.17437,36.78249],[-122.13859,36.74183]],"type":"LineString"}
}
