{
  "id": 2014686137,
  "type": "Feature",
  "properties": {
    "geom:area": 0,
    "geom:bbox": "-122.361220,37.634800,-121.248200,38.424240",
    "geom:latitude": 38.03944362524291,
    "geom:longitude": -121.81360205474385,
    "src:alt_label": "swim-takeoff",
    "src:geom": "swim",
    "swim:elevations": [
      318,
      496,
      865,
      1086,
      1258,
      1632,
      1791,
      2206,
      2680,
      2856,
      3103,
      3316,
      3414,
      3559,
      3967,
      4187,
      4626,
      4787,
      5216,
      5413,
      5545,
      5790,
      6096,
      6254,
      6348,
      6531
    ],
    "swim:geom": "takeoff",
    "swim:timestamps": [
      1769865709,
      1769865721,
      1769865752,
      1769865784,
      1769865825,
      1769865861,
      1769865873,
      1769865906,
      1769865947,
      1769865964,
      1769865990,
      1769866032,
      1769866054,
      1769866080,
      1769866116,
      1769866144,
      1769866186,
      1769866204,
      1769866249,
      1769866272,
      1769866294,
      1769866326,
      1769866372,
      1769866399,
      1769866413,
      1769866448
    ],
    "wof:geomhash": "fff64591c3470bbe8c5c46af1c373d13",
    "wof:id": 2014686137,
    "wof:repo": "sfomuseum-data-flights-2026-01"
  },
  "bbox": [
    -122.36122,
    37.6348,
    -121.2482,
    38.42424
  ],
  "geometry": {"coordinates":[[-122.36122,37.6348],[-122.35284,37.64057],[-122.32785,37.65551],[-122.29996,37.67126],[-122.25571,37.69637],[-122.2104,37.72283],[-122.19889,37.73502],[-122.16663,37.77086],[-122.12602,37.81561],[-122.10934,37.83397],[-122.08126,37.8652],[-122.02367,37.91001],[-121.98818,37.93424],[-121.94425,37.96393],[-121.88204,38.00593],[-121.83224,38.03948],[-121.75547,38.09138],[-121.7235,38.11298],[-121.6411,38.16851],[-121.59741,38.19776],[-121.55555,38.2258],[-121.49412,38.26683],[-121.40457,38.32655],[-121.35009,38.36197],[-121.32133,38.3794],[-121.2482,38.42424]],"type":"LineString"}
}
