{
  "id": 2014680617,
  "type": "Feature",
  "properties": {
    "geom:area": 0,
    "geom:bbox": "-122.358320,37.491580,-121.255100,37.613990",
    "geom:latitude": 37.54667438874116,
    "geom:longitude": -121.81158475616164,
    "src:alt_label": "swim-approach",
    "src:geom": "swim",
    "swim:elevations": [
      4853,
      4541,
      4421,
      3920,
      3873,
      3364,
      3230,
      3130,
      2935,
      2723,
      2602,
      2390,
      2334,
      2074,
      1946,
      1858,
      1706,
      1532,
      1371,
      1217,
      1128,
      880,
      757,
      686,
      601,
      395,
      297,
      128,
      1
    ],
    "swim:geom": "approach",
    "swim:timestamps": [
      1769896317,
      1769896348,
      1769896360,
      1769896408,
      1769896412,
      1769896463,
      1769896480,
      1769896521,
      1769896555,
      1769896585,
      1769896603,
      1769896645,
      1769896657,
      1769896704,
      1769896736,
      1769896754,
      1769896790,
      1769896819,
      1769896848,
      1769896880,
      1769896897,
      1769896948,
      1769896975,
      1769896990,
      1769897011,
      1769897058,
      1769897081,
      1769897123,
      1769897149
    ],
    "wof:geomhash": "0c10d31d2138aac2a15025c42228317b",
    "wof:id": 2014680617,
    "wof:repo": "sfomuseum-data-flights-2026-01"
  },
  "bbox": [
    -122.35832,
    37.49158,
    -121.2551,
    37.61399
  ],
  "geometry": {"coordinates":[[-121.2551,37.59391],[-121.31413,37.5867],[-121.33667,37.5843],[-121.42698,37.57394],[-121.43441,37.57305],[-121.52906,37.56211],[-121.56019,37.55872],[-121.62993,37.54949],[-121.68253,37.53699],[-121.72757,37.52627],[-121.7541,37.51993],[-121.81593,37.50503],[-121.83376,37.50075],[-121.9007,37.49158],[-121.94592,37.49273],[-121.97027,37.4934],[-122.01542,37.50355],[-122.04954,37.51458],[-122.08143,37.52496],[-122.11574,37.53619],[-122.13434,37.54213],[-122.18537,37.55862],[-122.21096,37.56693],[-122.22505,37.57154],[-122.24473,37.57789],[-122.28531,37.58999],[-122.30428,37.59555],[-122.33803,37.60599],[-122.35832,37.61399]],"type":"LineString"}
}
