{
  "id": 2014686087,
  "type": "Feature",
  "properties": {
    "geom:area": 0,
    "geom:bbox": "-122.362530,37.635060,-121.246990,38.517940",
    "geom:latitude": 38.11229487267984,
    "geom:longitude": -121.83073032031207,
    "src:alt_label": "swim-takeoff",
    "src:geom": "swim",
    "swim:elevations": [
      305,
      908,
      1043,
      1416,
      1510,
      1897,
      2144,
      2613,
      3062,
      3270,
      3504,
      3671,
      3859,
      3933,
      4077,
      4571,
      4866,
      5237,
      5601,
      5859,
      6035,
      6479,
      6767,
      6918,
      7126,
      7385,
      7460,
      7560,
      7823
    ],
    "swim:geom": "takeoff",
    "swim:timestamps": [
      1769848515,
      1769848554,
      1769848569,
      1769848613,
      1769848623,
      1769848651,
      1769848667,
      1769848697,
      1769848729,
      1769848754,
      1769848780,
      1769848821,
      1769848840,
      1769848850,
      1769848871,
      1769848910,
      1769848935,
      1769848962,
      1769849006,
      1769849023,
      1769849043,
      1769849093,
      1769849123,
      1769849139,
      1769849162,
      1769849189,
      1769849195,
      1769849207,
      1769849241
    ],
    "wof:geomhash": "0cbd512f77f28e2818f4270f465a9ba1",
    "wof:id": 2014686087,
    "wof:repo": "sfomuseum-data-flights-2026-01"
  },
  "bbox": [
    -122.36253,
    37.63506,
    -121.24699,
    38.51794
  ],
  "geometry": {"coordinates":[[-122.36253,37.63506],[-122.33362,37.6556],[-122.32039,37.66224],[-122.27295,37.68888],[-122.26255,37.69681],[-122.23572,37.72581],[-122.2207,37.74262],[-122.19065,37.77445],[-122.15848,37.80814],[-122.13081,37.83757],[-122.10066,37.8697],[-122.04611,37.92728],[-122.01852,37.95639],[-122.00312,37.97256],[-121.97378,38.00369],[-121.91476,38.06517],[-121.87722,38.10467],[-121.83726,38.14682],[-121.77057,38.2174],[-121.74268,38.2463],[-121.71081,38.27878],[-121.60227,38.34299],[-121.53315,38.37947],[-121.49495,38.39929],[-121.44144,38.42559],[-121.37675,38.45665],[-121.36067,38.46438],[-121.33168,38.47818],[-121.24699,38.51794]],"type":"LineString"}
}
