{
  "id": 2014679599,
  "type": "Feature",
  "properties": {
    "geom:area": 0,
    "geom:bbox": "-122.358120,37.491930,-121.258510,37.613930",
    "geom:latitude": 37.546562264073906,
    "geom:longitude": -121.81313223469846,
    "src:alt_label": "swim-approach",
    "src:geom": "swim",
    "swim:elevations": [
      4765,
      4670,
      4419,
      4331,
      4077,
      3597,
      3425,
      3271,
      3174,
      2947,
      2711,
      2536,
      2361,
      2284,
      2053,
      1957,
      1780,
      1672,
      1538,
      1404,
      1225,
      941,
      576,
      392,
      309,
      153,
      94,
      0
    ],
    "swim:geom": "approach",
    "swim:timestamps": [
      1769859141,
      1769859150,
      1769859176,
      1769859185,
      1769859212,
      1769859266,
      1769859288,
      1769859324,
      1769859346,
      1769859384,
      1769859413,
      1769859435,
      1769859477,
      1769859491,
      1769859533,
      1769859552,
      1769859597,
      1769859609,
      1769859630,
      1769859681,
      1769859698,
      1769859734,
      1769859773,
      1769859834,
      1769859853,
      1769859895,
      1769859911,
      1769859933
    ],
    "wof:geomhash": "c2572f2eed6d30ae19342e895af9f5d1",
    "wof:id": 2014679599,
    "wof:repo": "sfomuseum-data-flights-2026-01"
  },
  "bbox": [
    -122.35812,
    37.49193,
    -121.25851,
    37.61393
  ],
  "geometry": {"coordinates":[[-121.25851,37.59341],[-121.27685,37.59094],[-121.3287,37.58495],[-121.34538,37.58314],[-121.3963,37.57736],[-121.49659,37.56568],[-121.53625,37.56116],[-121.59714,37.55394],[-121.63223,37.54894],[-121.69107,37.53482],[-121.73322,37.52496],[-121.7653,37.51725],[-121.82571,37.50271],[-121.8454,37.49797],[-121.90604,37.49193],[-121.93399,37.49268],[-122,37.49878],[-122.01605,37.50391],[-122.0457,37.5136],[-122.11054,37.53455],[-122.13226,37.54162],[-122.17667,37.55597],[-122.22112,37.57039],[-122.28182,37.58922],[-122.29675,37.5936],[-122.33008,37.60352],[-122.34198,37.60758],[-122.35812,37.61393]],"type":"LineString"}
}
