{
  "id": 2014686127,
  "type": "Feature",
  "properties": {
    "geom:area": 0,
    "geom:bbox": "-122.450160,37.248080,-121.268190,37.704680",
    "geom:latitude": 37.43542718988701,
    "geom:longitude": -121.95729185034966,
    "src:alt_label": "swim-takeoff",
    "src:geom": "swim",
    "swim:elevations": [
      384,
      565,
      863,
      1247,
      1361,
      2055,
      2307,
      2764,
      3171,
      3464,
      3554,
      3782,
      4432,
      4838,
      5006,
      5053,
      5768,
      6034,
      6488,
      6716,
      7046,
      7196,
      7587,
      7941,
      8229,
      8530,
      8676,
      8834,
      9039
    ],
    "swim:geom": "takeoff",
    "swim:timestamps": [
      1769893528,
      1769893543,
      1769893568,
      1769893615,
      1769893624,
      1769893671,
      1769893683,
      1769893704,
      1769893725,
      1769893760,
      1769893778,
      1769893800,
      1769893848,
      1769893876,
      1769893887,
      1769893890,
      1769893945,
      1769893966,
      1769894005,
      1769894028,
      1769894067,
      1769894082,
      1769894123,
      1769894156,
      1769894183,
      1769894216,
      1769894232,
      1769894253,
      1769894283
    ],
    "wof:geomhash": "1eab99cc1f2c515a81853571c97c10a2",
    "wof:id": 2014686127,
    "wof:repo": "sfomuseum-data-flights-2026-01"
  },
  "bbox": [
    -122.45016,
    37.24808,
    -121.26819,
    37.70468
  ],
  "geometry": {"coordinates":[[-122.36292,37.64258],[-122.36228,37.6545],[-122.36205,37.67501],[-122.39153,37.70468],[-122.40364,37.70316],[-122.43264,37.65508],[-122.43503,37.64004],[-122.44096,37.61534],[-122.44814,37.58969],[-122.45016,37.54558],[-122.42838,37.52548],[-122.38585,37.51262],[-122.2855,37.49352],[-122.22552,37.48008],[-122.19957,37.47391],[-122.19309,37.47234],[-122.07319,37.44294],[-122.0266,37.43175],[-121.9393,37.41079],[-121.88667,37.3981],[-121.79579,37.37634],[-121.75991,37.36778],[-121.66144,37.34407],[-121.58087,37.32463],[-121.51528,37.30861],[-121.43355,37.28868],[-121.39425,37.27884],[-121.34275,37.26647],[-121.26819,37.24808]],"type":"LineString"}
}
