{
  "id": 2014683727,
  "type": "Feature",
  "properties": {
    "geom:area": 0,
    "geom:bbox": "-122.470070,36.740740,-121.326410,37.708150",
    "geom:latitude": 37.21989829166029,
    "geom:longitude": -122.00464652676426,
    "src:alt_label": "swim-takeoff",
    "src:geom": "swim",
    "swim:elevations": [
      152,
      374,
      601,
      719,
      766,
      1082,
      1287,
      1644,
      2049,
      2401,
      2799,
      3070,
      3231,
      3373,
      3760,
      4043,
      4581,
      4895,
      5164,
      5532,
      5981,
      6046,
      6295,
      6580,
      7038,
      7272,
      7380,
      7649,
      7929,
      8097,
      8318,
      8456,
      8567,
      8779,
      8883
    ],
    "swim:geom": "takeoff",
    "swim:timestamps": [
      1769867128,
      1769867146,
      1769867188,
      1769867212,
      1769867220,
      1769867268,
      1769867290,
      1769867322,
      1769867359,
      1769867392,
      1769867424,
      1769867449,
      1769867472,
      1769867496,
      1769867530,
      1769867555,
      1769867605,
      1769867627,
      1769867647,
      1769867681,
      1769867725,
      1769867735,
      1769867766,
      1769867800,
      1769867848,
      1769867874,
      1769867887,
      1769867924,
      1769867963,
      1769867986,
      1769868025,
      1769868048,
      1769868067,
      1769868108,
      1769868129
    ],
    "wof:geomhash": "8a8ae28492341744c46b683e8330f613",
    "wof:id": 2014683727,
    "wof:repo": "sfomuseum-data-flights-2026-01"
  },
  "bbox": [
    -122.47007,
    36.74074,
    -121.32641,
    37.70815
  ],
  "geometry": {"coordinates":[[-122.36789,37.63061],[-122.36307,37.64383],[-122.36197,37.68071],[-122.37238,37.70309],[-122.38057,37.70815],[-122.43848,37.69125],[-122.44265,37.66623],[-122.44897,37.62728],[-122.45846,37.58264],[-122.46567,37.54242],[-122.47007,37.50129],[-122.45072,37.47471],[-122.41977,37.45531],[-122.38429,37.43218],[-122.33478,37.39968],[-122.2975,37.37563],[-122.21905,37.3252],[-122.18413,37.30262],[-122.15386,37.28299],[-122.10159,37.24918],[-122.03134,37.20372],[-122.01509,37.19313],[-121.96567,37.16086],[-121.90772,37.12302],[-121.82701,37.07025],[-121.78208,37.04097],[-121.76028,37.02668],[-121.6958,36.98434],[-121.62863,36.93997],[-121.58645,36.9126],[-121.51809,36.86791],[-121.47596,36.83996],[-121.44131,36.81694],[-121.36558,36.76699],[-121.32641,36.74074]],"type":"LineString"}
}
