{
  "id": 2014681171,
  "type": "Feature",
  "properties": {
    "geom:area": 0,
    "geom:bbox": "-122.360310,36.722500,-121.878860,37.614980",
    "geom:latitude": 37.19893691408929,
    "geom:longitude": -122.08646877124951,
    "src:alt_label": "swim-approach",
    "src:geom": "swim",
    "swim:elevations": [
      5303,
      5005,
      4907,
      4715,
      4471,
      4109,
      3891,
      3626,
      3249,
      3138,
      3062,
      2923,
      2585,
      2436,
      2285,
      2192,
      1986,
      1743,
      1462,
      1368,
      1241,
      1096,
      947,
      913,
      669,
      569,
      466,
      363,
      273,
      150,
      25,
      5095,
      4996,
      4536,
      4466,
      4425,
      4205,
      3767,
      3526,
      3297,
      3207,
      3077,
      2991,
      2742,
      2671,
      2385,
      2265,
      1988,
      1883,
      1691,
      1653,
      1423,
      1327,
      1134,
      912,
      878,
      688,
      504,
      396,
      231,
      116,
      83,
      155
    ],
    "swim:geom": "approach",
    "swim:timestamps": [
      1769846906,
      1769846933,
      1769846942,
      1769846961,
      1769846986,
      1769847024,
      1769847046,
      1769847075,
      1769847118,
      1769847145,
      1769847177,
      1769847192,
      1769847235,
      1769847255,
      1769847276,
      1769847300,
      1769847347,
      1769847384,
      1769847416,
      1769847446,
      1769847473,
      1769847497,
      1769847519,
      1769847526,
      1769847568,
      1769847593,
      1769847613,
      1769847637,
      1769847660,
      1769847694,
      1769847722,
      1769928744,
      1769928753,
      1769928806,
      1769928815,
      1769928821,
      1769928848,
      1769928897,
      1769928927,
      1769928954,
      1769928968,
      1769929016,
      1769929036,
      1769929076,
      1769929091,
      1769929136,
      1769929153,
      1769929196,
      1769929214,
      1769929256,
      1769929262,
      1769929311,
      1769929328,
      1769929365,
      1769929405,
      1769929414,
      1769929455,
      1769929495,
      1769929515,
      1769929557,
      1769929585,
      1769929594,
      1769929612
    ],
    "wof:geomhash": "de105cf153984bbe9f38d93e48324a2a",
    "wof:id": 2014681171,
    "wof:repo": "sfomuseum-data-flights-2026-01"
  },
  "bbox": [
    -122.36031,
    36.7225,
    -121.87886,
    37.61498
  ],
  "geometry": {"coordinates":[[-121.88193,36.72698],[-121.90266,36.77226],[-121.90681,36.78766],[-121.91587,36.81932],[-121.92749,36.86112],[-121.94454,36.92201],[-121.95526,36.95763],[-121.97323,37.00318],[-121.99802,37.06725],[-122.01381,37.10735],[-122.03035,37.14969],[-122.03828,37.16983],[-122.05959,37.22437],[-122.06973,37.25085],[-122.0802,37.27741],[-122.0919,37.30722],[-122.11364,37.36214],[-122.12737,37.4016],[-122.13857,37.43418],[-122.15069,37.46276],[-122.16381,37.48567],[-122.17976,37.50398],[-122.19389,37.51989],[-122.1992,37.52579],[-122.22886,37.556],[-122.2528,37.56664],[-122.26969,37.5738],[-122.29087,37.58311],[-122.3089,37.59109],[-122.3369,37.60272],[-122.35898,37.61197],[-121.87886,36.7225],[-121.88756,36.73633],[-121.91685,36.82298],[-121.92094,36.83757],[-121.92367,36.84724],[-121.93592,36.89032],[-121.95953,36.96903],[-121.97722,37.01493],[-121.99311,37.05485],[-122.00092,37.07453],[-122.02613,37.13917],[-122.03623,37.16534],[-122.05508,37.21342],[-122.06206,37.23148],[-122.08327,37.28415],[-122.09062,37.30323],[-122.1093,37.35066],[-122.11664,37.36955],[-122.1316,37.41245],[-122.13368,37.41852],[-122.15043,37.46732],[-122.15581,37.48445],[-122.16699,37.51883],[-122.17981,37.55313],[-122.18669,37.55861],[-122.22678,37.57228],[-122.26298,37.58324],[-122.27974,37.58853],[-122.31689,37.59936],[-122.33965,37.60628],[-122.3467,37.60897],[-122.36031,37.61498]],"type":"LineString"}
}
