{
  "id": 2014679597,
  "type": "Feature",
  "properties": {
    "geom:area": 0,
    "geom:bbox": "-122.353510,37.491830,-121.247960,37.612010",
    "geom:latitude": 37.54642775839569,
    "geom:longitude": -121.80556723361408,
    "src:alt_label": "swim-approach",
    "src:geom": "swim",
    "swim:elevations": [
      4768,
      4431,
      4111,
      3697,
      3431,
      3161,
      3092,
      2886,
      2831,
      2681,
      2438,
      2438,
      2438,
      2166,
      2133,
      2113,
      1992,
      1928,
      1764,
      1340,
      1103,
      1040,
      943,
      822,
      736,
      580,
      518,
      465,
      304,
      249,
      80,
      38
    ],
    "swim:geom": "approach",
    "swim:timestamps": [
      1769889422,
      1769889457,
      1769889490,
      1769889535,
      1769889565,
      1769889598,
      1769889615,
      1769889653,
      1769889664,
      1769889685,
      1769889718,
      1769889745,
      1769889751,
      1769889796,
      1769889826,
      1769889848,
      1769889868,
      1769889877,
      1769889905,
      1769889955,
      1769889980,
      1769889986,
      1769890001,
      1769890022,
      1769890037,
      1769890068,
      1769890106,
      1769890125,
      1769890168,
      1769890183,
      1769890225,
      1769890235
    ],
    "wof:geomhash": "4ffb952639cd1ecaa9a8b8f808774f98",
    "wof:id": 2014679597,
    "wof:repo": "sfomuseum-data-flights-2026-01"
  },
  "bbox": [
    -122.35351,
    37.49183,
    -121.24796,
    37.61201
  ],
  "geometry": {"coordinates":[[-121.24796,37.59474],[-121.31519,37.58636],[-121.37682,37.57954],[-121.45939,37.57003],[-121.51401,37.56368],[-121.57347,37.55674],[-121.60367,37.55317],[-121.66423,37.54121],[-121.6822,37.53691],[-121.71298,37.52962],[-121.76065,37.51823],[-121.79952,37.50886],[-121.80826,37.50678],[-121.87332,37.49183],[-121.91691,37.49212],[-121.94934,37.49286],[-121.97873,37.49379],[-121.99113,37.49597],[-122.02625,37.50712],[-122.0869,37.5269],[-122.11667,37.53647],[-122.12382,37.53878],[-122.14159,37.54452],[-122.16621,37.55254],[-122.18391,37.55826],[-122.21739,37.56908],[-122.2527,37.58034],[-122.26761,37.58493],[-122.30146,37.59475],[-122.31326,37.5983],[-122.34642,37.60914],[-122.35351,37.61201]],"type":"LineString"}
}
