{
  "id": 2014686381,
  "type": "Feature",
  "properties": {
    "geom:area": 0,
    "geom:bbox": "-123.498830,37.628080,-122.397000,38.275390",
    "geom:latitude": 37.94554277566318,
    "geom:longitude": -122.95115720848699,
    "src:alt_label": "swim-takeoff",
    "src:geom": "swim",
    "swim:elevations": [
      152,
      604,
      877,
      1066,
      1138,
      1198,
      1469,
      1691,
      2265,
      2538,
      3072,
      3253,
      3351,
      3386,
      3711,
      3953,
      4360,
      4613,
      4762,
      5088,
      5341,
      5753,
      5920,
      6156,
      6251
    ],
    "swim:geom": "takeoff",
    "swim:timestamps": [
      1769856349,
      1769856388,
      1769856417,
      1769856437,
      1769856453,
      1769856465,
      1769856496,
      1769856517,
      1769856558,
      1769856580,
      1769856618,
      1769856641,
      1769856679,
      1769856690,
      1769856731,
      1769856756,
      1769856794,
      1769856821,
      1769856840,
      1769856876,
      1769856903,
      1769856953,
      1769856976,
      1769857011,
      1769857020
    ],
    "wof:geomhash": "42af1ca2d86edc5a29b6596ad3060184",
    "wof:id": 2014686381,
    "wof:repo": "sfomuseum-data-flights-2026-01"
  },
  "bbox": [
    -123.49883,
    37.62808,
    -122.397,
    38.27539
  ],
  "geometry": {"coordinates":[[-122.397,37.62808],[-122.43616,37.64545],[-122.46604,37.65851],[-122.48764,37.668],[-122.50591,37.6765],[-122.51998,37.68435],[-122.55873,37.70774],[-122.58752,37.72451],[-122.64416,37.75774],[-122.67388,37.7751],[-122.72865,37.8075],[-122.7606,37.82759],[-122.82039,37.86423],[-122.83934,37.87605],[-122.91431,37.92279],[-122.96166,37.95118],[-123.03375,37.99502],[-123.08765,38.02752],[-123.12425,38.04965],[-123.19639,38.09361],[-123.25254,38.12788],[-123.35784,38.19174],[-123.40489,38.22014],[-123.47841,38.26412],[-123.49883,38.27539]],"type":"LineString"}
}
