{
  "id": 2014684729,
  "type": "Feature",
  "properties": {
    "geom:area": 0,
    "geom:bbox": "-122.354170,37.642350,-121.242410,38.125700",
    "geom:latitude": 37.89798980657977,
    "geom:longitude": -121.80467530999117,
    "src:alt_label": "swim-takeoff",
    "src:geom": "swim",
    "swim:elevations": [
      498,
      688,
      710,
      753,
      1426,
      1489,
      2070,
      2680,
      2987,
      3235,
      3393,
      3675,
      4210,
      4470,
      4799,
      5083,
      5577,
      5740,
      6209,
      6406,
      6629,
      6974
    ],
    "swim:geom": "takeoff",
    "swim:timestamps": [
      1769861184,
      1769861214,
      1769861217,
      1769861222,
      1769861277,
      1769861281,
      1769861317,
      1769861357,
      1769861380,
      1769861409,
      1769861433,
      1769861473,
      1769861517,
      1769861541,
      1769861567,
      1769861588,
      1769861633,
      1769861648,
      1769861697,
      1769861723,
      1769861751,
      1769861788
    ],
    "wof:geomhash": "1bdc72db93042af4dce0a030d9628849",
    "wof:id": 2014684729,
    "wof:repo": "sfomuseum-data-flights-2026-01"
  },
  "bbox": [
    -122.35417,
    37.64235,
    -121.24241,
    38.1257
  ],
  "geometry": {"coordinates":[[-122.35417,37.64235],[-122.32791,37.6562],[-122.32474,37.65802],[-122.31954,37.66105],[-122.2541,37.69733],[-122.249,37.70011],[-122.20104,37.72449],[-122.14659,37.75302],[-122.11332,37.77003],[-122.06863,37.79328],[-122.02857,37.81378],[-121.95268,37.84715],[-121.86067,37.88355],[-121.8082,37.9043],[-121.75124,37.92671],[-121.70582,37.94445],[-121.6055,37.98421],[-121.57149,37.99749],[-121.46003,38.04115],[-121.39946,38.06473],[-121.33269,38.09063],[-121.24241,38.1257]],"type":"LineString"}
}
