{
  "id": 2014685873,
  "type": "Feature",
  "properties": {
    "geom:area": 0,
    "geom:bbox": "-122.447090,36.922080,-121.250800,37.709330",
    "geom:latitude": 37.28491946031419,
    "geom:longitude": -121.95207549847508,
    "src:alt_label": "swim-takeoff",
    "src:geom": "swim",
    "swim:elevations": [
      477,
      744,
      908,
      1193,
      1345,
      1587,
      1683,
      2124,
      3147,
      3454,
      3741,
      3827,
      3983,
      4249,
      4903,
      5080,
      5255,
      5551,
      5768,
      5907,
      6162,
      6495,
      6749,
      7065,
      7374,
      7463,
      7668,
      7738,
      7832,
      8075,
      8326,
      8488,
      8615,
      8740,
      8839
    ],
    "swim:geom": "takeoff",
    "swim:timestamps": [
      1769900338,
      1769900362,
      1769900377,
      1769900404,
      1769900427,
      1769900453,
      1769900461,
      1769900490,
      1769900548,
      1769900576,
      1769900603,
      1769900612,
      1769900633,
      1769900654,
      1769900698,
      1769900713,
      1769900737,
      1769900778,
      1769900799,
      1769900811,
      1769900835,
      1769900873,
      1769900900,
      1769900936,
      1769900966,
      1769900977,
      1769900998,
      1769901004,
      1769901022,
      1769901058,
      1769901087,
      1769901115,
      1769901139,
      1769901160,
      1769901185
    ],
    "wof:geomhash": "38fef77ee0e2bcfaf547d448b419d883",
    "wof:id": 2014685873,
    "wof:repo": "sfomuseum-data-flights-2026-01"
  },
  "bbox": [
    -122.44709,
    36.92208,
    -121.2508,
    37.70933
  ],
  "geometry": {"coordinates":[[-122.35794,37.64201],[-122.35993,37.6603],[-122.36178,37.67301],[-122.36455,37.69662],[-122.38728,37.70933],[-122.41785,37.69764],[-122.42353,37.68813],[-122.42915,37.65329],[-122.44709,37.58564],[-122.44627,37.55024],[-122.41738,37.52126],[-122.40444,37.51293],[-122.37349,37.49185],[-122.34134,37.46991],[-122.27445,37.42416],[-122.25122,37.40845],[-122.2138,37.382],[-122.14353,37.3343],[-122.10396,37.31254],[-122.0799,37.30117],[-122.03087,37.27904],[-121.95177,37.24328],[-121.89415,37.21714],[-121.8174,37.18229],[-121.75229,37.15265],[-121.72858,37.14185],[-121.68359,37.12121],[-121.67059,37.11518],[-121.63079,37.09698],[-121.54829,37.05955],[-121.48377,37.02939],[-121.41702,36.99904],[-121.36051,36.97293],[-121.31043,36.94973],[-121.2508,36.92208]],"type":"LineString"}
}
