{
  "id": 2014681173,
  "type": "Feature",
  "properties": {
    "geom:area": 0,
    "geom:bbox": "-122.359940,36.735560,-121.888250,37.611970",
    "geom:latitude": 37.2264922728877,
    "geom:longitude": -122.07045985535353,
    "src:alt_label": "swim-approach",
    "src:geom": "swim",
    "swim:elevations": [
      4880,
      4708,
      4635,
      4186,
      4099,
      4006,
      3810,
      3535,
      3234,
      3173,
      2987,
      2854,
      2634,
      2476,
      2438,
      2345,
      2054,
      1885,
      1768,
      1588,
      1430,
      1278,
      1216,
      1049,
      809,
      602,
      581,
      517,
      390,
      241,
      156,
      37,
      0
    ],
    "swim:geom": "approach",
    "swim:timestamps": [
      1769879326,
      1769879363,
      1769879370,
      1769879412,
      1769879421,
      1769879433,
      1769879461,
      1769879500,
      1769879548,
      1769879560,
      1769879604,
      1769879620,
      1769879654,
      1769879678,
      1769879726,
      1769879745,
      1769879781,
      1769879813,
      1769879830,
      1769879860,
      1769879884,
      1769879911,
      1769879933,
      1769879961,
      1769879986,
      1769880025,
      1769880037,
      1769880088,
      1769880117,
      1769880148,
      1769880173,
      1769880208,
      1769880213
    ],
    "wof:geomhash": "b6306367fc06721afc23009ec417dc18",
    "wof:id": 2014681173,
    "wof:repo": "sfomuseum-data-flights-2026-01"
  },
  "bbox": [
    -122.35994,
    36.73556,
    -121.88825,
    37.61197
  ],
  "geometry": {"coordinates":[[-121.88825,36.73556],[-121.90869,36.79513],[-121.91175,36.80582],[-121.92953,36.86825],[-121.93324,36.88108],[-121.938,36.89784],[-121.94986,36.93976],[-121.97,36.99449],[-121.9938,37.05631],[-121.99952,37.071],[-122.02128,37.12652],[-122.02901,37.14622],[-122.04553,37.18843],[-122.05695,37.21779],[-122.07978,37.27585],[-122.088,37.29666],[-122.10402,37.33754],[-122.11474,37.37193],[-122.11037,37.39171],[-122.10023,37.42401],[-122.09555,37.45008],[-122.11198,37.47551],[-122.12892,37.49456],[-122.14919,37.51631],[-122.17011,37.53117],[-122.20787,37.54783],[-122.2194,37.55275],[-122.26682,37.5725],[-122.28958,37.58229],[-122.31296,37.59233],[-122.33076,37.59988],[-122.35588,37.61063],[-122.35994,37.61197]],"type":"LineString"}
}
