{
  "id": 2014681177,
  "type": "Feature",
  "properties": {
    "geom:area": 0,
    "geom:bbox": "-122.353050,37.491560,-121.244590,37.611800",
    "geom:latitude": 37.54659991466001,
    "geom:longitude": -121.8036271958957,
    "src:alt_label": "swim-approach",
    "src:geom": "swim",
    "swim:elevations": [
      4806,
      4596,
      4360,
      3896,
      3644,
      3615,
      3324,
      3260,
      3084,
      3016,
      2778,
      2633,
      2495,
      2273,
      2058,
      1978,
      1848,
      1829,
      1375,
      1334,
      1103,
      970,
      743,
      547,
      405,
      346,
      233,
      37
    ],
    "swim:geom": "approach",
    "swim:timestamps": [
      1769865137,
      1769865161,
      1769865186,
      1769865235,
      1769865262,
      1769865265,
      1769865294,
      1769865305,
      1769865358,
      1769865371,
      1769865405,
      1769865426,
      1769865455,
      1769865498,
      1769865532,
      1769865552,
      1769865580,
      1769865600,
      1769865657,
      1769865668,
      1769865701,
      1769865721,
      1769865763,
      1769865801,
      1769865830,
      1769865843,
      1769865873,
      1769865923
    ],
    "wof:geomhash": "b28070ea0ab81ad3895c40b1297480a6",
    "wof:id": 2014681177,
    "wof:repo": "sfomuseum-data-flights-2026-01"
  },
  "bbox": [
    -122.35305,
    37.49156,
    -121.24459,
    37.6118
  ],
  "geometry": {"coordinates":[[-121.24459,37.59526],[-121.29341,37.58878],[-121.34121,37.58362],[-121.43254,37.57355],[-121.48284,37.56749],[-121.48832,37.56686],[-121.5408,37.5606],[-121.56097,37.55825],[-121.6481,37.54525],[-121.66748,37.54047],[-121.71834,37.52839],[-121.74977,37.52101],[-121.79312,37.51052],[-121.85427,37.4959],[-121.90485,37.49156],[-121.93453,37.4924],[-121.97819,37.49368],[-122.00635,37.50073],[-122.0801,37.52432],[-122.09331,37.52861],[-122.13663,37.54282],[-122.16092,37.55067],[-122.2115,37.5671],[-122.25189,37.58006],[-122.27914,37.58832],[-122.29017,37.5915],[-122.31477,37.59888],[-122.35305,37.6118]],"type":"LineString"}
}
