{
  "id": 2014681715,
  "type": "Feature",
  "properties": {
    "geom:area": 0,
    "geom:bbox": "-122.353540,37.490930,-121.260960,37.611900",
    "geom:latitude": 37.54584061482109,
    "geom:longitude": -121.8120299385567,
    "src:alt_label": "swim-approach",
    "src:geom": "swim",
    "swim:elevations": [
      4966,
      4791,
      4287,
      4082,
      3840,
      3629,
      3530,
      3304,
      3235,
      2849,
      2800,
      2662,
      2531,
      2350,
      2176,
      2095,
      1830,
      1828,
      1801,
      1531,
      1442,
      1132,
      1058,
      796,
      761,
      635,
      473,
      378,
      305,
      281,
      268,
      143,
      48
    ],
    "swim:geom": "approach",
    "swim:timestamps": [
      1769853556,
      1769853570,
      1769853620,
      1769853640,
      1769853664,
      1769853685,
      1769853696,
      1769853745,
      1769853756,
      1769853804,
      1769853810,
      1769853827,
      1769853864,
      1769853891,
      1769853916,
      1769853932,
      1769853987,
      1769853991,
      1769854005,
      1769854043,
      1769854055,
      1769854108,
      1769854123,
      1769854163,
      1769854180,
      1769854216,
      1769854248,
      1769854266,
      1769854281,
      1769854285,
      1769854290,
      1769854326,
      1769854353
    ],
    "wof:geomhash": "08b0e22ba09b08f5c37f647dca2def47",
    "wof:id": 2014681715,
    "wof:repo": "sfomuseum-data-flights-2026-01"
  },
  "bbox": [
    -122.35354,
    37.49093,
    -121.26096,
    37.6119
  ],
  "geometry": {"coordinates":[[-121.26096,37.59287],[-121.29073,37.58899],[-121.3901,37.57795],[-121.4283,37.57371],[-121.47145,37.56877],[-121.51023,37.56402],[-121.53214,37.56139],[-121.61633,37.55163],[-121.63317,37.54885],[-121.70721,37.53099],[-121.71604,37.52893],[-121.74178,37.52285],[-121.79353,37.51044],[-121.83267,37.50101],[-121.86648,37.49289],[-121.8896,37.49093],[-121.97279,37.49345],[-121.9774,37.49361],[-121.99643,37.49731],[-122.04319,37.51249],[-122.05776,37.51728],[-122.11915,37.53725],[-122.136,37.54263],[-122.17982,37.55693],[-122.19732,37.56261],[-122.23731,37.57546],[-122.27076,37.58594],[-122.28736,37.59066],[-122.30015,37.59446],[-122.30348,37.59549],[-122.30766,37.5968],[-122.33453,37.60478],[-122.35354,37.6119]],"type":"LineString"}
}
