{
  "id": 2014683699,
  "type": "Feature",
  "properties": {
    "geom:area": 0,
    "geom:bbox": "-122.527320,37.627310,-122.017210,38.481540",
    "geom:latitude": 38.02688032390764,
    "geom:longitude": -122.30487115329547,
    "src:alt_label": "swim-takeoff",
    "src:geom": "swim",
    "swim:elevations": [
      152,
      558,
      800,
      922,
      1087,
      1520,
      1771,
      2224,
      2381,
      3029,
      3201,
      3263,
      3481,
      3709,
      4220,
      4408,
      4798,
      5297,
      5415,
      5747,
      6055,
      6196
    ],
    "swim:geom": "takeoff",
    "swim:timestamps": [
      1769881151,
      1769881182,
      1769881226,
      1769881248,
      1769881264,
      1769881310,
      1769881332,
      1769881371,
      1769881383,
      1769881438,
      1769881460,
      1769881476,
      1769881510,
      1769881534,
      1769881579,
      1769881596,
      1769881628,
      1769881674,
      1769881692,
      1769881727,
      1769881761,
      1769881777
    ],
    "wof:geomhash": "49c21a9c9e950b6ddc577a9ceb1cfbcb",
    "wof:id": 2014683699,
    "wof:repo": "sfomuseum-data-flights-2026-01"
  },
  "bbox": [
    -122.52732,
    37.62731,
    -122.01721,
    38.48154
  ],
  "geometry": {"coordinates":[[-122.39567,37.62731],[-122.42702,37.64045],[-122.47622,37.66168],[-122.50455,37.67415],[-122.52065,37.68956],[-122.52732,37.74906],[-122.52696,37.77932],[-122.4821,37.82134],[-122.46304,37.82796],[-122.40004,37.89038],[-122.37947,37.9219],[-122.36506,37.94559],[-122.3312,37.99853],[-122.30524,38.03769],[-122.2548,38.11289],[-122.23411,38.14323],[-122.1957,38.19965],[-122.14053,38.28359],[-122.1195,38.31759],[-122.07823,38.38447],[-122.0373,38.45004],[-122.01721,38.48154]],"type":"LineString"}
}
