{
  "id": 2014684207,
  "type": "Feature",
  "properties": {
    "geom:area": 0,
    "geom:bbox": "-122.554610,36.742890,-122.275200,37.717760",
    "geom:latitude": 37.25361114596691,
    "geom:longitude": -122.4628812433771,
    "src:alt_label": "swim-takeoff",
    "src:geom": "swim",
    "swim:elevations": [
      152,
      293,
      719,
      783,
      978,
      1297,
      1927,
      2498,
      2931,
      3346,
      3679,
      3842,
      4184,
      4628,
      5024,
      5468,
      6016,
      6265,
      6761,
      6976,
      7334,
      7444,
      7612,
      7885,
      8126,
      8352,
      8547,
      8707,
      8782
    ],
    "swim:geom": "takeoff",
    "swim:timestamps": [
      1769855066,
      1769855076,
      1769855126,
      1769855136,
      1769855154,
      1769855176,
      1769855210,
      1769855243,
      1769855269,
      1769855308,
      1769855335,
      1769855347,
      1769855370,
      1769855400,
      1769855431,
      1769855473,
      1769855513,
      1769855530,
      1769855571,
      1769855592,
      1769855629,
      1769855641,
      1769855660,
      1769855693,
      1769855717,
      1769855755,
      1769855784,
      1769855813,
      1769855821
    ],
    "wof:geomhash": "92fb1b6ecbef8a6825af6ad10f73110f",
    "wof:id": 2014684207,
    "wof:repo": "sfomuseum-data-flights-2026-01"
  },
  "bbox": [
    -122.55461,
    36.74289,
    -122.2752,
    37.71776
  ],
  "geometry": {"coordinates":[[-122.36861,37.62961],[-122.36487,37.63635],[-122.36133,37.6798],[-122.36198,37.69021],[-122.3756,37.7086],[-122.40656,37.71776],[-122.45225,37.69736],[-122.46452,37.65711],[-122.46898,37.62458],[-122.4764,37.5729],[-122.48295,37.53245],[-122.48573,37.51431],[-122.49124,37.47777],[-122.49859,37.42999],[-122.50637,37.38056],[-122.51747,37.3087],[-122.52785,37.24144],[-122.5325,37.21158],[-122.54319,37.14232],[-122.54894,37.10479],[-122.55461,37.03874],[-122.54728,37.01925],[-122.52319,36.98927],[-122.47382,36.9407],[-122.43752,36.90431],[-122.38016,36.84749],[-122.33382,36.80131],[-122.28876,36.75653],[-122.2752,36.74289]],"type":"LineString"}
}
