{
  "id": 2014684757,
  "type": "Feature",
  "properties": {
    "geom:area": 0,
    "geom:bbox": "-122.386680,37.631390,-121.436770,38.513240",
    "geom:latitude": 38.12056407770437,
    "geom:longitude": -122.01498598131322,
    "src:alt_label": "swim-takeoff",
    "src:geom": "swim",
    "swim:elevations": [
      244,
      414,
      580,
      657,
      867,
      1125,
      1546,
      1528,
      1555,
      1581,
      2530,
      2665,
      2988,
      3177,
      3349,
      3776,
      3851,
      4532,
      4660,
      5101,
      5325,
      5425,
      5942,
      6225,
      6645,
      6868,
      7024,
      7205,
      7385,
      7729,
      7986
    ],
    "swim:geom": "takeoff",
    "swim:timestamps": [
      1769902678,
      1769902689,
      1769902704,
      1769902719,
      1769902743,
      1769902761,
      1769902797,
      1769902827,
      1769902839,
      1769902860,
      1769902918,
      1769902927,
      1769902948,
      1769902965,
      1769902980,
      1769903036,
      1769903042,
      1769903098,
      1769903107,
      1769903131,
      1769903149,
      1769903164,
      1769903211,
      1769903235,
      1769903274,
      1769903295,
      1769903310,
      1769903325,
      1769903352,
      1769903388,
      1769903416
    ],
    "wof:geomhash": "49e19539951223c7a7c372336ca6e2b3",
    "wof:id": 2014684757,
    "wof:repo": "sfomuseum-data-flights-2026-01"
  },
  "bbox": [
    -122.38668,
    37.63139,
    -121.43677,
    38.51324
  ],
  "geometry": {"coordinates":[[-122.36439,37.63139],[-122.35887,37.63807],[-122.34992,37.64672],[-122.33816,37.65634],[-122.31837,37.67436],[-122.30969,37.69291],[-122.32542,37.73088],[-122.34714,37.76508],[-122.35446,37.7792],[-122.36678,37.80449],[-122.38668,37.8776],[-122.38603,37.88998],[-122.38132,37.91966],[-122.37074,37.94284],[-122.35289,37.96176],[-122.25783,38.01955],[-122.24634,38.02584],[-122.13641,38.09133],[-122.11839,38.10256],[-122.07063,38.13252],[-122.03482,38.15485],[-122.00336,38.17338],[-121.90228,38.23264],[-121.84992,38.26394],[-121.764,38.31562],[-121.71673,38.34409],[-121.68275,38.3646],[-121.6485,38.38518],[-121.58685,38.42228],[-121.50181,38.47312],[-121.43677,38.51324]],"type":"LineString"}
}
