{
  "id": 2014682529,
  "type": "Feature",
  "properties": {
    "geom:area": 0,
    "geom:bbox": "-122.360360,37.491550,-121.264910,37.615340",
    "geom:latitude": 37.54634008640745,
    "geom:longitude": -121.81768424370465,
    "src:alt_label": "swim-approach",
    "src:geom": "swim",
    "swim:elevations": [
      4873,
      4706,
      4542,
      4162,
      4040,
      3943,
      3497,
      3435,
      3170,
      3075,
      2845,
      2631,
      2590,
      2365,
      2137,
      2010,
      1894,
      1763,
      1616,
      1541,
      1385,
      957,
      826,
      767,
      640,
      601,
      522,
      446,
      321,
      287,
      146,
      65,
      328
    ],
    "swim:geom": "approach",
    "swim:timestamps": [
      1769899760,
      1769899775,
      1769899790,
      1769899826,
      1769899838,
      1769899847,
      1769899888,
      1769899894,
      1769899944,
      1769899967,
      1769900008,
      1769900037,
      1769900043,
      1769900084,
      1769900126,
      1769900158,
      1769900173,
      1769900213,
      1769900233,
      1769900262,
      1769900287,
      1769900334,
      1769900356,
      1769900365,
      1769900395,
      1769900407,
      1769900423,
      1769900453,
      1769900486,
      1769900501,
      1769900545,
      1769900565,
      1769900585
    ],
    "wof:geomhash": "61d3400d0d97b06a35a8cb4bd95ab277",
    "wof:id": 2014682529,
    "wof:repo": "sfomuseum-data-flights-2026-01"
  },
  "bbox": [
    -122.36036,
    37.49155,
    -121.26491,
    37.61534
  ],
  "geometry": {"coordinates":[[-121.26491,37.59238],[-121.29411,37.58871],[-121.32312,37.58549],[-121.39207,37.57796],[-121.41479,37.57541],[-121.43179,37.57349],[-121.50944,37.56435],[-121.52053,37.56309],[-121.60867,37.55263],[-121.64661,37.5456],[-121.70897,37.53073],[-121.75455,37.51969],[-121.76411,37.51739],[-121.82684,37.50244],[-121.88947,37.49155],[-121.93568,37.49227],[-121.9567,37.4929],[-122.01098,37.50217],[-122.03626,37.51033],[-122.0724,37.5222],[-122.1007,37.53141],[-122.15473,37.54886],[-122.17723,37.55615],[-122.18621,37.55911],[-122.21601,37.56855],[-122.22772,37.57231],[-122.24376,37.57748],[-122.27071,37.58598],[-122.29676,37.59212],[-122.30709,37.59472],[-122.33601,37.60459],[-122.34855,37.60989],[-122.36036,37.61534]],"type":"LineString"}
}
