{
  "id": 2014682057,
  "type": "Feature",
  "properties": {
    "geom:area": 0,
    "geom:bbox": "-122.363760,36.722710,-121.878490,37.612450",
    "geom:latitude": 37.213705103307696,
    "geom:longitude": -122.07134883956181,
    "src:alt_label": "swim-approach",
    "src:geom": "swim",
    "swim:elevations": [
      5102,
      4965,
      4650,
      4582,
      4113,
      3907,
      3749,
      3522,
      3361,
      3222,
      3115,
      3049,
      2867,
      2530,
      2387,
      2290,
      2195,
      1904,
      1682,
      1530,
      1371,
      1202,
      1007,
      913,
      730,
      607,
      510,
      356,
      219,
      82,
      224
    ],
    "swim:geom": "approach",
    "swim:timestamps": [
      1769888140,
      1769888155,
      1769888188,
      1769888197,
      1769888248,
      1769888272,
      1769888290,
      1769888317,
      1769888335,
      1769888353,
      1769888374,
      1769888401,
      1769888434,
      1769888482,
      1769888513,
      1769888525,
      1769888537,
      1769888573,
      1769888604,
      1769888629,
      1769888661,
      1769888686,
      1769888726,
      1769888742,
      1769888779,
      1769888804,
      1769888828,
      1769888869,
      1769888900,
      1769888938,
      1769888960
    ],
    "wof:geomhash": "74cc1309cc236c65108400d4e4c0d157",
    "wof:id": 2014682057,
    "wof:repo": "sfomuseum-data-flights-2026-01"
  },
  "bbox": [
    -122.36376,
    36.72271,
    -121.87849,
    37.61245
  ],
  "geometry": {"coordinates":[[-121.87849,36.72271],[-121.89253,36.74717],[-121.9112,36.80384],[-121.91563,36.8193],[-121.93965,36.9048],[-121.95066,36.94411],[-121.96075,36.97184],[-121.97738,37.01412],[-121.98793,37.04148],[-121.99842,37.06849],[-122.01027,37.09947],[-122.02499,37.13706],[-122.0422,37.18024],[-122.06792,37.24515],[-122.08313,37.28524],[-122.08896,37.30069],[-122.09504,37.31607],[-122.11399,37.36252],[-122.12832,37.40113],[-122.13817,37.43071],[-122.14943,37.46461],[-122.15714,37.48846],[-122.17031,37.52518],[-122.18088,37.53677],[-122.21603,37.55204],[-122.23963,37.56194],[-122.25973,37.57026],[-122.29268,37.58415],[-122.31658,37.59418],[-122.34603,37.60646],[-122.36376,37.61245]],"type":"LineString"}
}
