{
  "id": 2014684715,
  "type": "Feature",
  "properties": {
    "geom:area": 0,
    "geom:bbox": "-122.353790,37.639630,-121.480810,38.516420",
    "geom:latitude": 38.062866053231,
    "geom:longitude": -121.90523068694343,
    "src:alt_label": "swim-takeoff",
    "src:geom": "swim",
    "swim:elevations": [
      450,
      513,
      689,
      933,
      1031,
      1241,
      1763,
      2298,
      2394,
      2986,
      3032,
      3279,
      3535,
      3668,
      3799,
      4226,
      4283,
      4773,
      4896,
      5272,
      5470,
      5727,
      5897,
      6113,
      6275
    ],
    "swim:geom": "takeoff",
    "swim:timestamps": [
      1769864247,
      1769864257,
      1769864297,
      1769864327,
      1769864344,
      1769864372,
      1769864413,
      1769864455,
      1769864463,
      1769864517,
      1769864521,
      1769864562,
      1769864606,
      1769864634,
      1769864647,
      1769864692,
      1769864700,
      1769864750,
      1769864762,
      1769864801,
      1769864833,
      1769864866,
      1769864886,
      1769864921,
      1769864945
    ],
    "wof:geomhash": "017b3ecfe35cea17bba6097e60ba840a",
    "wof:id": 2014684715,
    "wof:repo": "sfomuseum-data-flights-2026-01"
  },
  "bbox": [
    -122.35379,
    37.63963,
    -121.48081,
    38.51642
  ],
  "geometry": {"coordinates":[[-122.35379,37.63963],[-122.34671,37.64396],[-122.31225,37.66454],[-122.28275,37.68195],[-122.26392,37.6931],[-122.2297,37.71095],[-122.18691,37.75013],[-122.14583,37.79453],[-122.13836,37.80258],[-122.08299,37.8633],[-122.07878,37.86785],[-122.03399,37.9171],[-121.9801,37.97766],[-121.9431,38.01733],[-121.9252,38.03686],[-121.86335,38.10496],[-121.85146,38.1177],[-121.77977,38.19618],[-121.76093,38.21673],[-121.70479,38.2778],[-121.65652,38.33018],[-121.6067,38.38411],[-121.57556,38.4172],[-121.52091,38.47512],[-121.48081,38.51642]],"type":"LineString"}
}
