{
  "id": 2014682539,
  "type": "Feature",
  "properties": {
    "geom:area": 0,
    "geom:bbox": "-122.359660,36.727720,-121.882210,37.614250",
    "geom:latitude": 37.220147779997134,
    "geom:longitude": -122.07192119513672,
    "src:alt_label": "swim-approach",
    "src:geom": "swim",
    "swim:elevations": [
      5418,
      5335,
      4990,
      4854,
      4661,
      4370,
      4012,
      3700,
      3449,
      3387,
      3107,
      3077,
      2972,
      2686,
      2446,
      2227,
      2095,
      1898,
      1727,
      1562,
      1323,
      1255,
      925,
      885,
      630,
      536,
      403,
      212,
      181,
      74,
      252
    ],
    "swim:geom": "approach",
    "swim:timestamps": [
      1769847519,
      1769847526,
      1769847555,
      1769847568,
      1769847587,
      1769847617,
      1769847653,
      1769847688,
      1769847712,
      1769847722,
      1769847772,
      1769847783,
      1769847812,
      1769847857,
      1769847890,
      1769847924,
      1769847942,
      1769847967,
      1769847998,
      1769848032,
      1769848074,
      1769848083,
      1769848136,
      1769848142,
      1769848190,
      1769848207,
      1769848235,
      1769848284,
      1769848293,
      1769848317,
      1769848334
    ],
    "wof:geomhash": "29dd0c2f52dc1d49a93b074885a7b534",
    "wof:id": 2014682539,
    "wof:repo": "sfomuseum-data-flights-2026-01"
  },
  "bbox": [
    -122.35966,
    36.72772,
    -121.88221,
    37.61425
  ],
  "geometry": {"coordinates":[[-121.88221,36.72772],[-121.88933,36.74014],[-121.90658,36.78669],[-121.91285,36.80963],[-121.92153,36.84037],[-121.93508,36.88889],[-121.95164,36.94657],[-121.97283,37.00181],[-121.98685,37.03878],[-121.99222,37.05252],[-122.02105,37.12643],[-122.02676,37.14082],[-122.04122,37.17734],[-122.06257,37.23184],[-122.07834,37.27251],[-122.09396,37.31262],[-122.10261,37.33432],[-122.11475,37.36463],[-122.12821,37.40186],[-122.14146,37.44144],[-122.1569,37.48805],[-122.15989,37.49734],[-122.1787,37.55195],[-122.18342,37.55732],[-122.23886,37.57584],[-122.25621,37.58158],[-122.28202,37.58928],[-122.322,37.60093],[-122.32917,37.60313],[-122.34817,37.60988],[-122.35966,37.61425]],"type":"LineString"}
}
