{
  "id": 2014682077,
  "type": "Feature",
  "properties": {
    "geom:area": 0,
    "geom:bbox": "-122.343890,36.723500,-121.879450,37.605760",
    "geom:latitude": 37.206298949628945,
    "geom:longitude": -122.06600292067874,
    "src:alt_label": "swim-approach",
    "src:geom": "swim",
    "swim:elevations": [
      5423,
      5095,
      4710,
      4545,
      4106,
      3807,
      3692,
      3557,
      3353,
      3303,
      2987,
      2800,
      2632,
      2476,
      2159,
      2069,
      1871,
      1770,
      1600,
      1258,
      1126,
      1051,
      789,
      535,
      359,
      343,
      126,
      60
    ],
    "swim:geom": "approach",
    "swim:timestamps": [
      1769852315,
      1769852344,
      1769852382,
      1769852401,
      1769852445,
      1769852474,
      1769852486,
      1769852510,
      1769852548,
      1769852556,
      1769852608,
      1769852632,
      1769852659,
      1769852685,
      1769852726,
      1769852740,
      1769852786,
      1769852803,
      1769852828,
      1769852876,
      1769852908,
      1769852921,
      1769852958,
      1769852995,
      1769853025,
      1769853042,
      1769853083,
      1769853097
    ],
    "wof:geomhash": "9c846f53cfc37fe9c298c6f9df29a23a",
    "wof:id": 2014682077,
    "wof:repo": "sfomuseum-data-flights-2026-01"
  },
  "bbox": [
    -122.34389,
    36.7235,
    -121.87945,
    37.60576
  ],
  "geometry": {"coordinates":[[-121.87945,36.7235],[-121.90207,36.77047],[-121.91981,36.83371],[-121.92811,36.86375],[-121.94808,36.93503],[-121.96453,36.98079],[-121.97201,36.99959],[-121.98589,37.03589],[-122.00671,37.08993],[-122.01095,37.10059],[-122.03824,37.16982],[-122.05077,37.20182],[-122.06389,37.23579],[-122.07666,37.26798],[-122.09657,37.31913],[-122.10337,37.33616],[-122.12484,37.39161],[-122.13127,37.41092],[-122.14076,37.43944],[-122.15877,37.4915],[-122.16977,37.52281],[-122.17734,37.53463],[-122.21629,37.55197],[-122.25749,37.56938],[-122.28663,37.58155],[-122.30202,37.58798],[-122.33368,37.6014],[-122.34389,37.60576]],"type":"LineString"}
}
