{
  "id": 2014681249,
  "type": "Feature",
  "properties": {
    "geom:area": 0,
    "geom:bbox": "-122.758540,37.562060,-122.128240,38.432610",
    "geom:latitude": 37.876505057794354,
    "geom:longitude": -122.49829433304454,
    "src:alt_label": "swim-approach",
    "src:geom": "swim",
    "swim:elevations": [
      7437,
      7105,
      6872,
      6640,
      6086,
      6004,
      5571,
      5304,
      5054,
      4832,
      4605,
      4500,
      4020,
      3966,
      3603,
      3556,
      3460,
      3353,
      3250,
      3036,
      2832,
      2489,
      2298,
      1997,
      1736,
      1480,
      1324,
      1176,
      913,
      903,
      688,
      614,
      491,
      456,
      210,
      123,
      0
    ],
    "swim:geom": "approach",
    "swim:timestamps": [
      1769860277,
      1769860315,
      1769860341,
      1769860369,
      1769860436,
      1769860445,
      1769860495,
      1769860525,
      1769860555,
      1769860583,
      1769860612,
      1769860625,
      1769860676,
      1769860690,
      1769860738,
      1769860744,
      1769860758,
      1769860797,
      1769860824,
      1769860853,
      1769860878,
      1769860918,
      1769860940,
      1769860976,
      1769861004,
      1769861036,
      1769861057,
      1769861078,
      1769861121,
      1769861150,
      1769861188,
      1769861200,
      1769861217,
      1769861222,
      1769861277,
      1769861299,
      1769861328
    ],
    "wof:geomhash": "073a3ee9b5c911ef10a2637c1c1034be",
    "wof:id": 2014681249,
    "wof:repo": "sfomuseum-data-flights-2026-01"
  },
  "bbox": [
    -122.75854,
    37.56206,
    -122.12824,
    38.43261
  ],
  "geometry": {"coordinates":[[-122.62814,38.43261],[-122.66808,38.37315],[-122.69412,38.33431],[-122.72086,38.29433],[-122.75854,38.19523],[-122.75464,38.1802],[-122.7319,38.10204],[-122.71817,38.05471],[-122.70478,38.00873],[-122.69684,37.96602],[-122.68135,37.92419],[-122.67163,37.90369],[-122.61035,37.83823],[-122.59328,37.82266],[-122.53777,37.77086],[-122.531,37.76456],[-122.5146,37.74921],[-122.46751,37.71602],[-122.42796,37.70534],[-122.38675,37.69436],[-122.35356,37.68497],[-122.30065,37.66896],[-122.27211,37.66001],[-122.22726,37.64571],[-122.19317,37.63461],[-122.15546,37.62261],[-122.13257,37.61297],[-122.12824,37.594],[-122.15843,37.56206],[-122.19473,37.56451],[-122.24015,37.57658],[-122.2522,37.58025],[-122.26961,37.58545],[-122.27463,37.58692],[-122.3214,37.60079],[-122.33872,37.60611],[-122.3597,37.61513]],"type":"LineString"}
}
