{
  "id": 2014683215,
  "type": "Feature",
  "properties": {
    "geom:area": 0,
    "geom:bbox": "-122.526870,37.625750,-121.289140,38.398860",
    "geom:latitude": 38.03185374973612,
    "geom:longitude": -121.99179451809894,
    "src:alt_label": "swim-takeoff",
    "src:geom": "swim",
    "swim:elevations": [
      183,
      497,
      591,
      642,
      748,
      875,
      914,
      914,
      1057,
      1461,
      1692,
      2009,
      2253,
      2708,
      2895,
      3068,
      3201,
      3300,
      3482,
      3575,
      3641,
      3840,
      4102,
      4332,
      4479,
      4718,
      4896,
      4954,
      5304,
      5431,
      5600,
      5673
    ],
    "swim:geom": "takeoff",
    "swim:timestamps": [
      1769903486,
      1769903508,
      1769903526,
      1769903544,
      1769903577,
      1769903598,
      1769903637,
      1769903646,
      1769903688,
      1769903728,
      1769903749,
      1769903779,
      1769903806,
      1769903846,
      1769903865,
      1769903880,
      1769903897,
      1769903921,
      1769903967,
      1769903988,
      1769904006,
      1769904047,
      1769904084,
      1769904117,
      1769904138,
      1769904176,
      1769904203,
      1769904210,
      1769904268,
      1769904298,
      1769904322,
      1769904336
    ],
    "wof:geomhash": "378c40d395389a67d51c2dcc0ad8db75",
    "wof:id": 2014683215,
    "wof:repo": "sfomuseum-data-flights-2026-01"
  },
  "bbox": [
    -122.52687,
    37.62575,
    -121.28914,
    38.39886
  ],
  "geometry": {"coordinates":[[-122.39186,37.62575],[-122.40994,37.63378],[-122.42487,37.64046],[-122.44128,37.64778],[-122.47624,37.66263],[-122.50171,37.67393],[-122.52478,37.71446],[-122.52507,37.7254],[-122.52687,37.77637],[-122.49611,37.81613],[-122.46499,37.82673],[-122.4201,37.84395],[-122.38016,37.86327],[-122.31959,37.89262],[-122.29082,37.90662],[-122.2675,37.91791],[-122.24002,37.93116],[-122.2002,37.95026],[-122.11744,37.99013],[-122.07672,38.00968],[-122.04041,38.02713],[-121.95355,38.06881],[-121.87257,38.10746],[-121.7989,38.14267],[-121.75125,38.16543],[-121.66533,38.20611],[-121.60233,38.23593],[-121.58521,38.24402],[-121.44641,38.30949],[-121.37483,38.34574],[-121.32078,38.37919],[-121.28914,38.39886]],"type":"LineString"}
}
