{
  "id": 2014682315,
  "type": "Feature",
  "properties": {
    "geom:area": 0,
    "geom:bbox": "-122.355890,37.491270,-121.253590,37.612970",
    "geom:latitude": 37.54652210541636,
    "geom:longitude": -121.8095840993932,
    "src:alt_label": "swim-approach",
    "src:geom": "swim",
    "swim:elevations": [
      4996,
      4748,
      4422,
      4275,
      4169,
      3562,
      3419,
      3049,
      2845,
      2773,
      2640,
      2430,
      2299,
      2100,
      2022,
      1859,
      1662,
      1482,
      1385,
      1076,
      920,
      871,
      734,
      564,
      446,
      393,
      194,
      63,
      17
    ],
    "swim:geom": "approach",
    "swim:timestamps": [
      1769858476,
      1769858513,
      1769858558,
      1769858573,
      1769858581,
      1769858633,
      1769858645,
      1769858697,
      1769858728,
      1769858739,
      1769858766,
      1769858817,
      1769858841,
      1769858872,
      1769858893,
      1769858933,
      1769858964,
      1769858994,
      1769859008,
      1769859056,
      1769859087,
      1769859095,
      1769859120,
      1769859150,
      1769859176,
      1769859185,
      1769859234,
      1769859266,
      1769859274
    ],
    "wof:geomhash": "04513ccb14fbd99097eb055f2a12f6eb",
    "wof:id": 2014682315,
    "wof:repo": "sfomuseum-data-flights-2026-01"
  },
  "bbox": [
    -122.35589,
    37.49127,
    -121.25359,
    37.61297
  ],
  "geometry": {"coordinates":[[-121.25359,37.5941],[-121.32229,37.5858],[-121.39897,37.57704],[-121.42298,37.57429],[-121.43741,37.57257],[-121.52265,37.56268],[-121.54224,37.56053],[-121.62732,37.55024],[-121.67609,37.53869],[-121.69375,37.5346],[-121.73349,37.52512],[-121.80937,37.50683],[-121.84282,37.49866],[-121.88925,37.49127],[-121.91974,37.49229],[-121.9783,37.49383],[-122.02242,37.50607],[-122.06236,37.51889],[-122.07926,37.52419],[-122.14065,37.54431],[-122.17753,37.55617],[-122.18674,37.55912],[-122.2149,37.5683],[-122.24754,37.57873],[-122.2741,37.58672],[-122.28202,37.58899],[-122.32333,37.60121],[-122.34968,37.61032],[-122.35589,37.61297]],"type":"LineString"}
}
