{
  "id": 2014682813,
  "type": "Feature",
  "properties": {
    "geom:area": 0,
    "geom:bbox": "-123.466820,37.261780,-122.173870,37.606530",
    "geom:latitude": 37.35175764941102,
    "geom:longitude": -122.71843990423828,
    "src:alt_label": "swim-approach",
    "src:geom": "swim",
    "swim:elevations": [
      5265,
      5218,
      4614,
      4555,
      4176,
      3739,
      3370,
      3100,
      3049,
      3048,
      3048,
      3048,
      3048,
      3048,
      2882,
      2667,
      2492,
      2187,
      2029,
      1828,
      1826,
      1652,
      1444,
      1345,
      1203,
      822,
      707,
      575,
      380,
      324,
      242,
      77
    ],
    "swim:geom": "approach",
    "swim:timestamps": [
      1769868928,
      1769868932,
      1769868988,
      1769868996,
      1769869033,
      1769869073,
      1769869108,
      1769869155,
      1769869173,
      1769869224,
      1769869258,
      1769869273,
      1769869315,
      1769869330,
      1769869361,
      1769869394,
      1769869420,
      1769869453,
      1769869470,
      1769869504,
      1769869545,
      1769869570,
      1769869603,
      1769869630,
      1769869655,
      1769869692,
      1769869726,
      1769869754,
      1769869794,
      1769869809,
      1769869832,
      1769869872
    ],
    "wof:geomhash": "0bb0f193bad05cef3cd9d7a066412eac",
    "wof:id": 2014682813,
    "wof:repo": "sfomuseum-data-flights-2026-01"
  },
  "bbox": [
    -123.46682,
    37.26178,
    -122.17387,
    37.60653
  ],
  "geometry": {"coordinates":[[-123.46682,37.30235],[-123.45614,37.30157],[-123.32755,37.29227],[-123.30976,37.29096],[-123.22624,37.28486],[-123.13423,37.27812],[-123.05523,37.27225],[-122.95484,37.26464],[-122.91786,37.26178],[-122.81324,37.26919],[-122.74426,37.28528],[-122.71358,37.29249],[-122.63055,37.31211],[-122.60317,37.31851],[-122.55103,37.3305],[-122.49555,37.34318],[-122.45465,37.35265],[-122.40164,37.36488],[-122.37446,37.37112],[-122.32235,37.38306],[-122.26172,37.39763],[-122.23098,37.41527],[-122.19329,37.43994],[-122.17569,37.46736],[-122.17387,37.49518],[-122.18467,37.53248],[-122.21991,37.55342],[-122.24826,37.56539],[-122.28639,37.58144],[-122.29842,37.58641],[-122.31598,37.59403],[-122.34611,37.60653]],"type":"LineString"}
}
