{
  "id": 2014681225,
  "type": "Feature",
  "properties": {
    "geom:area": 0,
    "geom:bbox": "-122.357400,37.490970,-121.271060,37.613670",
    "geom:latitude": 37.54581148076862,
    "geom:longitude": -121.81903521212853,
    "src:alt_label": "swim-approach",
    "src:geom": "swim",
    "swim:elevations": [
      4738,
      4517,
      4335,
      4220,
      3739,
      3408,
      3240,
      3048,
      2908,
      2742,
      2685,
      2426,
      2140,
      2136,
      2104,
      2047,
      1922,
      1722,
      1481,
      1336,
      1129,
      974,
      824,
      821,
      556,
      440,
      364,
      167,
      61,
      0
    ],
    "swim:geom": "approach",
    "swim:timestamps": [
      1769891215,
      1769891237,
      1769891264,
      1769891285,
      1769891333,
      1769891364,
      1769891381,
      1769891417,
      1769891458,
      1769891482,
      1769891491,
      1769891539,
      1769891576,
      1769891585,
      1769891600,
      1769891612,
      1769891648,
      1769891689,
      1769891728,
      1769891757,
      1769891788,
      1769891818,
      1769891848,
      1769891851,
      1769891904,
      1769891927,
      1769891944,
      1769891996,
      1769892023,
      1769892031
    ],
    "wof:geomhash": "22e176e4836b57940aaa4eda579ff437",
    "wof:id": 2014681225,
    "wof:repo": "sfomuseum-data-flights-2026-01"
  },
  "bbox": [
    -122.3574,
    37.49097,
    -121.27106,
    37.61367
  ],
  "geometry": {"coordinates":[[-121.27106,37.5916],[-121.31372,37.5865],[-121.36496,37.58126],[-121.40245,37.57711],[-121.48397,37.56739],[-121.53604,37.56122],[-121.56396,37.55789],[-121.62371,37.5506],[-121.68689,37.53598],[-121.72222,37.52752],[-121.73547,37.52433],[-121.8057,37.50759],[-121.85851,37.4946],[-121.87161,37.49209],[-121.89305,37.49097],[-121.90974,37.4915],[-121.9578,37.49291],[-122.01031,37.50173],[-122.05744,37.51713],[-122.09155,37.5282],[-122.12775,37.54017],[-122.16094,37.55085],[-122.19275,37.56094],[-122.19591,37.56195],[-122.25102,37.5798],[-122.27187,37.58602],[-122.2867,37.59045],[-122.32941,37.60317],[-122.35119,37.61099],[-122.3574,37.61367]],"type":"LineString"}
}
