{
  "id": 2014682253,
  "type": "Feature",
  "properties": {
    "geom:area": 0,
    "geom:bbox": "-122.351280,37.492310,-121.272010,37.610990",
    "geom:latitude": 37.54539747899151,
    "geom:longitude": -121.81629049242736,
    "src:alt_label": "swim-approach",
    "src:geom": "swim",
    "swim:elevations": [
      4769,
      4675,
      4259,
      3845,
      3712,
      3382,
      3360,
      3297,
      3078,
      2889,
      2777,
      2562,
      2392,
      2171,
      2012,
      1863,
      1826,
      1434,
      1270,
      1066,
      1013,
      913,
      822,
      595,
      522,
      369,
      262,
      178,
      68
    ],
    "swim:geom": "approach",
    "swim:timestamps": [
      1769885934,
      1769885942,
      1769885983,
      1769886027,
      1769886042,
      1769886084,
      1769886091,
      1769886108,
      1769886147,
      1769886172,
      1769886188,
      1769886232,
      1769886260,
      1769886293,
      1769886323,
      1769886355,
      1769886376,
      1769886416,
      1769886438,
      1769886472,
      1769886484,
      1769886516,
      1769886549,
      1769886594,
      1769886610,
      1769886645,
      1769886677,
      1769886700,
      1769886731
    ],
    "wof:geomhash": "8566ca9e1f597e63ed3bade3153293de",
    "wof:id": 2014682253,
    "wof:repo": "sfomuseum-data-flights-2026-01"
  },
  "bbox": [
    -122.35128,
    37.49231,
    -121.27201,
    37.61099
  ],
  "geometry": {"coordinates":[[-121.27201,37.5915],[-121.28611,37.5896],[-121.36378,37.58125],[-121.44453,37.57185],[-121.47155,37.56873],[-121.54619,37.56004],[-121.5578,37.55866],[-121.58677,37.55526],[-121.65012,37.54472],[-121.69071,37.53491],[-121.71456,37.52933],[-121.78043,37.51357],[-121.82143,37.50375],[-121.87009,37.49243],[-121.91529,37.49231],[-121.96211,37.49342],[-121.99144,37.49631],[-122.04366,37.5131],[-122.07226,37.52241],[-122.11428,37.53588],[-122.12849,37.5405],[-122.16546,37.55251],[-122.1997,37.56341],[-122.24415,37.57775],[-122.25916,37.58264],[-122.28876,37.59124],[-122.31214,37.5981],[-122.32972,37.60317],[-122.35128,37.61099]],"type":"LineString"}
}
