{
  "id": 2014682817,
  "type": "Feature",
  "properties": {
    "geom:area": 0,
    "geom:bbox": "-122.758330,37.453180,-122.142250,38.482250",
    "geom:latitude": 37.86647666939082,
    "geom:longitude": -122.49287081387683,
    "src:alt_label": "swim-approach",
    "src:geom": "swim",
    "swim:elevations": [
      8115,
      7864,
      7715,
      7350,
      7077,
      6868,
      6598,
      6284,
      5982,
      5778,
      5405,
      5035,
      4768,
      4473,
      4425,
      3971,
      3868,
      3482,
      3413,
      3353,
      3353,
      3353,
      3353,
      3353,
      3162,
      3013,
      2716,
      2553,
      2349,
      2120,
      1853,
      1543,
      1353,
      1257,
      1166,
      1070,
      886,
      761,
      481,
      405,
      189,
      109,
      44
    ],
    "swim:geom": "approach",
    "swim:timestamps": [
      1769862919,
      1769862946,
      1769862961,
      1769863006,
      1769863038,
      1769863061,
      1769863094,
      1769863129,
      1769863162,
      1769863182,
      1769863224,
      1769863258,
      1769863285,
      1769863317,
      1769863324,
      1769863375,
      1769863383,
      1769863427,
      1769863450,
      1769863489,
      1769863522,
      1769863547,
      1769863563,
      1769863604,
      1769863634,
      1769863653,
      1769863694,
      1769863721,
      1769863750,
      1769863774,
      1769863807,
      1769863858,
      1769863887,
      1769863897,
      1769863911,
      1769863925,
      1769863956,
      1769863980,
      1769864037,
      1769864049,
      1769864098,
      1769864121,
      1769864137
    ],
    "wof:geomhash": "e27b1922056a01e408b1e5555d94c87f",
    "wof:id": 2014682817,
    "wof:repo": "sfomuseum-data-flights-2026-01"
  },
  "bbox": [
    -122.75833,
    37.45318,
    -122.14225,
    38.48225
  ],
  "geometry": {"coordinates":[[-122.50341,38.48225],[-122.54016,38.44643],[-122.56007,38.42692],[-122.61788,38.3704],[-122.65731,38.33195],[-122.68653,38.30353],[-122.72713,38.26402],[-122.75833,38.21542],[-122.75025,38.16345],[-122.74086,38.13146],[-122.72143,38.06698],[-122.70587,38.01326],[-122.69375,37.97122],[-122.68007,37.92367],[-122.6763,37.9134],[-122.62009,37.84908],[-122.61013,37.83969],[-122.55634,37.78931],[-122.5284,37.76298],[-122.48688,37.72366],[-122.45088,37.68965],[-122.42617,37.66661],[-122.41072,37.65201],[-122.37403,37.61735],[-122.35448,37.5886],[-122.34527,37.56982],[-122.32177,37.52885],[-122.30527,37.50291],[-122.28348,37.47715],[-122.2545,37.46635],[-122.21346,37.45318],[-122.15419,37.45786],[-122.14225,37.48726],[-122.14525,37.49818],[-122.15454,37.51022],[-122.1665,37.52278],[-122.19288,37.544],[-122.21878,37.55507],[-122.27663,37.57952],[-122.28675,37.58382],[-122.32519,37.60013],[-122.34285,37.60752],[-122.3544,37.61237]],"type":"LineString"}
}
