{
  "id": 2014682079,
  "type": "Feature",
  "properties": {
    "geom:area": 0,
    "geom:bbox": "-122.358940,36.783430,-121.905760,37.611910",
    "geom:latitude": 37.24001256180326,
    "geom:longitude": -122.08218837207666,
    "src:alt_label": "swim-approach",
    "src:geom": "swim",
    "swim:elevations": [
      4925,
      4640,
      4539,
      4362,
      4257,
      4046,
      3554,
      3265,
      3136,
      3081,
      2590,
      2442,
      2376,
      2219,
      2091,
      1873,
      1832,
      1294,
      991,
      761,
      640,
      535,
      370,
      267,
      109,
      12
    ],
    "swim:geom": "approach",
    "swim:timestamps": [
      1769859537,
      1769859568,
      1769859578,
      1769859597,
      1769859609,
      1769859630,
      1769859685,
      1769859715,
      1769859734,
      1769859753,
      1769859834,
      1769859861,
      1769859895,
      1769859925,
      1769859953,
      1769859984,
      1769859990,
      1769860062,
      1769860101,
      1769860138,
      1769860157,
      1769860181,
      1769860217,
      1769860246,
      1769860288,
      1769860315
    ],
    "wof:geomhash": "172ca20e4ca59affdae144bf510f9696",
    "wof:id": 2014682079,
    "wof:repo": "sfomuseum-data-flights-2026-01"
  },
  "bbox": [
    -122.35894,
    36.78343,
    -121.90576,
    37.61191
  ],
  "geometry": {"coordinates":[[-121.90576,36.78343],[-121.92034,36.83634],[-121.92523,36.85352],[-121.93407,36.88544],[-121.9395,36.90452],[-121.94929,36.93956],[-121.9817,37.02459],[-121.99898,37.06994],[-122.01005,37.09786],[-122.0208,37.12563],[-122.06322,37.23379],[-122.07683,37.2685],[-122.09279,37.30906],[-122.10597,37.34272],[-122.11861,37.37239],[-122.12981,37.40627],[-122.13192,37.41281],[-122.16476,37.48743],[-122.18498,37.52221],[-122.21047,37.54987],[-122.23138,37.55856],[-122.2551,37.56844],[-122.28586,37.58131],[-122.30706,37.59015],[-122.3386,37.60334],[-122.35894,37.61191]],"type":"LineString"}
}
