{
  "id": 2014684215,
  "type": "Feature",
  "properties": {
    "geom:area": 0,
    "geom:bbox": "-122.541700,36.756940,-122.134990,37.726160",
    "geom:latitude": 37.27384035465518,
    "geom:longitude": -122.41798321684442,
    "src:alt_label": "swim-takeoff",
    "src:geom": "swim",
    "swim:elevations": [
      305,
      424,
      519,
      606,
      1019,
      1317,
      1835,
      2048,
      2559,
      3221,
      3442,
      3836,
      3963,
      4221,
      4381,
      4808,
      5263,
      5449,
      5663,
      6151,
      6655,
      6958,
      7244,
      7429,
      7718,
      7761,
      8160,
      8244,
      8532
    ],
    "swim:geom": "takeoff",
    "swim:timestamps": [
      1769858995,
      1769859008,
      1769859022,
      1769859040,
      1769859087,
      1769859106,
      1769859141,
      1769859154,
      1769859185,
      1769859238,
      1769859266,
      1769859296,
      1769859304,
      1769859324,
      1769859337,
      1769859373,
      1769859413,
      1769859435,
      1769859453,
      1769859491,
      1769859537,
      1769859568,
      1769859597,
      1769859619,
      1769859654,
      1769859661,
      1769859715,
      1769859734,
      1769859773
    ],
    "wof:geomhash": "266b94537fd96895ad52d288080bc2c8",
    "wof:id": 2014684215,
    "wof:repo": "sfomuseum-data-flights-2026-01"
  },
  "bbox": [
    -122.5417,
    36.75694,
    -122.13499,
    37.72616
  ],
  "geometry": {"coordinates":[[-122.36603,37.63467],[-122.36481,37.64423],[-122.36413,37.65619],[-122.36284,37.67227],[-122.40245,37.71256],[-122.42944,37.72616],[-122.48053,37.71902],[-122.49329,37.70492],[-122.50449,37.66682],[-122.51006,37.59738],[-122.51455,37.55653],[-122.51847,37.51129],[-122.5195,37.49814],[-122.52232,37.4679],[-122.52441,37.44708],[-122.53005,37.38738],[-122.53588,37.3215],[-122.53914,37.28397],[-122.5417,37.25293],[-122.51662,37.19081],[-122.45675,37.1237],[-122.41628,37.07767],[-122.37727,37.03369],[-122.34899,37.00171],[-122.30133,36.94716],[-122.29264,36.93702],[-122.21777,36.85168],[-122.19138,36.82184],[-122.13499,36.75694]],"type":"LineString"}
}
