{
  "id": 2014686119,
  "type": "Feature",
  "properties": {
    "geom:area": 0,
    "geom:bbox": "-122.378370,37.630720,-121.250020,38.061720",
    "geom:latitude": 37.92633238795128,
    "geom:longitude": -121.92193182470771,
    "src:alt_label": "swim-takeoff",
    "src:geom": "swim",
    "swim:elevations": [
      183,
      516,
      941,
      1124,
      1441,
      1769,
      2301,
      2488,
      2959,
      3404,
      3428,
      3721,
      4051,
      4304,
      4524,
      4671,
      4806,
      5139,
      5519,
      5814,
      6151,
      6398,
      6673,
      6816,
      7068,
      7305,
      7489
    ],
    "swim:geom": "takeoff",
    "swim:timestamps": [
      1769901174,
      1769901197,
      1769901233,
      1769901248,
      1769901288,
      1769901315,
      1769901351,
      1769901365,
      1769901404,
      1769901447,
      1769901450,
      1769901483,
      1769901519,
      1769901543,
      1769901567,
      1769901582,
      1769901592,
      1769901620,
      1769901657,
      1769901684,
      1769901717,
      1769901744,
      1769901774,
      1769901798,
      1769901835,
      1769901868,
      1769901895
    ],
    "wof:geomhash": "fecc478335e46d646974ff151c55b859",
    "wof:id": 2014686119,
    "wof:repo": "sfomuseum-data-flights-2026-01"
  },
  "bbox": [
    -122.37837,
    37.63072,
    -121.25002,
    38.06172
  ],
  "geometry": {"coordinates":[[-122.36469,37.63072],[-122.35061,37.64493],[-122.32487,37.66691],[-122.31632,37.67838],[-122.32221,37.7192],[-122.33875,37.74916],[-122.36072,37.79249],[-122.36951,37.81015],[-122.37837,37.86475],[-122.34292,37.9251],[-122.33907,37.92906],[-122.27789,37.95405],[-122.19735,37.95218],[-122.14294,37.95204],[-122.08582,37.95379],[-122.04932,37.95538],[-122.02344,37.95652],[-121.95482,37.95923],[-121.86081,37.96288],[-121.79385,37.96554],[-121.70982,37.96881],[-121.64006,37.97146],[-121.5616,37.97459],[-121.4964,37.97709],[-121.40017,37.99325],[-121.31781,38.03031],[-121.25002,38.06172]],"type":"LineString"}
}
