{
  "id": 2014682549,
  "type": "Feature",
  "properties": {
    "geom:area": 0,
    "geom:bbox": "-122.348600,37.491360,-121.249580,37.610040",
    "geom:latitude": 37.54616415453866,
    "geom:longitude": -121.80380902195182,
    "src:alt_label": "swim-approach",
    "src:geom": "swim",
    "swim:elevations": [
      5242,
      4971,
      4629,
      4452,
      4112,
      3989,
      3787,
      3499,
      3284,
      2950,
      2712,
      2490,
      2384,
      2232,
      2064,
      1922,
      1838,
      1733,
      1460,
      1346,
      1096,
      1010,
      1004,
      811,
      641,
      521,
      362,
      250,
      166,
      112,
      69
    ],
    "swim:geom": "approach",
    "swim:timestamps": [
      1769851158,
      1769851185,
      1769851220,
      1769851243,
      1769851284,
      1769851304,
      1769851331,
      1769851363,
      1769851385,
      1769851431,
      1769851463,
      1769851495,
      1769851523,
      1769851546,
      1769851572,
      1769851604,
      1769851632,
      1769851667,
      1769851708,
      1769851723,
      1769851768,
      1769851782,
      1769851786,
      1769851821,
      1769851853,
      1769851879,
      1769851914,
      1769851937,
      1769851956,
      1769851971,
      1769851982
    ],
    "wof:geomhash": "40fafb578e567aceaace173a50caf399",
    "wof:id": 2014682549,
    "wof:repo": "sfomuseum-data-flights-2026-01"
  },
  "bbox": [
    -122.3486,
    37.49136,
    -121.24958,
    37.61004
  ],
  "geometry": {"coordinates":[[-121.24958,37.59448],[-121.29852,37.58846],[-121.35857,37.58194],[-121.39858,37.57716],[-121.46615,37.56935],[-121.49755,37.5656],[-121.53817,37.5608],[-121.58634,37.55531],[-121.61971,37.55132],[-121.68617,37.53624],[-121.73187,37.52527],[-121.77866,37.51401],[-121.81881,37.50441],[-121.85167,37.49645],[-121.88971,37.49136],[-121.93849,37.49244],[-121.97834,37.4938],[-122.02074,37.50528],[-122.06962,37.52116],[-122.08761,37.52696],[-122.1393,37.54377],[-122.15575,37.54908],[-122.16023,37.55049],[-122.1992,37.56322],[-122.23295,37.5742],[-122.25921,37.58233],[-122.29278,37.59225],[-122.31189,37.5979],[-122.32806,37.60288],[-122.3399,37.60646],[-122.3486,37.61004]],"type":"LineString"}
}
