{
  "id": 2014686121,
  "type": "Feature",
  "properties": {
    "geom:area": 0,
    "geom:bbox": "-122.528410,37.626250,-121.256570,37.972690",
    "geom:latitude": 37.86097370727503,
    "geom:longitude": -121.98832970254473,
    "src:alt_label": "swim-takeoff",
    "src:geom": "swim",
    "swim:elevations": [
      152,
      564,
      803,
      1170,
      1362,
      1587,
      1910,
      2471,
      2645,
      2996,
      3048,
      3228,
      3417,
      3890,
      4148,
      4348,
      4830,
      4967,
      5346,
      5658,
      5831,
      6067,
      6308,
      6572,
      6638,
      7135,
      7402,
      7453
    ],
    "swim:geom": "takeoff",
    "swim:timestamps": [
      1769853315,
      1769853353,
      1769853376,
      1769853409,
      1769853446,
      1769853472,
      1769853493,
      1769853537,
      1769853551,
      1769853593,
      1769853608,
      1769853651,
      1769853668,
      1769853709,
      1769853737,
      1769853761,
      1769853800,
      1769853813,
      1769853849,
      1769853894,
      1769853916,
      1769853947,
      1769853983,
      1769854014,
      1769854021,
      1769854075,
      1769854108,
      1769854115
    ],
    "wof:geomhash": "d02fbfda2ac0fd0af07a022980ae2acd",
    "wof:id": 2014686121,
    "wof:repo": "sfomuseum-data-flights-2026-01"
  },
  "bbox": [
    -122.52841,
    37.62625,
    -121.25657,
    37.97269
  ],
  "geometry": {"coordinates":[[-122.39325,37.62625],[-122.43131,37.64261],[-122.455,37.65278],[-122.49028,37.66798],[-122.52393,37.69729],[-122.52841,37.73033],[-122.52822,37.7571],[-122.50689,37.80953],[-122.48506,37.8183],[-122.4139,37.82788],[-122.38749,37.83113],[-122.30608,37.84151],[-122.27182,37.84617],[-122.18762,37.85678],[-122.1286,37.86437],[-122.07759,37.87081],[-121.98999,37.88211],[-121.96299,37.8855],[-121.88388,37.89549],[-121.78253,37.90824],[-121.73441,37.9143],[-121.66126,37.92336],[-121.57608,37.93381],[-121.50053,37.94311],[-121.48489,37.94504],[-121.35429,37.96095],[-121.27499,37.97049],[-121.25657,37.97269]],"type":"LineString"}
}
