{
  "id": 2014685615,
  "type": "Feature",
  "properties": {
    "geom:area": 0,
    "geom:bbox": "-122.468390,36.733310,-121.458420,37.706190",
    "geom:latitude": 37.22270544339031,
    "geom:longitude": -122.06172621988853,
    "src:alt_label": "swim-takeoff",
    "src:geom": "swim",
    "swim:elevations": [
      122,
      538,
      776,
      895,
      1151,
      1811,
      2224,
      2617,
      3018,
      3048,
      3086,
      3886,
      4289,
      4630,
      5222,
      5417,
      5699,
      5818,
      6454,
      6749,
      6913,
      7238,
      7817,
      8063,
      8330,
      8387,
      8780,
      9145,
      9344,
      9699
    ],
    "swim:geom": "takeoff",
    "swim:timestamps": [
      1769863442,
      1769863489,
      1769863522,
      1769863532,
      1769863563,
      1769863613,
      1769863634,
      1769863653,
      1769863684,
      1769863721,
      1769863742,
      1769863796,
      1769863824,
      1769863845,
      1769863882,
      1769863897,
      1769863918,
      1769863925,
      1769863977,
      1769864004,
      1769864018,
      1769864044,
      1769864098,
      1769864125,
      1769864157,
      1769864162,
      1769864220,
      1769864257,
      1769864282,
      1769864327
    ],
    "wof:geomhash": "85439e9b383b1c7ce26995215347f4b8",
    "wof:id": 2014685615,
    "wof:repo": "sfomuseum-data-flights-2026-01"
  },
  "bbox": [
    -122.46839,
    36.73331,
    -121.45842,
    37.70619
  ],
  "geometry": {"coordinates":[[-122.37025,37.62703],[-122.36318,37.66238],[-122.36552,37.69596],[-122.37402,37.70381],[-122.41593,37.70619],[-122.44113,37.65223],[-122.44617,37.62514],[-122.4508,37.60178],[-122.45897,37.56335],[-122.46839,37.5119],[-122.45639,37.48047],[-122.37959,37.42032],[-122.33676,37.38832],[-122.30436,37.36436],[-122.24591,37.32145],[-122.22131,37.3035],[-122.18904,37.27968],[-122.17629,37.27024],[-122.09167,37.20751],[-122.04535,37.17311],[-122.02114,37.15518],[-121.97646,37.1218],[-121.8829,37.05214],[-121.83469,37.01595],[-121.77634,36.9725],[-121.76742,36.9659],[-121.65865,36.88533],[-121.58883,36.8338],[-121.54136,36.79782],[-121.45842,36.73331]],"type":"LineString"}
}
