{
  "id": 2014682059,
  "type": "Feature",
  "properties": {
    "geom:area": 0,
    "geom:bbox": "-122.348770,36.727830,-121.882290,37.607790",
    "geom:latitude": 37.2104495398515,
    "geom:longitude": -122.06817626499684,
    "src:alt_label": "swim-approach",
    "src:geom": "swim",
    "swim:elevations": [
      5320,
      4929,
      4765,
      4561,
      4352,
      3956,
      3770,
      3364,
      3288,
      3107,
      3047,
      2675,
      2632,
      2437,
      2202,
      2130,
      1981,
      1776,
      1451,
      1174,
      976,
      627,
      444,
      322,
      153,
      94
    ],
    "swim:geom": "approach",
    "swim:timestamps": [
      1769859396,
      1769859435,
      1769859453,
      1769859473,
      1769859491,
      1769859533,
      1769859552,
      1769859597,
      1769859605,
      1769859636,
      1769859661,
      1769859715,
      1769859720,
      1769859757,
      1769859834,
      1769859853,
      1769859880,
      1769859911,
      1769859953,
      1769859984,
      1769860015,
      1769860070,
      1769860101,
      1769860127,
      1769860161,
      1769860177
    ],
    "wof:geomhash": "56ac03b27bde58489e48a1673651c0a6",
    "wof:id": 2014682059,
    "wof:repo": "sfomuseum-data-flights-2026-01"
  },
  "bbox": [
    -122.34877,
    36.72783,
    -121.88229,
    37.60779
  ],
  "geometry": {"coordinates":[[-121.88229,36.72783],[-121.90783,36.79217],[-121.91632,36.82242],[-121.9259,36.85627],[-121.93413,36.88553],[-121.95393,36.9543],[-121.96564,36.98386],[-121.99283,37.05381],[-121.99748,37.06591],[-122.01521,37.11122],[-122.02876,37.14625],[-122.05727,37.21869],[-122.06015,37.22601],[-122.07846,37.27274],[-122.11371,37.36193],[-122.12147,37.38196],[-122.13144,37.4115],[-122.14229,37.44396],[-122.15759,37.48794],[-122.16897,37.52084],[-122.19456,37.54415],[-122.25377,37.56782],[-122.28452,37.58058],[-122.30855,37.59053],[-122.33591,37.60224],[-122.34877,37.60779]],"type":"LineString"}
}
