{
  "id": 2014682537,
  "type": "Feature",
  "properties": {
    "geom:area": 0,
    "geom:bbox": "-122.850220,37.460510,-122.120290,38.507830",
    "geom:latitude": 37.879157872638544,
    "geom:longitude": -122.54340116211561,
    "src:alt_label": "swim-approach",
    "src:geom": "swim",
    "swim:elevations": [
      7713,
      7334,
      7116,
      6866,
      6783,
      6370,
      6046,
      5585,
      5447,
      5424,
      5210,
      5103,
      4804,
      4611,
      4334,
      4286,
      3898,
      3698,
      3545,
      3402,
      3353,
      3353,
      3353,
      3353,
      3253,
      3019,
      2873,
      2424,
      2318,
      1934,
      1890,
      1842,
      1546,
      1264,
      1211,
      1107,
      1010,
      951
    ],
    "swim:geom": "approach",
    "swim:timestamps": [
      1769929543,
      1769929576,
      1769929594,
      1769929615,
      1769929621,
      1769929660,
      1769929695,
      1769929738,
      1769929757,
      1769929772,
      1769929797,
      1769929812,
      1769929854,
      1769929880,
      1769929917,
      1769929923,
      1769929977,
      1769930007,
      1769930033,
      1769930058,
      1769930082,
      1769930104,
      1769930131,
      1769930169,
      1769930186,
      1769930213,
      1769930228,
      1769930273,
      1769930282,
      1769930336,
      1769930343,
      1769930349,
      1769930382,
      1769930416,
      1769930438,
      1769930488,
      1769930512,
      1769930522
    ],
    "wof:geomhash": "9a37c09e74b11a3773949cebd69b14e8",
    "wof:id": 2014682537,
    "wof:repo": "sfomuseum-data-flights-2026-01"
  },
  "bbox": [
    -122.85022,
    37.46051,
    -122.12029,
    38.50783
  ],
  "geometry": {"coordinates":[[-122.85022,38.50783],[-122.83392,38.44967],[-122.82476,38.41863],[-122.81408,38.38255],[-122.81102,38.37223],[-122.79162,38.30589],[-122.77491,38.24861],[-122.75494,38.18021],[-122.74628,38.15069],[-122.73938,38.12734],[-122.72784,38.08687],[-122.72099,38.06328],[-122.70241,37.99994],[-122.69068,37.95884],[-122.67283,37.90383],[-122.66719,37.89545],[-122.5988,37.82895],[-122.56044,37.79283],[-122.52824,37.76241],[-122.49916,37.73489],[-122.4722,37.70943],[-122.44741,37.68605],[-122.4171,37.65752],[-122.37651,37.61943],[-122.3643,37.60214],[-122.3486,37.57467],[-122.33894,37.55963],[-122.31037,37.51363],[-122.30143,37.50589],[-122.23221,37.48025],[-122.22388,37.47739],[-122.2164,37.47476],[-122.17551,37.46051],[-122.13159,37.46213],[-122.12029,37.48161],[-122.15171,37.52445],[-122.17518,37.53666],[-122.18482,37.54083]],"type":"LineString"}
}
