{
  "id": 2014685859,
  "type": "Feature",
  "properties": {
    "geom:area": 0,
    "geom:bbox": "-122.385320,37.625580,-121.266980,38.379920",
    "geom:latitude": 38.07570550969368,
    "geom:longitude": -121.94174722739353,
    "src:alt_label": "swim-takeoff",
    "src:geom": "swim",
    "swim:elevations": [
      183,
      580,
      878,
      1247,
      1560,
      1716,
      2378,
      2545,
      2683,
      2861,
      3113,
      3293,
      3912,
      4229,
      4669,
      4835,
      5046,
      5417,
      5605,
      6041,
      6180,
      6472,
      6839,
      7053,
      7313,
      7495,
      7828,
      7908,
      8240,
      8388
    ],
    "swim:geom": "takeoff",
    "swim:timestamps": [
      1769927666,
      1769927691,
      1769927710,
      1769927743,
      1769927781,
      1769927799,
      1769927838,
      1769927845,
      1769927853,
      1769927865,
      1769927887,
      1769927914,
      1769927966,
      1769927993,
      1769928024,
      1769928039,
      1769928058,
      1769928087,
      1769928108,
      1769928144,
      1769928159,
      1769928192,
      1769928230,
      1769928257,
      1769928290,
      1769928311,
      1769928358,
      1769928370,
      1769928415,
      1769928438
    ],
    "wof:geomhash": "c875ff943df7418f3784a3a1ccfecc56",
    "wof:id": 2014685859,
    "wof:repo": "sfomuseum-data-flights-2026-01"
  },
  "bbox": [
    -122.38532,
    37.62558,
    -121.26698,
    38.37992
  ],
  "geometry": {"coordinates":[[-122.36842,37.62558],[-122.35396,37.6398],[-122.34159,37.65141],[-122.31963,37.67063],[-122.3134,37.70455],[-122.32405,37.72348],[-122.3484,37.76895],[-122.35271,37.77776],[-122.35711,37.78689],[-122.36406,37.80082],[-122.37774,37.82771],[-122.38532,37.86649],[-122.35675,37.94777],[-122.30587,37.97275],[-122.24102,37.9984],[-122.2099,38.01087],[-122.16993,38.02687],[-122.107,38.05208],[-122.06128,38.07036],[-121.98192,38.10214],[-121.9484,38.11555],[-121.87442,38.145],[-121.7861,38.1801],[-121.72128,38.20577],[-121.64132,38.23744],[-121.58991,38.2577],[-121.47294,38.30348],[-121.44252,38.31539],[-121.32734,38.35857],[-121.26698,38.37992]],"type":"LineString"}
}
