{
  "id": 2014683191,
  "type": "Feature",
  "properties": {
    "geom:area": 0,
    "geom:bbox": "-121.631640,36.737280,-121.297950,36.974070",
    "geom:latitude": 36.85594279092624,
    "geom:longitude": -121.46460640555945,
    "src:alt_label": "swim-takeoff",
    "src:geom": "swim",
    "swim:elevations": [
      8040,
      8288,
      8382,
      8442,
      8566,
      8629,
      8732
    ],
    "swim:geom": "takeoff",
    "swim:timestamps": [
      1769875813,
      1769875852,
      1769875872,
      1769875905,
      1769875946,
      1769875955,
      1769875993
    ],
    "wof:geomhash": "4bfc2b2f537e19dfccceaeadb8f573fb",
    "wof:id": 2014683191,
    "wof:repo": "sfomuseum-data-flights-2026-01"
  },
  "bbox": [
    -121.63164,
    36.73728,
    -121.29795,
    36.97407
  ],
  "geometry": {"coordinates":[[-121.63164,36.97407],[-121.56328,36.92603],[-121.52611,36.90035],[-121.46679,36.85749],[-121.38907,36.80214],[-121.37232,36.79041],[-121.29795,36.73728]],"type":"LineString"}
}
