{
  "id": 2014684787,
  "type": "Feature",
  "properties": {
    "geom:area": 0,
    "geom:bbox": "-122.367860,37.626420,-121.246270,38.278070",
    "geom:latitude": 38.003935906052234,
    "geom:longitude": -121.85403185209034,
    "src:alt_label": "swim-takeoff",
    "src:geom": "swim",
    "swim:elevations": [
      152,
      509,
      674,
      911,
      1246,
      1588,
      2117,
      2673,
      2774,
      3029,
      3293,
      3395,
      3533,
      3804,
      3914,
      4273,
      4433,
      4861,
      5275,
      5413,
      5641,
      5821,
      6072,
      6293,
      6407,
      6536,
      6661,
      6826
    ],
    "swim:geom": "takeoff",
    "swim:timestamps": [
      1769853463,
      1769853493,
      1769853526,
      1769853556,
      1769853584,
      1769853608,
      1769853647,
      1769853688,
      1769853713,
      1769853737,
      1769853773,
      1769853791,
      1769853810,
      1769853835,
      1769853843,
      1769853891,
      1769853907,
      1769853947,
      1769853987,
      1769854005,
      1769854043,
      1769854067,
      1769854096,
      1769854132,
      1769854148,
      1769854166,
      1769854185,
      1769854204
    ],
    "wof:geomhash": "2b265abe3c54b21dcedf949d26c38e35",
    "wof:id": 2014684787,
    "wof:repo": "sfomuseum-data-flights-2026-01"
  },
  "bbox": [
    -122.36786,
    37.62642,
    -121.24627,
    38.27807
  ],
  "geometry": {"coordinates":[[-122.36786,37.62642],[-122.35083,37.64153],[-122.32199,37.65864],[-122.2896,37.67747],[-122.2542,37.69758],[-122.22313,37.71342],[-122.20086,37.75844],[-122.19626,37.81282],[-122.19318,37.84774],[-122.18198,37.87932],[-122.13327,37.91322],[-122.10284,37.93062],[-122.07066,37.949],[-122.02765,37.97373],[-122.0121,37.98262],[-121.91922,38.02545],[-121.888,38.03724],[-121.80265,38.0695],[-121.7188,38.10124],[-121.68223,38.11501],[-121.60075,38.14571],[-121.54894,38.16514],[-121.48621,38.18863],[-121.40848,38.21772],[-121.37128,38.23158],[-121.33087,38.24659],[-121.28943,38.26207],[-121.24627,38.27807]],"type":"LineString"}
}
