{
  "id": 2014682765,
  "type": "Feature",
  "properties": {
    "geom:area": 0,
    "geom:bbox": "-122.355330,37.491360,-121.255970,37.612770",
    "geom:latitude": 37.54639796220326,
    "geom:longitude": -121.81048069586194,
    "src:alt_label": "swim-approach",
    "src:geom": "swim",
    "swim:elevations": [
      4825,
      4583,
      4148,
      4028,
      3621,
      3495,
      3232,
      3128,
      2844,
      2632,
      2524,
      2408,
      2292,
      2186,
      2042,
      1984,
      1871,
      1604,
      1528,
      1211,
      1035,
      926,
      712,
      507,
      369,
      270,
      90,
      30
    ],
    "swim:geom": "approach",
    "swim:timestamps": [
      1769884074,
      1769884096,
      1769884138,
      1769884151,
      1769884194,
      1769884205,
      1769884243,
      1769884276,
      1769884313,
      1769884343,
      1769884372,
      1769884402,
      1769884432,
      1769884444,
      1769884465,
      1769884475,
      1769884504,
      1769884549,
      1769884561,
      1769884614,
      1769884638,
      1769884654,
      1769884685,
      1769884715,
      1769884763,
      1769884781,
      1769884826,
      1769884838
    ],
    "wof:geomhash": "170fe8924e8f67a1641cf271305e535f",
    "wof:id": 2014682765,
    "wof:repo": "sfomuseum-data-flights-2026-01"
  },
  "bbox": [
    -122.35533,
    37.49136,
    -121.25597,
    37.61277
  ],
  "geometry": {"coordinates":[[-121.25597,37.59365],[-121.29973,37.58817],[-121.38165,37.57918],[-121.40577,37.57657],[-121.4865,37.5678],[-121.50659,37.56523],[-121.57595,37.55664],[-121.63148,37.54916],[-121.69056,37.53522],[-121.73795,37.52386],[-121.7819,37.51324],[-121.82576,37.50279],[-121.86878,37.49294],[-121.8863,37.49136],[-121.91734,37.49192],[-121.9315,37.49226],[-121.97372,37.49356],[-122.03218,37.50902],[-122.04717,37.51385],[-122.11421,37.5356],[-122.1448,37.54554],[-122.16489,37.55209],[-122.20269,37.56413],[-122.23812,37.57574],[-122.28843,37.59107],[-122.30673,37.5963],[-122.34595,37.60864],[-122.35533,37.61277]],"type":"LineString"}
}
