{
  "id": 2014679611,
  "type": "Feature",
  "properties": {
    "geom:area": 0,
    "geom:bbox": "-122.360960,36.730240,-121.885110,37.612670",
    "geom:latitude": 37.214337900811586,
    "geom:longitude": -122.07250786119295,
    "src:alt_label": "swim-approach",
    "src:geom": "swim",
    "swim:elevations": [
      4659,
      4493,
      4139,
      3920,
      3661,
      3294,
      3168,
      3064,
      2883,
      2736,
      2529,
      2439,
      2438,
      2438,
      2193,
      2025,
      1869,
      1608,
      1525,
      1427,
      1138,
      901,
      742,
      634,
      553,
      430,
      272,
      211,
      122,
      126
    ],
    "swim:geom": "approach",
    "swim:timestamps": [
      1769884468,
      1769884483,
      1769884520,
      1769884540,
      1769884573,
      1769884611,
      1769884635,
      1769884669,
      1769884703,
      1769884721,
      1769884750,
      1769884781,
      1769884816,
      1769884848,
      1769884887,
      1769884915,
      1769884934,
      1769884966,
      1769884998,
      1769885034,
      1769885056,
      1769885085,
      1769885114,
      1769885148,
      1769885172,
      1769885199,
      1769885244,
      1769885264,
      1769885289,
      1769885320
    ],
    "wof:geomhash": "28616524ade8cc67429f04282bd4246c",
    "wof:id": 2014679611,
    "wof:repo": "sfomuseum-data-flights-2026-01"
  },
  "bbox": [
    -122.36096,
    36.73024,
    -121.88511,
    37.61267
  ],
  "geometry": {"coordinates":[[-121.88511,36.73024],[-121.8976,36.75519],[-121.91553,36.81761],[-121.92467,36.84987],[-121.93959,36.90322],[-121.95752,36.9628],[-121.97178,36.999],[-121.99009,37.04645],[-122.00726,37.09101],[-122.01658,37.11487],[-122.03148,37.15275],[-122.04715,37.1928],[-122.06489,37.2378],[-122.08111,37.27918],[-122.10053,37.32873],[-122.11379,37.36249],[-122.12151,37.38258],[-122.13372,37.41845],[-122.14538,37.45204],[-122.16078,37.48486],[-122.17249,37.50142],[-122.18875,37.52426],[-122.20683,37.54626],[-122.23513,37.55991],[-122.25468,37.56818],[-122.27471,37.57656],[-122.30773,37.59043],[-122.32172,37.59632],[-122.33916,37.60361],[-122.36096,37.61267]],"type":"LineString"}
}
