{
  "id": 2014680715,
  "type": "Feature",
  "properties": {
    "geom:area": 0,
    "geom:bbox": "-122.356780,37.491370,-121.586790,37.613300",
    "geom:latitude": 37.5347914130513,
    "geom:longitude": -121.97447515133378,
    "src:alt_label": "swim-approach",
    "src:geom": "swim",
    "swim:elevations": [
      3138,
      3127,
      3077,
      2937,
      2746,
      2520,
      2436,
      2345,
      2080,
      2018,
      1878,
      1775,
      1532,
      1452,
      1180,
      1031,
      888,
      814,
      625,
      515,
      470,
      364,
      179,
      12
    ],
    "swim:geom": "approach",
    "swim:timestamps": [
      1769846428,
      1769846432,
      1769846454,
      1769846480,
      1769846507,
      1769846542,
      1769846565,
      1769846582,
      1769846637,
      1769846654,
      1769846690,
      1769846708,
      1769846753,
      1769846765,
      1769846817,
      1769846845,
      1769846873,
      1769846888,
      1769846924,
      1769846948,
      1769846957,
      1769846979,
      1769847020,
      1769847054
    ],
    "wof:geomhash": "907e788c2a795d78bab5b96c31d20a13",
    "wof:id": 2014680715,
    "wof:repo": "sfomuseum-data-flights-2026-01"
  },
  "bbox": [
    -122.35678,
    37.49137,
    -121.58679,
    37.6133
  ],
  "geometry": {"coordinates":[[-121.58679,37.5554],[-121.59295,37.5547],[-121.6289,37.54974],[-121.6693,37.54011],[-121.71084,37.5302],[-121.76328,37.5177],[-121.79674,37.50971],[-121.82065,37.50397],[-121.89713,37.49137],[-121.92071,37.49205],[-121.97367,37.49355],[-121.99792,37.49781],[-122.05137,37.51522],[-122.06546,37.51977],[-122.12155,37.53795],[-122.15212,37.54793],[-122.1818,37.55754],[-122.19794,37.5627],[-122.23717,37.57532],[-122.26272,37.58338],[-122.27147,37.58604],[-122.29306,37.59257],[-122.3276,37.60283],[-122.35678,37.6133]],"type":"LineString"}
}
