{
  "id": 2014686309,
  "type": "Feature",
  "properties": {
    "geom:area": 0,
    "geom:bbox": "-122.367000,37.627610,-121.444200,38.510340",
    "geom:latitude": 38.06379573604668,
    "geom:longitude": -121.90277048665739,
    "src:alt_label": "swim-takeoff",
    "src:geom": "swim",
    "swim:elevations": [
      122,
      459,
      753,
      956,
      1210,
      1266,
      1308,
      1539,
      2312,
      2602,
      3030,
      3346,
      3538,
      3660,
      3768,
      4142,
      4540,
      4996,
      5238,
      5631,
      5976,
      6102,
      6377,
      6866,
      7155,
      7464,
      7553
    ],
    "swim:geom": "takeoff",
    "swim:timestamps": [
      1769896257,
      1769896275,
      1769896299,
      1769896314,
      1769896341,
      1769896348,
      1769896352,
      1769896380,
      1769896433,
      1769896452,
      1769896480,
      1769896516,
      1769896544,
      1769896558,
      1769896567,
      1769896596,
      1769896632,
      1769896673,
      1769896693,
      1769896733,
      1769896766,
      1769896778,
      1769896805,
      1769896852,
      1769896883,
      1769896918,
      1769896927
    ],
    "wof:geomhash": "ae748d53a814e9f1acefb00d8b7c6090",
    "wof:id": 2014686309,
    "wof:repo": "sfomuseum-data-flights-2026-01"
  },
  "bbox": [
    -122.367,
    37.62761,
    -121.4442,
    38.51034
  ],
  "geometry": {"coordinates":[[-122.367,37.62761],[-122.35792,37.64126],[-122.33803,37.65469],[-122.32332,37.66108],[-122.29734,37.67494],[-122.28878,37.67931],[-122.28415,37.68162],[-122.25017,37.69915],[-122.18793,37.74701],[-122.16853,37.76837],[-122.13962,37.80035],[-122.10026,37.84385],[-122.06652,37.88112],[-122.04743,37.90219],[-122.03551,37.91539],[-121.99621,37.95869],[-121.94605,38.0138],[-121.88511,38.08057],[-121.85495,38.11363],[-121.7936,38.18066],[-121.74141,38.23758],[-121.72213,38.25857],[-121.67806,38.30649],[-121.59935,38.39191],[-121.54364,38.44428],[-121.46491,38.49754],[-121.4442,38.51034]],"type":"LineString"}
}
