{
  "id": 2014684287,
  "type": "Feature",
  "properties": {
    "geom:area": 0,
    "geom:bbox": "-122.363240,37.633100,-121.242370,37.959320",
    "geom:latitude": 37.82011209693926,
    "geom:longitude": -121.81197477800808,
    "src:alt_label": "swim-takeoff",
    "src:geom": "swim",
    "swim:elevations": [
      280,
      498,
      790,
      1103,
      1455,
      1938,
      2452,
      2942,
      3065,
      3352,
      3364,
      3660,
      3907,
      4184,
      4533,
      4907,
      5364,
      5555,
      5636,
      5767,
      6044,
      6545,
      6825
    ],
    "swim:geom": "takeoff",
    "swim:timestamps": [
      1769848729,
      1769848743,
      1769848788,
      1769848816,
      1769848845,
      1769848878,
      1769848913,
      1769848949,
      1769848959,
      1769849006,
      1769849010,
      1769849035,
      1769849055,
      1769849080,
      1769849111,
      1769849139,
      1769849178,
      1769849203,
      1769849212,
      1769849225,
      1769849255,
      1769849308,
      1769849336
    ],
    "wof:geomhash": "a4b429c2d90d35a7433e54c2c627ccab",
    "wof:id": 2014684287,
    "wof:repo": "sfomuseum-data-flights-2026-01"
  },
  "bbox": [
    -122.36324,
    37.6331,
    -121.24237,
    37.95932
  ],
  "geometry": {"coordinates":[[-122.36324,37.6331],[-122.35316,37.64083],[-122.3099,37.66502],[-122.27826,37.6834],[-122.24142,37.70379],[-122.19699,37.72662],[-122.14503,37.74665],[-122.08836,37.76057],[-122.07162,37.76457],[-121.98632,37.78486],[-121.97713,37.78708],[-121.9256,37.7992],[-121.88451,37.80887],[-121.8325,37.82133],[-121.76514,37.8372],[-121.70121,37.85232],[-121.61635,37.87222],[-121.55998,37.88547],[-121.53831,37.89056],[-121.50858,37.89757],[-121.43879,37.91385],[-121.30959,37.94377],[-121.24237,37.95932]],"type":"LineString"}
}
