{
  "id": 2014684779,
  "type": "Feature",
  "properties": {
    "date:cessation_lower": "1970-01-01",
    "date:cessation_upper": "1970-01-01",
    "date:inception_lower": "2026-01-31",
    "date:inception_upper": "2026-01-31",
    "edtf:cessation": "1970-01-01T00:00:00Z",
    "edtf:inception": "2026-01-31T02:23:57-08:00",
    "flysfo:actual_timestamp": -1,
    "flysfo:airline": "DL",
    "flysfo:date": "2026-01-31",
    "flysfo:estimated_timestamp": 1769882400,
    "flysfo:event": "D",
    "flysfo:flight_number": "DL8925",
    "flysfo:gate": "",
    "flysfo:journey": "SFO-DTW",
    "flysfo:scheduled_timestamp": 1769882400,
    "flysfo:timestamp": 1769882400,
    "geom:area": 0,
    "geom:bbox": "-122.370943,37.617990,-83.351709,42.218860",
    "geom:latitude": 39.918425,
    "geom:longitude": -102.86132599999999,
    "iata:airline": "DL",
    "icao:aircraft": "B752",
    "icao:airline": "DAL",
    "lbl:latitude": 37.61799,
    "lbl:longitude": -122.370943,
    "sfomuseum:aircraft_id": 1159289939,
    "sfomuseum:airline_id": 1159284261,
    "sfomuseum:arrival_id": 102525635,
    "sfomuseum:departure_id": 102527513,
    "sfomuseum:flight_id": "20260131-D-DAL-8925",
    "sfomuseum:flight_number": [
      "DAL8925",
      "DL8925"
    ],
    "sfomuseum:placetype": "flight",
    "src:geom": "flysfo",
    "src:geom_alt": [
      "swim-takeoff"
    ],
    "swim:tail_number": "N654DL",
    "wof:belongsto": [],
    "wof:country": "US",
    "wof:created": 1769962335,
    "wof:geomhash": "9151bfe07cf224e1ff61a7f7b8c30671",
    "wof:hierarchy": [
      {
        "custom_id": 2014684779,
        "flight_id": 2014684779
      }
    ],
    "wof:id": 2014684779,
    "wof:involves": [
      102527513,
      1159284261,
      1159289939,
      102525635
    ],
    "wof:lastmodified": 1769962587,
    "wof:name": "DL8925 (SFO-DTW)",
    "wof:parent_id": -1,
    "wof:placetype": "custom",
    "wof:placetype_alt": [
      "flight"
    ],
    "wof:repo": "sfomuseum-data-flights-2026-01",
    "wof:superseded_by": [],
    "wof:supersedes": []
  },
  "bbox": [
    -122.370943,
    37.61799,
    -83.351709,
    42.21886
  ],
  "geometry": {"coordinates":[[-122.370943,37.61799],[-83.351709,42.21886]],"type":"MultiPoint"}
}
