{
  "id": 2014684779,
  "type": "Feature",
  "properties": {
    "geom:area": 0,
    "geom:bbox": "-122.368470,37.625440,-121.428510,38.519510",
    "geom:latitude": 38.08103082490989,
    "geom:longitude": -121.90973501942482,
    "src:alt_label": "swim-takeoff",
    "src:geom": "swim",
    "swim:elevations": [
      122,
      213,
      618,
      934,
      1415,
      1755,
      2350,
      2496,
      3089,
      3561,
      3965,
      4085,
      4682,
      4950,
      5312,
      5810,
      6035,
      6382,
      6670,
      6944,
      7285,
      7562,
      7835,
      8041,
      8225,
      8470
    ],
    "swim:geom": "takeoff",
    "swim:timestamps": [
      1769855037,
      1769855044,
      1769855080,
      1769855112,
      1769855154,
      1769855175,
      1769855210,
      1769855220,
      1769855259,
      1769855308,
      1769855335,
      1769855344,
      1769855392,
      1769855411,
      1769855436,
      1769855485,
      1769855504,
      1769855541,
      1769855571,
      1769855597,
      1769855629,
      1769855660,
      1769855686,
      1769855713,
      1769855736,
      1769855768
    ],
    "wof:geomhash": "f5227db9f672f9fcd80d5932e57889d4",
    "wof:id": 2014684779,
    "wof:repo": "sfomuseum-data-flights-2026-01"
  },
  "bbox": [
    -122.36847,
    37.62544,
    -121.42851,
    38.51951
  ],
  "geometry": {"coordinates":[[-122.36847,37.62544],[-122.36533,37.63025],[-122.34009,37.64947],[-122.30844,37.66716],[-122.25947,37.69436],[-122.23489,37.71233],[-122.2111,37.75285],[-122.20482,37.76492],[-122.17881,37.81377],[-122.12982,37.87403],[-122.09581,37.90778],[-122.08446,37.91897],[-122.01953,37.98321],[-121.99343,38.00905],[-121.96,38.04214],[-121.89181,38.10969],[-121.86471,38.13648],[-121.81143,38.18895],[-121.76699,38.23263],[-121.7269,38.27195],[-121.67662,38.32128],[-121.62907,38.36784],[-121.58781,38.40822],[-121.54125,38.44888],[-121.49511,38.47878],[-121.42851,38.51951]],"type":"LineString"}
}
