{
  "id": 2014686125,
  "type": "Feature",
  "properties": {
    "geom:area": 0,
    "geom:bbox": "-122.366920,37.627750,-121.460500,38.515140",
    "geom:latitude": 38.06146555856414,
    "geom:longitude": -121.90630384893097,
    "src:alt_label": "swim-takeoff",
    "src:geom": "swim",
    "swim:elevations": [
      152,
      366,
      852,
      1352,
      1409,
      2738,
      3198,
      3453,
      3937,
      4464,
      4943,
      5343,
      5502,
      6337,
      6538,
      6915,
      7010,
      7010,
      7010,
      7010,
      7010,
      7010,
      7010
    ],
    "swim:geom": "takeoff",
    "swim:timestamps": [
      1769859889,
      1769859900,
      1769859937,
      1769859984,
      1769859990,
      1769860070,
      1769860101,
      1769860130,
      1769860157,
      1769860196,
      1769860225,
      1769860246,
      1769860260,
      1769860315,
      1769860331,
      1769860360,
      1769860436,
      1769860464,
      1769860492,
      1769860525,
      1769860550,
      1769860583,
      1769860612
    ],
    "wof:geomhash": "02a6b739b7cc418401351135024fe0c7",
    "wof:id": 2014686125,
    "wof:repo": "sfomuseum-data-flights-2026-01"
  },
  "bbox": [
    -122.36692,
    37.62775,
    -121.4605,
    38.51514
  ],
  "geometry": {"coordinates":[[-122.36692,37.62775],[-122.36203,37.63475],[-122.33276,37.65162],[-122.28919,37.6771],[-122.28249,37.68115],[-122.18736,37.74739],[-122.1558,37.78261],[-122.12209,37.82023],[-122.08886,37.85678],[-122.03944,37.911],[-122.00135,37.95314],[-121.97314,37.98417],[-121.95452,38.00451],[-121.88109,38.08495],[-121.85968,38.10847],[-121.82033,38.15161],[-121.71645,38.26504],[-121.67764,38.3072],[-121.63935,38.34879],[-121.59404,38.39782],[-121.55935,38.43502],[-121.50698,38.47852],[-121.4605,38.51514]],"type":"LineString"}
}
