{
  "id": 2014682045,
  "type": "Feature",
  "properties": {
    "geom:area": 0,
    "geom:bbox": "-122.345830,36.734320,-121.886020,37.606430",
    "geom:latitude": 37.21047615683311,
    "geom:longitude": -122.06853466419737,
    "src:alt_label": "swim-approach",
    "src:geom": "swim",
    "swim:elevations": [
      5157,
      4836,
      4810,
      4418,
      4254,
      4205,
      3814,
      3664,
      3136,
      3018,
      3000,
      2681,
      2530,
      2263,
      2106,
      1813,
      1803,
      1748,
      1525,
      1524,
      1525,
      1196,
      1120,
      793,
      660,
      399,
      334,
      198,
      80
    ],
    "swim:geom": "approach",
    "swim:timestamps": [
      1769864008,
      1769864037,
      1769864040,
      1769864080,
      1769864098,
      1769864105,
      1769864147,
      1769864162,
      1769864231,
      1769864277,
      1769864282,
      1769864327,
      1769864352,
      1769864394,
      1769864413,
      1769864455,
      1769864483,
      1769864508,
      1769864545,
      1769864575,
      1769864583,
      1769864629,
      1769864651,
      1769864686,
      1769864704,
      1769864750,
      1769864762,
      1769864801,
      1769864833
    ],
    "wof:geomhash": "4e5b889f471035edfa74f831f31bd916",
    "wof:id": 2014682045,
    "wof:repo": "sfomuseum-data-flights-2026-01"
  },
  "bbox": [
    -122.34583,
    36.73432,
    -121.88602,
    37.60643
  ],
  "geometry": {"coordinates":[[-121.88602,36.73432],[-121.90544,36.7841],[-121.90711,36.79011],[-121.92629,36.85853],[-121.93457,36.88796],[-121.93787,36.89962],[-121.95925,36.96739],[-121.96858,36.99067],[-122.00886,37.09516],[-122.03299,37.15688],[-122.03569,37.16385],[-122.05889,37.21969],[-122.07118,37.25015],[-122.08851,37.30027],[-122.09655,37.32236],[-122.11757,37.36992],[-122.12717,37.39672],[-122.13373,37.42036],[-122.14572,37.45536],[-122.1556,37.48244],[-122.15818,37.48983],[-122.18663,37.52643],[-122.20303,37.53986],[-122.23115,37.5579],[-122.24713,37.56512],[-122.28503,37.58045],[-122.29442,37.58441],[-122.32262,37.59664],[-122.34583,37.60643]],"type":"LineString"}
}
