{
  "id": 2014681211,
  "type": "Feature",
  "properties": {
    "geom:area": 0,
    "geom:bbox": "-122.360920,37.491690,-121.246580,37.615680",
    "geom:latitude": 37.54722967145784,
    "geom:longitude": -121.8088639436794,
    "src:alt_label": "swim-approach",
    "src:geom": "swim",
    "swim:elevations": [
      4619,
      4331,
      4224,
      3877,
      3596,
      3341,
      3190,
      3131,
      2981,
      2767,
      2609,
      2492,
      2332,
      2061,
      1949,
      1828,
      1793,
      1584,
      1453,
      1322,
      1226,
      1036,
      871,
      727,
      585,
      475,
      394,
      336,
      195,
      61,
      0
    ],
    "swim:geom": "approach",
    "swim:timestamps": [
      1769899912,
      1769899947,
      1769899959,
      1769899999,
      1769900031,
      1769900058,
      1769900096,
      1769900117,
      1769900152,
      1769900182,
      1769900203,
      1769900233,
      1769900256,
      1769900304,
      1769900331,
      1769900365,
      1769900371,
      1769900404,
      1769900427,
      1769900449,
      1769900467,
      1769900501,
      1769900530,
      1769900556,
      1769900588,
      1769900612,
      1769900630,
      1769900654,
      1769900689,
      1769900719,
      1769900734
    ],
    "wof:geomhash": "3ba873a9761d14e1665c3c3b8a70ee32",
    "wof:id": 2014681211,
    "wof:repo": "sfomuseum-data-flights-2026-01"
  },
  "bbox": [
    -122.36092,
    37.49169,
    -121.24658,
    37.61568
  ],
  "geometry": {"coordinates":[[-121.24658,37.59508],[-121.31063,37.58696],[-121.33247,37.58459],[-121.40781,37.57633],[-121.46894,37.56908],[-121.51901,37.56345],[-121.58667,37.55527],[-121.62244,37.55084],[-121.67795,37.53812],[-121.72389,37.52705],[-121.75604,37.51939],[-121.80023,37.50872],[-121.834,37.50057],[-121.90447,37.49169],[-121.94446,37.49286],[-121.98868,37.49551],[-121.99642,37.49734],[-122.03734,37.51056],[-122.06578,37.51988],[-122.09321,37.52899],[-122.11547,37.53623],[-122.15433,37.54851],[-122.18623,37.5589],[-122.21416,37.56807],[-122.24639,37.57844],[-122.26751,37.585],[-122.28239,37.58909],[-122.30085,37.59542],[-122.32793,37.6028],[-122.35036,37.61064],[-122.36092,37.61568]],"type":"LineString"}
}
