{
  "id": 2014685957,
  "type": "Feature",
  "properties": {
    "geom:area": 0,
    "geom:bbox": "-122.461370,36.721220,-121.417360,37.715440",
    "geom:latitude": 37.229489184403086,
    "geom:longitude": -122.02167211516655,
    "src:alt_label": "swim-takeoff",
    "src:geom": "swim",
    "swim:elevations": [
      348,
      523,
      966,
      1289,
      1422,
      2077,
      2710,
      3135,
      3500,
      3782,
      4141,
      4428,
      5154,
      5444,
      6055,
      6493,
      6641,
      7060,
      7438,
      7857,
      8208,
      8502,
      8691,
      8792,
      9002,
      9186,
      9448,
      9908,
      10196,
      10369,
      10538,
      10668
    ],
    "swim:geom": "takeoff",
    "swim:timestamps": [
      1769882094,
      1769882108,
      1769882140,
      1769882184,
      1769882197,
      1769882235,
      1769882265,
      1769882290,
      1769882326,
      1769882342,
      1769882366,
      1769882387,
      1769882424,
      1769882442,
      1769882481,
      1769882513,
      1769882526,
      1769882565,
      1769882601,
      1769882637,
      1769882667,
      1769882697,
      1769882724,
      1769882741,
      1769882773,
      1769882799,
      1769882829,
      1769882875,
      1769882903,
      1769882928,
      1769882941,
      1769882981
    ],
    "wof:geomhash": "e80510361fb9c9b9f470bbaa71c211ee",
    "wof:id": 2014685957,
    "wof:repo": "sfomuseum-data-flights-2026-01"
  },
  "bbox": [
    -122.46137,
    36.72122,
    -121.41736,
    37.71544
  ],
  "geometry": {"coordinates":[[-122.36369,37.64065],[-122.36422,37.65169],[-122.36275,37.67613],[-122.38516,37.71134],[-122.40339,37.71544],[-122.44762,37.68964],[-122.45317,37.65294],[-122.45717,37.62257],[-122.46137,37.57218],[-122.45138,37.54989],[-122.42006,37.52208],[-122.38862,37.4979],[-122.33408,37.45586],[-122.30748,37.43448],[-122.25086,37.38914],[-122.20308,37.35133],[-122.18371,37.33611],[-122.1239,37.28884],[-122.06543,37.24236],[-122.0067,37.19525],[-121.95759,37.15665],[-121.90877,37.11734],[-121.86395,37.08151],[-121.83522,37.05828],[-121.78011,37.01498],[-121.73373,36.97733],[-121.6804,36.93468],[-121.59902,36.86851],[-121.55013,36.82865],[-121.50687,36.79366],[-121.48529,36.7763],[-121.41736,36.72122]],"type":"LineString"}
}
