{
  "id": 2014682359,
  "type": "Feature",
  "properties": {
    "geom:area": 0,
    "geom:bbox": "-122.354440,37.491820,-121.250690,37.612500",
    "geom:latitude": 37.546528889744465,
    "geom:longitude": -121.80744737443771,
    "src:alt_label": "swim-approach",
    "src:geom": "swim",
    "swim:elevations": [
      5089,
      4622,
      4440,
      3990,
      3648,
      3490,
      3320,
      3163,
      2872,
      2714,
      2529,
      2405,
      2237,
      2073,
      2074,
      1861,
      1697,
      1613,
      1440,
      1316,
      1100,
      1016,
      785,
      695,
      563,
      379,
      272,
      169,
      122,
      34
    ],
    "swim:geom": "approach",
    "swim:timestamps": [
      1769848454,
      1769848493,
      1769848511,
      1769848551,
      1769848584,
      1769848599,
      1769848623,
      1769848659,
      1769848706,
      1769848729,
      1769848757,
      1769848780,
      1769848805,
      1769848840,
      1769848845,
      1769848887,
      1769848916,
      1769848932,
      1769848962,
      1769848980,
      1769849015,
      1769849027,
      1769849068,
      1769849087,
      1769849111,
      1769849150,
      1769849174,
      1769849199,
      1769849212,
      1769849233
    ],
    "wof:geomhash": "9dea18cd85709eb82daeb9984c63eae5",
    "wof:id": 2014682359,
    "wof:repo": "sfomuseum-data-flights-2026-01"
  },
  "bbox": [
    -122.35444,
    37.49182,
    -121.25069,
    37.6125
  ],
  "geometry": {"coordinates":[[-121.25069,37.59436],[-121.33106,37.58505],[-121.36515,37.58115],[-121.44296,37.57196],[-121.50399,37.56488],[-121.53279,37.56156],[-121.57677,37.5564],[-121.63783,37.54778],[-121.71013,37.53048],[-121.74341,37.52247],[-121.78701,37.51196],[-121.81925,37.50432],[-121.85647,37.49536],[-121.90726,37.49182],[-121.91472,37.492],[-121.97279,37.49351],[-122.01262,37.50269],[-122.0328,37.5093],[-122.07184,37.52187],[-122.09483,37.52933],[-122.13918,37.54368],[-122.15503,37.54887],[-122.20526,37.56512],[-122.22603,37.57191],[-122.25131,37.58011],[-122.2886,37.59102],[-122.3075,37.59641],[-122.32783,37.60165],[-122.33837,37.60571],[-122.35444,37.6125]],"type":"LineString"}
}
