{
  "id": 2014686383,
  "type": "Feature",
  "properties": {
    "geom:area": 0,
    "geom:bbox": "-122.528670,37.627250,-122.099340,38.475580",
    "geom:latitude": 38.01495616422836,
    "geom:longitude": -122.3196835338532,
    "src:alt_label": "swim-takeoff",
    "src:geom": "swim",
    "swim:elevations": [
      152,
      260,
      867,
      925,
      1164,
      1544,
      1814,
      2239,
      2582,
      2764,
      3165,
      3203,
      3591,
      3766,
      4231,
      4378,
      4890,
      5170,
      5439,
      5620,
      6066,
      6273
    ],
    "swim:geom": "takeoff",
    "swim:timestamps": [
      1769865294,
      1769865305,
      1769865358,
      1769865363,
      1769865400,
      1769865447,
      1769865463,
      1769865498,
      1769865528,
      1769865543,
      1769865592,
      1769865603,
      1769865657,
      1769865677,
      1769865717,
      1769865729,
      1769865777,
      1769865797,
      1769865830,
      1769865849,
      1769865898,
      1769865923
    ],
    "wof:geomhash": "a666e857c44080d2e2ce445c0bcf87d5",
    "wof:id": 2014686383,
    "wof:repo": "sfomuseum-data-flights-2026-01"
  },
  "bbox": [
    -122.52867,
    37.62725,
    -122.09934,
    38.47558
  ],
  "geometry": {"coordinates":[[-122.39517,37.62725],[-122.40593,37.63169],[-122.45871,37.655],[-122.4638,37.65712],[-122.50467,37.67517],[-122.52867,37.72801],[-122.52817,37.74879],[-122.52105,37.79448],[-122.48565,37.82095],[-122.46122,37.82994],[-122.40502,37.88161],[-122.39475,37.89816],[-122.34076,37.98301],[-122.31938,38.01651],[-122.27556,38.0838],[-122.26216,38.10478],[-122.20718,38.1898],[-122.18285,38.22672],[-122.14407,38.28698],[-122.12475,38.32188],[-122.10435,38.42371],[-122.09934,38.47558]],"type":"LineString"}
}
