{
  "id": 2014682727,
  "type": "Feature",
  "properties": {
    "geom:area": 0,
    "geom:bbox": "-122.360200,37.491560,-121.257600,37.614160",
    "geom:latitude": 37.54652601512151,
    "geom:longitude": -121.81374687131922,
    "src:alt_label": "swim-approach",
    "src:geom": "swim",
    "swim:elevations": [
      4943,
      4672,
      4140,
      3845,
      3612,
      3320,
      3216,
      3018,
      2774,
      2712,
      2536,
      2444,
      2186,
      2041,
      1827,
      1674,
      1379,
      1247,
      919,
      794,
      699,
      546,
      435,
      339,
      257,
      102,
      0
    ],
    "swim:geom": "approach",
    "swim:timestamps": [
      1769863057,
      1769863083,
      1769863133,
      1769863162,
      1769863186,
      1769863224,
      1769863258,
      1769863285,
      1769863317,
      1769863324,
      1769863353,
      1769863383,
      1769863427,
      1769863450,
      1769863489,
      1769863513,
      1769863547,
      1769863563,
      1769863613,
      1769863634,
      1769863653,
      1769863694,
      1769863721,
      1769863750,
      1769863774,
      1769863819,
      1769863846
    ],
    "wof:geomhash": "448c1805c56571e176f7b531fdb32df4",
    "wof:id": 2014682727,
    "wof:repo": "sfomuseum-data-flights-2026-01"
  },
  "bbox": [
    -122.3602,
    37.49156,
    -121.2576,
    37.61416
  ],
  "geometry": {"coordinates":[[-121.2576,37.59323],[-121.30826,37.58703],[-121.40738,37.57627],[-121.4604,37.57006],[-121.50486,37.56489],[-121.57187,37.55702],[-121.62728,37.54965],[-121.66821,37.54053],[-121.71593,37.52907],[-121.7267,37.52647],[-121.77116,37.51575],[-121.8165,37.50492],[-121.87992,37.4917],[-121.9155,37.49156],[-121.9724,37.4936],[-122.00877,37.5014],[-122.05701,37.51698],[-122.07991,37.5245],[-122.14404,37.54548],[-122.17056,37.55403],[-122.19233,37.56107],[-122.23734,37.5755],[-122.26452,37.5841],[-122.29065,37.5914],[-122.30905,37.59674],[-122.3415,37.60707],[-122.3602,37.61416]],"type":"LineString"}
}
