{
  "id": 2014681213,
  "type": "Feature",
  "properties": {
    "geom:area": 0,
    "geom:bbox": "-122.758760,37.436260,-122.136200,38.486640",
    "geom:latitude": 37.85906391499177,
    "geom:longitude": -122.48677504042442,
    "src:alt_label": "swim-approach",
    "src:geom": "swim",
    "swim:elevations": [
      8260,
      8169,
      7922,
      7731,
      7643,
      7536,
      7359,
      7310,
      7055,
      6878,
      6344,
      6187,
      5924,
      5601,
      5487,
      4983,
      4770,
      4373,
      3905,
      3792,
      3397,
      3353,
      3353,
      3353,
      3353,
      3353,
      3353,
      3121,
      2940,
      2706,
      2500,
      2123,
      2031,
      1965,
      1803,
      1362,
      1332,
      1219,
      1215,
      1002,
      914,
      888,
      794,
      675,
      602,
      488,
      404,
      251,
      149,
      58,
      48
    ],
    "swim:geom": "approach",
    "swim:timestamps": [
      1769897215,
      1769897232,
      1769897266,
      1769897296,
      1769897311,
      1769897332,
      1769897362,
      1769897370,
      1769897410,
      1769897431,
      1769897479,
      1769897491,
      1769897515,
      1769897545,
      1769897554,
      1769897602,
      1769897620,
      1769897655,
      1769897697,
      1769897706,
      1769897746,
      1769897776,
      1769897804,
      1769897844,
      1769897852,
      1769897889,
      1769897898,
      1769897937,
      1769897967,
      1769897997,
      1769898021,
      1769898057,
      1769898069,
      1769898075,
      1769898093,
      1769898146,
      1769898155,
      1769898195,
      1769898225,
      1769898255,
      1769898297,
      1769898327,
      1769898342,
      1769898384,
      1769898411,
      1769898435,
      1769898460,
      1769898508,
      1769898536,
      1769898561,
      1769898577
    ],
    "wof:geomhash": "5da148ffe388c213042c5a75258a6f56",
    "wof:id": 2014681213,
    "wof:repo": "sfomuseum-data-flights-2026-01"
  },
  "bbox": [
    -122.75876,
    37.43626,
    -122.1362,
    38.48664
  ],
  "geometry": {"coordinates":[[-122.49942,38.48664],[-122.52231,38.46433],[-122.56764,38.41937],[-122.60745,38.38029],[-122.6271,38.36116],[-122.65386,38.33519],[-122.69223,38.29778],[-122.70187,38.28838],[-122.75068,38.237],[-122.75876,38.20465],[-122.74061,38.13],[-122.73503,38.11173],[-122.72412,38.07545],[-122.71073,38.03081],[-122.70697,38.01758],[-122.68684,37.94792],[-122.67877,37.92015],[-122.64636,37.87373],[-122.59284,37.82296],[-122.58128,37.81235],[-122.53378,37.76857],[-122.5039,37.74054],[-122.47936,37.71706],[-122.44425,37.6837],[-122.4368,37.67666],[-122.40435,37.64599],[-122.39633,37.63847],[-122.36295,37.60621],[-122.34961,37.57843],[-122.33506,37.55177],[-122.32234,37.53073],[-122.30028,37.49856],[-122.29245,37.48752],[-122.2886,37.48199],[-122.27694,37.46519],[-122.21738,37.43831],[-122.20551,37.43626],[-122.15739,37.43684],[-122.14438,37.46123],[-122.1362,37.48662],[-122.15632,37.51759],[-122.17788,37.53295],[-122.19105,37.53992],[-122.22529,37.55553],[-122.24642,37.56447],[-122.26325,37.57169],[-122.28034,37.57856],[-122.31431,37.59294],[-122.33316,37.60105],[-122.35004,37.60821],[-122.36036,37.61224]],"type":"LineString"}
}
