{
  "id": 2014682509,
  "type": "Feature",
  "properties": {
    "geom:area": 0,
    "geom:bbox": "-122.778110,37.433950,-122.132150,38.363220",
    "geom:latitude": 37.779444768713184,
    "geom:longitude": -122.47836069682846,
    "src:alt_label": "swim-approach",
    "src:geom": "swim",
    "swim:elevations": [
      7620,
      7404,
      7248,
      7106,
      6695,
      6440,
      6138,
      5432,
      5217,
      4984,
      4733,
      4534,
      4380,
      3948,
      3454,
      3353,
      3353,
      3353,
      3353,
      3353,
      3353,
      3353,
      3353,
      3353,
      3201,
      2984,
      2835,
      2630,
      2260,
      1981,
      1788,
      1707,
      1664,
      1557,
      1478,
      1402,
      1213,
      1023,
      893,
      791,
      639,
      485,
      359,
      236,
      58,
      38
    ],
    "swim:geom": "approach",
    "swim:timestamps": [
      1769893823,
      1769893858,
      1769893875,
      1769893887,
      1769893915,
      1769893930,
      1769893951,
      1769894005,
      1769894021,
      1769894036,
      1769894054,
      1769894067,
      1769894079,
      1769894120,
      1769894153,
      1769894168,
      1769894216,
      1769894232,
      1769894250,
      1769894274,
      1769894291,
      1769894315,
      1769894353,
      1769894372,
      1769894406,
      1769894433,
      1769894453,
      1769894474,
      1769894505,
      1769894539,
      1769894578,
      1769894587,
      1769894593,
      1769894608,
      1769894620,
      1769894635,
      1769894668,
      1769894695,
      1769894722,
      1769894743,
      1769894764,
      1769894797,
      1769894833,
      1769894857,
      1769894906,
      1769894910
    ],
    "wof:geomhash": "9f3b8f46fe49f85fffc789875eeac9c0",
    "wof:id": 2014682509,
    "wof:repo": "sfomuseum-data-flights-2026-01"
  },
  "bbox": [
    -122.77811,
    37.43395,
    -122.13215,
    38.36322
  ],
  "geometry": {"coordinates":[[-122.77811,38.36322],[-122.77308,38.29848],[-122.77081,38.26712],[-122.76899,38.24534],[-122.75942,38.1969],[-122.75123,38.16927],[-122.74071,38.13264],[-122.71399,38.04032],[-122.70629,38.01349],[-122.69905,37.98844],[-122.69042,37.9587],[-122.6843,37.93776],[-122.67871,37.91806],[-122.6338,37.86222],[-122.58916,37.82008],[-122.56919,37.80145],[-122.5124,37.74782],[-122.49541,37.73176],[-122.47676,37.714],[-122.45179,37.69047],[-122.43453,37.67432],[-122.40901,37.65014],[-122.37084,37.61317],[-122.36035,37.5933],[-122.33972,37.56094],[-122.32474,37.53657],[-122.3134,37.51805],[-122.30154,37.49921],[-122.27512,37.47623],[-122.23254,37.45641],[-122.18519,37.4354],[-122.17298,37.43395],[-122.16465,37.43473],[-122.14621,37.44279],[-122.13707,37.45401],[-122.13215,37.46986],[-122.14898,37.50071],[-122.16878,37.52362],[-122.19175,37.54307],[-122.21548,37.55374],[-122.23758,37.56328],[-122.27045,37.57706],[-122.30114,37.58984],[-122.31834,37.59717],[-122.35161,37.6112],[-122.35414,37.61227]],"type":"LineString"}
}
