{
  "id": 2014682423,
  "type": "Feature",
  "properties": {
    "geom:area": 0,
    "geom:bbox": "-122.844270,37.555850,-122.098750,38.486330",
    "geom:latitude": 37.88260035107422,
    "geom:longitude": -122.50781138907115,
    "src:alt_label": "swim-approach",
    "src:geom": "swim",
    "swim:elevations": [
      7258,
      7097,
      7041,
      6955,
      6825,
      6728,
      6553,
      6408,
      6249,
      6056,
      5885,
      5584,
      5369,
      5028,
      4423,
      4314,
      4144,
      4021,
      3960,
      3857,
      3624,
      3569,
      3158,
      2923,
      2824,
      2745,
      2629,
      2415,
      2104,
      1846,
      1409,
      1271,
      1026,
      942,
      911,
      881,
      643,
      469,
      356,
      243,
      185,
      57
    ],
    "swim:geom": "approach",
    "swim:timestamps": [
      1769878009,
      1769878041,
      1769878055,
      1769878073,
      1769878096,
      1769878117,
      1769878150,
      1769878181,
      1769878209,
      1769878247,
      1769878277,
      1769878307,
      1769878331,
      1769878360,
      1769878406,
      1769878422,
      1769878456,
      1769878497,
      1769878516,
      1769878545,
      1769878587,
      1769878595,
      1769878645,
      1769878675,
      1769878690,
      1769878701,
      1769878714,
      1769878741,
      1769878781,
      1769878804,
      1769878855,
      1769878876,
      1769878913,
      1769878941,
      1769878950,
      1769878957,
      1769878997,
      1769879034,
      1769879063,
      1769879085,
      1769879105,
      1769879134
    ],
    "wof:geomhash": "8b6f8d3c4ecd76ec463cc426c1793344",
    "wof:id": 2014682423,
    "wof:repo": "sfomuseum-data-flights-2026-01"
  },
  "bbox": [
    -122.84427,
    37.55585,
    -122.09875,
    38.48633
  ],
  "geometry": {"coordinates":[[-122.84427,38.48633],[-122.82933,38.43564],[-122.82284,38.41346],[-122.8144,38.38461],[-122.80339,38.34694],[-122.79395,38.31477],[-122.77849,38.26214],[-122.76458,38.21453],[-122.75181,38.17031],[-122.73524,38.11336],[-122.72217,38.06852],[-122.70934,38.02475],[-122.69897,37.98909],[-122.6866,37.94597],[-122.65293,37.88062],[-122.63281,37.86158],[-122.59109,37.82184],[-122.54569,37.77894],[-122.52645,37.76089],[-122.49763,37.734],[-122.43853,37.71768],[-122.42708,37.71497],[-122.35851,37.69592],[-122.3175,37.68413],[-122.29786,37.67836],[-122.28304,37.67401],[-122.26733,37.66932],[-122.23194,37.65866],[-122.18759,37.63773],[-122.16063,37.62483],[-122.10518,37.59596],[-122.09875,37.57625],[-122.13157,37.55585],[-122.16514,37.56159],[-122.17625,37.56408],[-122.18439,37.56588],[-122.23115,37.57574],[-122.26783,37.58467],[-122.29304,37.59242],[-122.31219,37.59801],[-122.32872,37.60302],[-122.35024,37.61061]],"type":"LineString"}
}
