{
  "id": 2014686115,
  "type": "Feature",
  "properties": {
    "geom:area": 0,
    "geom:bbox": "-123.331470,37.628920,-122.399240,38.509310",
    "geom:latitude": 38.02802073119395,
    "geom:longitude": -122.89843443708247,
    "src:alt_label": "swim-takeoff",
    "src:geom": "swim",
    "swim:elevations": [
      232,
      341,
      590,
      778,
      1053,
      1230,
      1303,
      1641,
      2179,
      2405,
      2722,
      3065,
      3317,
      3481,
      3711,
      3849,
      4421,
      4664,
      4980,
      5047,
      5403,
      5532,
      5819,
      6248,
      6675
    ],
    "swim:geom": "takeoff",
    "swim:timestamps": [
      1769859141,
      1769859150,
      1769859173,
      1769859198,
      1769859224,
      1769859266,
      1769859274,
      1769859312,
      1769859354,
      1769859373,
      1769859396,
      1769859423,
      1769859458,
      1769859491,
      1769859533,
      1769859544,
      1769859597,
      1769859622,
      1769859654,
      1769859661,
      1769859698,
      1769859720,
      1769859753,
      1769859817,
      1769859868
    ],
    "wof:geomhash": "7e5a9c4c1a00a63e5cbacb941b566258",
    "wof:id": 2014686115,
    "wof:repo": "sfomuseum-data-flights-2026-01"
  },
  "bbox": [
    -123.33147,
    37.62892,
    -122.39924,
    38.50931
  ],
  "geometry": {"coordinates":[[-122.39924,37.62892],[-122.40798,37.63259],[-122.42992,37.6426],[-122.45546,37.65382],[-122.48332,37.6659],[-122.52958,37.69007],[-122.53919,37.6958],[-122.58809,37.72451],[-122.64338,37.7571],[-122.67067,37.77309],[-122.70182,37.79152],[-122.73794,37.81298],[-122.7796,37.8506],[-122.81577,37.8944],[-122.86679,37.95617],[-122.88063,37.97284],[-122.94926,38.05524],[-122.98177,38.09427],[-123.02522,38.14615],[-123.03402,38.15669],[-123.08585,38.21876],[-123.11688,38.25578],[-123.16265,38.31023],[-123.25625,38.42008],[-123.33147,38.50931]],"type":"LineString"}
}
