{
  "id": 2014682721,
  "type": "Feature",
  "properties": {
    "geom:area": 0,
    "geom:bbox": "-122.904580,37.224330,-122.135200,37.612430",
    "geom:latitude": 37.37627151936673,
    "geom:longitude": -122.43646783755788,
    "src:alt_label": "swim-approach",
    "src:geom": "swim",
    "swim:elevations": [
      3117,
      3088,
      3048,
      2993,
      2893,
      2647,
      2611,
      2530,
      2464,
      2438,
      2438,
      2290,
      2145,
      1901,
      1829,
      1829,
      1627,
      1523,
      1297,
      1222,
      1219,
      1219,
      1219,
      1043,
      942,
      916,
      908,
      760,
      658,
      576,
      471,
      310,
      213,
      29,
      127
    ],
    "swim:geom": "approach",
    "swim:timestamps": [
      1769846422,
      1769846432,
      1769846459,
      1769846486,
      1769846503,
      1769846548,
      1769846554,
      1769846585,
      1769846610,
      1769846663,
      1769846678,
      1769846711,
      1769846737,
      1769846781,
      1769846817,
      1769846839,
      1769846873,
      1769846891,
      1769846930,
      1769846948,
      1769846961,
      1769846982,
      1769847012,
      1769847054,
      1769847072,
      1769847092,
      1769847136,
      1769847161,
      1769847180,
      1769847200,
      1769847220,
      1769847260,
      1769847279,
      1769847324,
      1769847333
    ],
    "wof:geomhash": "f8f26451b832daee43b743072d549c8f",
    "wof:id": 2014682721,
    "wof:repo": "sfomuseum-data-flights-2026-01"
  },
  "bbox": [
    -122.90458,
    37.22433,
    -122.1352,
    37.61243
  ],
  "geometry": {"coordinates":[[-122.90458,37.22433],[-122.89072,37.23539],[-122.85042,37.25985],[-122.80346,37.27148],[-122.77437,37.2784],[-122.70043,37.29565],[-122.69058,37.2973],[-122.64109,37.29271],[-122.60441,37.28634],[-122.53186,37.27344],[-122.51193,37.27003],[-122.46902,37.28118],[-122.44047,37.29792],[-122.39187,37.32754],[-122.3498,37.34671],[-122.32087,37.35455],[-122.27817,37.3652],[-122.25542,37.37073],[-122.20643,37.38273],[-122.18601,37.39016],[-122.17557,37.40117],[-122.16493,37.42123],[-122.15199,37.44728],[-122.1352,37.48148],[-122.13551,37.49742],[-122.14552,37.51364],[-122.18307,37.53814],[-122.20914,37.54899],[-122.2278,37.55685],[-122.24785,37.5652],[-122.2665,37.57315],[-122.30182,37.58795],[-122.31687,37.59426],[-122.35314,37.60948],[-122.36006,37.61243]],"type":"LineString"}
}
