{
  "id": 2014680701,
  "type": "Feature",
  "properties": {
    "geom:area": 0,
    "geom:bbox": "-122.365040,37.545390,-122.070770,37.668300",
    "geom:latitude": 37.600503812822325,
    "geom:longitude": -122.20129302575424,
    "src:alt_label": "swim-approach",
    "src:geom": "swim",
    "swim:elevations": [
      2807,
      2650,
      2399,
      2101,
      1862,
      1744,
      1469,
      1277,
      1128,
      1010,
      916,
      820,
      730,
      659,
      522,
      373,
      249,
      124,
      501
    ],
    "swim:geom": "approach",
    "swim:timestamps": [
      1769846425,
      1769846447,
      1769846477,
      1769846513,
      1769846545,
      1769846557,
      1769846591,
      1769846637,
      1769846666,
      1769846687,
      1769846711,
      1769846756,
      1769846781,
      1769846814,
      1769846842,
      1769846870,
      1769846903,
      1769846933,
      1769846966
    ],
    "wof:geomhash": "3c5713900bfd5f2245240dc101058e3f",
    "wof:id": 2014680701,
    "wof:repo": "sfomuseum-data-flights-2026-01"
  },
  "bbox": [
    -122.36504,
    37.54539,
    -122.07077,
    37.6683
  ],
  "geometry": {"coordinates":[[-122.32548,37.6683],[-122.29624,37.66127],[-122.25658,37.6514],[-122.20893,37.6391],[-122.16749,37.6288],[-122.1522,37.62496],[-122.11184,37.61017],[-122.0713,37.57821],[-122.07077,37.55398],[-122.09124,37.54539],[-122.1182,37.55027],[-122.16714,37.56096],[-122.19529,37.56743],[-122.23134,37.57571],[-122.26054,37.58244],[-122.28591,37.59024],[-122.31249,37.59809],[-122.33734,37.60573],[-122.36504,37.61347]],"type":"LineString"}
}
