{
  "id": 2014684741,
  "type": "Feature",
  "properties": {
    "geom:area": 0,
    "geom:bbox": "-122.365890,37.629000,-121.648750,38.106990",
    "geom:latitude": 37.82672425005426,
    "geom:longitude": -121.98963839354656,
    "src:alt_label": "swim-takeoff",
    "src:geom": "swim",
    "swim:elevations": [
      122,
      438,
      612,
      1006,
      1112,
      1485,
      1968,
      2363,
      2513,
      2974,
      3348,
      3492,
      3752,
      3950,
      4441,
      4597,
      5146,
      5420,
      5693,
      6187
    ],
    "swim:geom": "takeoff",
    "swim:timestamps": [
      1769930038,
      1769930064,
      1769930086,
      1769930122,
      1769930131,
      1769930161,
      1769930186,
      1769930213,
      1769930222,
      1769930255,
      1769930293,
      1769930313,
      1769930343,
      1769930355,
      1769930396,
      1769930407,
      1769930450,
      1769930471,
      1769930497,
      1769930540
    ],
    "wof:geomhash": "9f9a962f20ba876c8cf809cab63189c8",
    "wof:id": 2014684741,
    "wof:repo": "sfomuseum-data-flights-2026-01"
  },
  "bbox": [
    -122.36589,
    37.629,
    -121.64875,
    38.10699
  ],
  "geometry": {"coordinates":[[-122.36589,37.629],[-122.34909,37.6428],[-122.32865,37.65107],[-122.28413,37.66189],[-122.2716,37.66193],[-122.22615,37.65879],[-122.18574,37.65626],[-122.14411,37.66564],[-122.13316,37.67375],[-122.09594,37.70695],[-122.0494,37.74946],[-122.0222,37.77397],[-121.97916,37.81255],[-121.9609,37.82888],[-121.89658,37.88651],[-121.87693,37.90406],[-121.80653,37.96677],[-121.76989,37.99941],[-121.72465,38.03963],[-121.64875,38.10699]],"type":"LineString"}
}
