{
  "id": 2014682479,
  "type": "Feature",
  "properties": {
    "geom:area": 0,
    "geom:bbox": "-122.360190,36.718690,-121.876090,37.613930",
    "geom:latitude": 37.21450465153535,
    "geom:longitude": -122.069990239985,
    "src:alt_label": "swim-approach",
    "src:geom": "swim",
    "swim:elevations": [
      5054,
      4708,
      4454,
      4060,
      3740,
      3466,
      3345,
      3175,
      2979,
      2886,
      2800,
      2739,
      2437,
      2438,
      2438,
      2438,
      2131,
      1918,
      1737,
      1689,
      1436,
      1124,
      908,
      830,
      682,
      571,
      443,
      299,
      260,
      91,
      0
    ],
    "swim:geom": "approach",
    "swim:timestamps": [
      1769927176,
      1769927207,
      1769927234,
      1769927273,
      1769927303,
      1769927337,
      1769927356,
      1769927374,
      1769927424,
      1769927439,
      1769927451,
      1769927460,
      1769927512,
      1769927548,
      1769927557,
      1769927590,
      1769927627,
      1769927651,
      1769927695,
      1769927704,
      1769927743,
      1769927778,
      1769927811,
      1769927845,
      1769927875,
      1769927899,
      1769927923,
      1769927960,
      1769927972,
      1769928024,
      1769928045
    ],
    "wof:geomhash": "9ad6c3cdf9a37c42bb71926acc65e446",
    "wof:id": 2014682479,
    "wof:repo": "sfomuseum-data-flights-2026-01"
  },
  "bbox": [
    -122.36019,
    36.71869,
    -121.87609,
    37.61393
  ],
  "geometry": {"coordinates":[[-121.87609,36.71869],[-121.90154,36.76814],[-121.91399,36.81292],[-121.9319,36.87589],[-121.94539,36.92373],[-121.96274,36.97672],[-121.97317,37.00287],[-121.98315,37.02815],[-122.00928,37.09596],[-122.01641,37.11433],[-122.02201,37.12872],[-122.02623,37.13944],[-122.05005,37.20004],[-122.06596,37.24112],[-122.07003,37.25132],[-122.08489,37.28911],[-122.10095,37.32965],[-122.1116,37.35663],[-122.13006,37.40846],[-122.13367,37.41892],[-122.1489,37.46301],[-122.16152,37.50188],[-122.17298,37.53666],[-122.19546,37.56253],[-122.22626,37.57184],[-122.25053,37.57953],[-122.27278,37.58593],[-122.30251,37.59451],[-122.31103,37.59709],[-122.34699,37.60924],[-122.36019,37.61393]],"type":"LineString"}
}
