{
  "id": 2014682047,
  "type": "Feature",
  "properties": {
    "geom:area": 0,
    "geom:bbox": "-122.354400,37.491300,-121.265640,37.612320",
    "geom:latitude": 37.545827529142336,
    "geom:longitude": -121.81483738885598,
    "src:alt_label": "swim-approach",
    "src:geom": "swim",
    "swim:elevations": [
      4997,
      4769,
      4704,
      4362,
      3784,
      3584,
      3348,
      3185,
      3123,
      2865,
      2741,
      2559,
      2112,
      2041,
      1946,
      1809,
      1637,
      1398,
      1222,
      853,
      782,
      482,
      396,
      211,
      64,
      35
    ],
    "swim:geom": "approach",
    "swim:timestamps": [
      1769857655,
      1769857675,
      1769857681,
      1769857712,
      1769857768,
      1769857788,
      1769857825,
      1769857852,
      1769857861,
      1769857912,
      1769857936,
      1769857963,
      1769858033,
      1769858053,
      1769858076,
      1769858113,
      1769858143,
      1769858181,
      1769858212,
      1769858272,
      1769858282,
      1769858333,
      1769858346,
      1769858392,
      1769858426,
      1769858430
    ],
    "wof:geomhash": "963e967902a50fddc65a4f8ded91bcc5",
    "wof:id": 2014682047,
    "wof:repo": "sfomuseum-data-flights-2026-01"
  },
  "bbox": [
    -122.3544,
    37.4913,
    -121.26564,
    37.61232
  ],
  "geometry": {"coordinates":[[-121.26564,37.59234],[-121.30621,37.58737],[-121.31824,37.58608],[-121.37989,37.57938],[-121.48892,37.56671],[-121.52521,37.56238],[-121.58923,37.55489],[-121.63234,37.54878],[-121.64501,37.54572],[-121.71791,37.52847],[-121.75001,37.52115],[-121.78534,37.51265],[-121.88124,37.4913],[-121.90964,37.49192],[-121.94112,37.4927],[-121.99055,37.49572],[-122.02764,37.50745],[-122.07618,37.52324],[-122.11531,37.53604],[-122.19289,37.56104],[-122.20555,37.56498],[-122.26859,37.58513],[-122.28297,37.589],[-122.32519,37.60136],[-122.3512,37.61103],[-122.3544,37.61232]],"type":"LineString"}
}
