{
  "id": 2014683187,
  "type": "Feature",
  "properties": {
    "geom:area": 0,
    "geom:bbox": "-122.365000,37.630330,-121.263060,37.962330",
    "geom:latitude": 37.836686502104165,
    "geom:longitude": -121.82880751878417,
    "src:alt_label": "swim-takeoff",
    "src:geom": "swim",
    "swim:elevations": [
      152,
      318,
      633,
      665,
      845,
      1331,
      1768,
      1979,
      2433,
      2804,
      3278,
      3624,
      3935,
      4116,
      4209,
      4309,
      4471,
      4747,
      4809,
      5041,
      5437,
      5641,
      5800,
      6059
    ],
    "swim:geom": "takeoff",
    "swim:timestamps": [
      1769846901,
      1769846912,
      1769846953,
      1769846957,
      1769846976,
      1769847020,
      1769847051,
      1769847066,
      1769847100,
      1769847129,
      1769847170,
      1769847203,
      1769847229,
      1769847265,
      1769847288,
      1769847311,
      1769847333,
      1769847365,
      1769847371,
      1769847393,
      1769847446,
      1769847468,
      1769847488,
      1769847519
    ],
    "wof:geomhash": "9d0051425d109beae77860136b23676a",
    "wof:id": 2014683187,
    "wof:repo": "sfomuseum-data-flights-2026-01"
  },
  "bbox": [
    -122.365,
    37.63033,
    -121.26306,
    37.96233
  ],
  "geometry": {"coordinates":[[-122.365,37.63033],[-122.3589,37.63814],[-122.32158,37.65943],[-122.31717,37.66183],[-122.29471,37.67439],[-122.24087,37.70399],[-122.19859,37.72515],[-122.17818,37.73572],[-122.13164,37.76035],[-122.09006,37.78209],[-122.02992,37.8129],[-121.97539,37.83134],[-121.92836,37.84035],[-121.8584,37.85331],[-121.80996,37.86215],[-121.75875,37.87149],[-121.7092,37.88059],[-121.63367,37.89459],[-121.61939,37.89723],[-121.56625,37.90705],[-121.44062,37.93006],[-121.38589,37.94011],[-121.33807,37.94879],[-121.26306,37.96233]],"type":"LineString"}
}
