{
  "id": 2014686071,
  "type": "Feature",
  "properties": {
    "geom:area": 0,
    "geom:bbox": "-122.364610,37.630860,-122.113850,38.509600",
    "geom:latitude": 38.03649115412486,
    "geom:longitude": -122.17835631698307,
    "src:alt_label": "swim-takeoff",
    "src:geom": "swim",
    "swim:elevations": [
      305,
      608,
      722,
      1006,
      1152,
      1359,
      1798,
      2259,
      2615,
      3062,
      3318,
      3482,
      3808,
      4310,
      4431,
      4865,
      5234,
      5384,
      5516,
      5787,
      6223,
      6385,
      6470
    ],
    "swim:geom": "takeoff",
    "swim:timestamps": [
      1769887160,
      1769887181,
      1769887189,
      1769887219,
      1769887248,
      1769887283,
      1769887317,
      1769887348,
      1769887373,
      1769887402,
      1769887436,
      1769887461,
      1769887486,
      1769887525,
      1769887534,
      1769887582,
      1769887615,
      1769887633,
      1769887655,
      1769887682,
      1769887728,
      1769887750,
      1769887759
    ],
    "wof:geomhash": "b6f8fa0aefa6e9444b22f1d834380f07",
    "wof:id": 2014686071,
    "wof:repo": "sfomuseum-data-flights-2026-01"
  },
  "bbox": [
    -122.36461,
    37.63086,
    -122.11385,
    38.5096
  ],
  "geometry": {"coordinates":[[-122.36461,37.63086],[-122.35161,37.64232],[-122.34561,37.64586],[-122.32199,37.65854],[-122.29662,37.67286],[-122.25804,37.6953],[-122.21718,37.72343],[-122.20754,37.76358],[-122.20131,37.79876],[-122.19463,37.83864],[-122.18615,37.89043],[-122.17905,37.93369],[-122.17183,37.97726],[-122.16037,38.0468],[-122.15768,38.06306],[-122.14289,38.15208],[-122.13231,38.21575],[-122.12653,38.25096],[-122.11941,38.29443],[-122.11385,38.3492],[-122.12002,38.44486],[-122.12321,38.49051],[-122.12449,38.5096]],"type":"LineString"}
}
