{
  "id": 2014682487,
  "type": "Feature",
  "properties": {
    "geom:area": 0,
    "geom:bbox": "-122.357610,36.721200,-121.877700,37.613700",
    "geom:latitude": 37.215636307727884,
    "geom:longitude": -122.06996254188958,
    "src:alt_label": "swim-approach",
    "src:geom": "swim",
    "swim:elevations": [
      5515,
      5390,
      4995,
      4729,
      4385,
      4011,
      3805,
      3499,
      3189,
      3077,
      3002,
      2853,
      2668,
      2474,
      2215,
      2113,
      2008,
      1820,
      1792,
      1645,
      1488,
      1395,
      1109,
      953,
      825,
      699,
      582,
      487,
      302,
      164,
      52,
      0
    ],
    "swim:geom": "approach",
    "swim:timestamps": [
      1769928147,
      1769928165,
      1769928201,
      1769928227,
      1769928260,
      1769928296,
      1769928317,
      1769928346,
      1769928382,
      1769928418,
      1769928438,
      1769928459,
      1769928486,
      1769928513,
      1769928554,
      1769928577,
      1769928594,
      1769928618,
      1769928624,
      1769928648,
      1769928681,
      1769928698,
      1769928744,
      1769928771,
      1769928789,
      1769928812,
      1769928836,
      1769928855,
      1769928894,
      1769928927,
      1769928957,
      1769928964
    ],
    "wof:geomhash": "38e80ce62a178d1eed20e432dce25c8b",
    "wof:id": 2014682487,
    "wof:repo": "sfomuseum-data-flights-2026-01"
  },
  "bbox": [
    -122.35761,
    36.7212,
    -121.8777,
    37.6137
  ],
  "geometry": {"coordinates":[[-121.8777,36.7212],[-121.89406,36.74957],[-121.91346,36.8104],[-121.9254,36.85343],[-121.94098,36.90915],[-121.95957,36.96799],[-121.97238,37.00143],[-121.99006,37.04671],[-122.01102,37.1004],[-122.03069,37.15078],[-122.04082,37.1768],[-122.0513,37.20336],[-122.06411,37.23617],[-122.07717,37.26906],[-122.09627,37.31793],[-122.10627,37.34344],[-122.11369,37.36212],[-122.1237,37.38867],[-122.12584,37.39538],[-122.13479,37.42179],[-122.14701,37.45724],[-122.1529,37.47557],[-122.16878,37.52414],[-122.17854,37.55124],[-122.19484,37.5632],[-122.22121,37.57037],[-122.24748,37.57856],[-122.26652,37.58454],[-122.30258,37.59526],[-122.32925,37.60329],[-122.35239,37.61148],[-122.35761,37.6137]],"type":"LineString"}
}
