{
  "id": 2014682807,
  "type": "Feature",
  "properties": {
    "geom:area": 0,
    "geom:bbox": "-123.505560,37.259640,-122.114090,37.605700",
    "geom:latitude": 37.355795968668225,
    "geom:longitude": -122.70222741912562,
    "src:alt_label": "swim-approach",
    "src:geom": "swim",
    "swim:elevations": [
      5227,
      5095,
      4988,
      4685,
      4309,
      3968,
      3649,
      3378,
      3262,
      3174,
      3044,
      3048,
      3048,
      3048,
      3048,
      3048,
      3039,
      2942,
      2737,
      2652,
      2625,
      2442,
      2438,
      2438,
      2447,
      2286,
      2016,
      1742,
      1626,
      1345,
      1257,
      853,
      759,
      513,
      439,
      244,
      100,
      90
    ],
    "swim:geom": "approach",
    "swim:timestamps": [
      1769883940,
      1769883952,
      1769883964,
      1769883997,
      1769884036,
      1769884074,
      1769884108,
      1769884135,
      1769884159,
      1769884189,
      1769884226,
      1769884252,
      1769884285,
      1769884317,
      1769884337,
      1769884364,
      1769884396,
      1769884417,
      1769884450,
      1769884468,
      1769884471,
      1769884507,
      1769884546,
      1769884576,
      1769884598,
      1769884635,
      1769884672,
      1769884706,
      1769884730,
      1769884766,
      1769884775,
      1769884820,
      1769884832,
      1769884881,
      1769884900,
      1769884944,
      1769884977,
      1769884981
    ],
    "wof:geomhash": "58f94b42f4aa321b0f79a4c2f47e916d",
    "wof:id": 2014682807,
    "wof:repo": "sfomuseum-data-flights-2026-01"
  },
  "bbox": [
    -123.50556,
    37.25964,
    -122.11409,
    37.6057
  ],
  "geometry": {"coordinates":[[-123.50556,37.30229],[-123.47773,37.30035],[-123.45043,37.29854],[-123.37543,37.29349],[-123.28782,37.28751],[-123.20393,37.28182],[-123.12843,37.27645],[-123.06955,37.27238],[-123.01829,37.26882],[-122.95931,37.26461],[-122.88832,37.25964],[-122.83935,37.26349],[-122.77721,37.27758],[-122.71901,37.29135],[-122.68108,37.30026],[-122.63082,37.31199],[-122.57556,37.32483],[-122.54083,37.33288],[-122.48674,37.34523],[-122.45773,37.35187],[-122.45288,37.35299],[-122.3952,37.36632],[-122.33488,37.3802],[-122.2889,37.39106],[-122.25644,37.39896],[-122.20357,37.41201],[-122.15352,37.42615],[-122.12711,37.45909],[-122.11409,37.48469],[-122.13161,37.51709],[-122.14239,37.52094],[-122.19539,37.54321],[-122.20892,37.54893],[-122.25803,37.5695],[-122.27666,37.57753],[-122.31429,37.59318],[-122.34092,37.60434],[-122.34414,37.6057]],"type":"LineString"}
}
