{
  "id": 2014679593,
  "type": "Feature",
  "properties": {
    "geom:area": 0,
    "geom:bbox": "-122.361010,37.491370,-121.249140,37.615240",
    "geom:latitude": 37.54703298660102,
    "geom:longitude": -121.81004499681825,
    "src:alt_label": "swim-approach",
    "src:geom": "swim",
    "swim:elevations": [
      4868,
      4709,
      4513,
      4247,
      4040,
      3834,
      3379,
      3274,
      3141,
      3018,
      2873,
      2590,
      2532,
      2196,
      2071,
      1974,
      1829,
      1862,
      1624,
      1360,
      1289,
      1021,
      839,
      782,
      752,
      569,
      549,
      486,
      369,
      227,
      146,
      78,
      0
    ],
    "swim:geom": "approach",
    "swim:timestamps": [
      1769895354,
      1769895372,
      1769895390,
      1769895413,
      1769895431,
      1769895451,
      1769895508,
      1769895535,
      1769895567,
      1769895593,
      1769895616,
      1769895655,
      1769895664,
      1769895716,
      1769895736,
      1769895748,
      1769895778,
      1769895791,
      1769895829,
      1769895860,
      1769895870,
      1769895924,
      1769895954,
      1769895967,
      1769895988,
      1769896018,
      1769896039,
      1769896072,
      1769896099,
      1769896129,
      1769896144,
      1769896168,
      1769896187
    ],
    "wof:geomhash": "9cb0b0f787356cedcafd180473f54ec2",
    "wof:id": 2014679593,
    "wof:repo": "sfomuseum-data-flights-2026-01"
  },
  "bbox": [
    -122.36101,
    37.49137,
    -121.24914,
    37.61524
  ],
  "geometry": {"coordinates":[[-121.24914,37.59488],[-121.28384,37.59026],[-121.31875,37.58622],[-121.36419,37.58122],[-121.39824,37.57726],[-121.43546,37.57304],[-121.54475,37.56042],[-121.59314,37.55466],[-121.64551,37.54581],[-121.68373,37.53666],[-121.71862,37.52834],[-121.77597,37.51465],[-121.789,37.51156],[-121.86229,37.49392],[-121.89169,37.49137],[-121.90922,37.49178],[-121.95248,37.49302],[-121.96994,37.49351],[-122.01918,37.50523],[-122.05557,37.5168],[-122.06647,37.52028],[-122.12136,37.53804],[-122.1519,37.54786],[-122.165,37.55209],[-122.1863,37.55892],[-122.21663,37.56875],[-122.23731,37.5754],[-122.26752,37.58502],[-122.29023,37.5916],[-122.3151,37.59864],[-122.32748,37.60209],[-122.34668,37.60919],[-122.36101,37.61524]],"type":"LineString"}
}
