{
  "id": 2014682477,
  "type": "Feature",
  "properties": {
    "geom:area": 0,
    "geom:bbox": "-122.803940,37.439920,-122.137260,38.511920",
    "geom:latitude": 37.84200317828997,
    "geom:longitude": -122.50982787148165,
    "src:alt_label": "swim-approach",
    "src:geom": "swim",
    "swim:elevations": [
      8931,
      8451,
      8199,
      7793,
      7553,
      7203,
      6904,
      6524,
      6193,
      5895,
      5734,
      5339,
      5202,
      5042,
      4506,
      4140,
      3941,
      3668,
      3459,
      3355,
      3353,
      3351,
      3348,
      3231,
      3036,
      2904,
      2719,
      2434,
      2080,
      1937,
      1634,
      1498,
      1217,
      1158,
      945,
      914,
      753,
      734,
      640,
      396,
      351,
      219,
      113,
      331
    ],
    "swim:geom": "approach",
    "swim:timestamps": [
      1769879083,
      1769879123,
      1769879149,
      1769879185,
      1769879206,
      1769879237,
      1769879264,
      1769879302,
      1769879330,
      1769879356,
      1769879370,
      1769879408,
      1769879417,
      1769879433,
      1769879478,
      1769879511,
      1769879528,
      1769879560,
      1769879597,
      1769879636,
      1769879657,
      1769879678,
      1769879722,
      1769879753,
      1769879784,
      1769879797,
      1769879824,
      1769879860,
      1769879906,
      1769879923,
      1769879961,
      1769879980,
      1769880025,
      1769880045,
      1769880088,
      1769880098,
      1769880148,
      1769880161,
      1769880196,
      1769880237,
      1769880245,
      1769880277,
      1769880308,
      1769880337
    ],
    "wof:geomhash": "e5996c643942aae6a986080766e87ac1",
    "wof:id": 2014682477,
    "wof:repo": "sfomuseum-data-flights-2026-01"
  },
  "bbox": [
    -122.80394,
    37.43992,
    -122.13726,
    38.51192
  ],
  "geometry": {"coordinates":[[-122.80394,38.51192],[-122.79521,38.4403],[-122.78931,38.39608],[-122.78159,38.33532],[-122.77685,38.30041],[-122.77081,38.25069],[-122.76244,38.2072],[-122.74525,38.14785],[-122.73289,38.10512],[-122.72157,38.06633],[-122.71539,38.0451],[-122.69898,37.98892],[-122.69515,37.97558],[-122.68849,37.95258],[-122.65982,37.88741],[-122.61871,37.84797],[-122.5971,37.82751],[-122.55826,37.7911],[-122.51696,37.75196],[-122.47869,37.71548],[-122.45808,37.69639],[-122.43958,37.67907],[-122.39829,37.64018],[-122.37008,37.61362],[-122.34877,37.58461],[-122.34285,37.57164],[-122.32991,37.54487],[-122.30918,37.51112],[-122.27954,37.47077],[-122.25985,37.46296],[-122.21252,37.44666],[-122.18878,37.43992],[-122.14492,37.46648],[-122.13726,37.48653],[-122.15565,37.52479],[-122.16267,37.53302],[-122.21244,37.55098],[-122.22505,37.55577],[-122.25448,37.56871],[-122.28659,37.58384],[-122.2925,37.58646],[-122.31706,37.59674],[-122.3408,37.60663],[-122.3604,37.6153]],"type":"LineString"}
}
