{
  "id": 2014686029,
  "type": "Feature",
  "properties": {
    "geom:area": 0,
    "geom:bbox": "-122.365140,37.634750,-121.246900,38.424800",
    "geom:latitude": 38.0391078645161,
    "geom:longitude": -121.81460607244485,
    "src:alt_label": "swim-takeoff",
    "src:geom": "swim",
    "swim:elevations": [
      244,
      305,
      396,
      825,
      1039,
      1078,
      1233,
      1939,
      2550,
      2958,
      3236,
      3255,
      3543,
      3785,
      4089,
      4527,
      4810,
      4993,
      5375,
      5573,
      5792,
      6006,
      6252,
      6441,
      6553
    ],
    "swim:geom": "takeoff",
    "swim:timestamps": [
      1769859593,
      1769859598,
      1769859605,
      1769859654,
      1769859685,
      1769859698,
      1769859720,
      1769859777,
      1769859825,
      1769859861,
      1769859895,
      1769859901,
      1769859957,
      1769859984,
      1769860015,
      1769860070,
      1769860101,
      1769860117,
      1769860151,
      1769860181,
      1769860217,
      1769860249,
      1769860288,
      1769860315,
      1769860331
    ],
    "wof:geomhash": "9d31e1cdcb08f6167d8d742b2d3d6cbf",
    "wof:id": 2014686029,
    "wof:repo": "sfomuseum-data-flights-2026-01"
  },
  "bbox": [
    -122.36514,
    37.63475,
    -121.2469,
    38.4248
  ],
  "geometry": {"coordinates":[[-122.36514,37.63475],[-122.36308,37.63758],[-122.35802,37.64187],[-122.31559,37.66357],[-122.28694,37.6793],[-122.27296,37.68693],[-122.2464,37.70094],[-122.18512,37.75047],[-122.13741,37.80231],[-122.10102,37.84266],[-122.06473,37.88221],[-122.05776,37.88796],[-121.96682,37.94882],[-121.9195,37.98144],[-121.86592,38.01785],[-121.76296,38.08652],[-121.70413,38.12588],[-121.67221,38.14729],[-121.6085,38.18935],[-121.55056,38.22852],[-121.481,38.27542],[-121.41864,38.31705],[-121.33864,38.36888],[-121.28062,38.40427],[-121.2469,38.4248]],"type":"LineString"}
}
