{
  "id": 2014682431,
  "type": "Feature",
  "properties": {
    "geom:area": 0,
    "geom:bbox": "-122.356260,36.743770,-121.891940,37.610810",
    "geom:latitude": 37.219499438372104,
    "geom:longitude": -122.07380320477839,
    "src:alt_label": "swim-approach",
    "src:geom": "swim",
    "swim:elevations": [
      5205,
      4898,
      4841,
      4570,
      4178,
      3897,
      3703,
      3595,
      3422,
      3301,
      3130,
      3067,
      2764,
      2620,
      2461,
      2342,
      2075,
      1888,
      1677,
      1658,
      1329,
      1149,
      983,
      843,
      793,
      614,
      488,
      423,
      274,
      229,
      121,
      27
    ],
    "swim:geom": "approach",
    "swim:timestamps": [
      1769887007,
      1769887045,
      1769887057,
      1769887084,
      1769887129,
      1769887165,
      1769887189,
      1769887204,
      1769887228,
      1769887248,
      1769887283,
      1769887293,
      1769887336,
      1769887373,
      1769887406,
      1769887427,
      1769887464,
      1769887486,
      1769887525,
      1769887537,
      1769887585,
      1769887612,
      1769887643,
      1769887670,
      1769887694,
      1769887719,
      1769887741,
      1769887759,
      1769887795,
      1769887813,
      1769887843,
      1769887870
    ],
    "wof:geomhash": "7151bc3ec4f2326a9a510a8d5113e67f",
    "wof:id": 2014682431,
    "wof:repo": "sfomuseum-data-flights-2026-01"
  },
  "bbox": [
    -122.35626,
    36.74377,
    -121.89194,
    37.61081
  ],
  "geometry": {"coordinates":[[-121.89194,36.74377],[-121.91307,36.80695],[-121.91826,36.82551],[-121.93028,36.86862],[-121.9497,36.93936],[-121.96893,36.99258],[-121.98149,37.02689],[-121.98991,37.04795],[-122.00309,37.0807],[-122.01321,37.10639],[-122.03143,37.15146],[-122.03609,37.16333],[-122.05732,37.218],[-122.07452,37.26352],[-122.08879,37.30088],[-122.09865,37.32445],[-122.11468,37.36553],[-122.12382,37.38891],[-122.13746,37.42922],[-122.14152,37.44057],[-122.1597,37.48281],[-122.17511,37.50457],[-122.19095,37.52723],[-122.20564,37.54567],[-122.22459,37.55522],[-122.24461,37.56328],[-122.2621,37.57069],[-122.27545,37.57647],[-122.302,37.58782],[-122.31504,37.59314],[-122.3369,37.60276],[-122.35626,37.61081]],"type":"LineString"}
}
