{
  "id": 2014682299,
  "type": "Feature",
  "properties": {
    "geom:area": 0,
    "geom:bbox": "-122.360490,37.491350,-121.247930,37.614480",
    "geom:latitude": 37.5470225814997,
    "geom:longitude": -121.80907851866787,
    "src:alt_label": "swim-approach",
    "src:geom": "swim",
    "swim:elevations": [
      4805,
      4679,
      4333,
      4206,
      3927,
      3732,
      3561,
      3466,
      3424,
      3342,
      3264,
      3164,
      2981,
      2789,
      2689,
      2528,
      2389,
      2205,
      2134,
      2091,
      1920,
      1687,
      1626,
      1360,
      1341,
      1261,
      1129,
      1000,
      834,
      671,
      571,
      391,
      246,
      146,
      0
    ],
    "swim:geom": "approach",
    "swim:timestamps": [
      1769849994,
      1769850007,
      1769850041,
      1769850053,
      1769850083,
      1769850114,
      1769850145,
      1769850172,
      1769850182,
      1769850201,
      1769850216,
      1769850233,
      1769850263,
      1769850290,
      1769850304,
      1769850332,
      1769850360,
      1769850402,
      1769850413,
      1769850422,
      1769850462,
      1769850507,
      1769850515,
      1769850566,
      1769850572,
      1769850585,
      1769850611,
      1769850638,
      1769850674,
      1769850706,
      1769850732,
      1769850771,
      1769850804,
      1769850831,
      1769850863
    ],
    "wof:geomhash": "c9abe6a36d4c518fd2681d626fef7fc8",
    "wof:id": 2014682299,
    "wof:repo": "sfomuseum-data-flights-2026-01"
  },
  "bbox": [
    -122.36049,
    37.49135,
    -121.24793,
    37.61448
  ],
  "geometry": {"coordinates":[[-121.24793,37.59485],[-121.27234,37.59159],[-121.33944,37.58393],[-121.36259,37.58146],[-121.41918,37.57472],[-121.47615,37.56752],[-121.52821,37.56135],[-121.57013,37.5569],[-121.58439,37.55535],[-121.61246,37.55231],[-121.63299,37.54907],[-121.65535,37.54367],[-121.69451,37.53457],[-121.73012,37.52638],[-121.74782,37.52201],[-121.78516,37.51262],[-121.82235,37.50349],[-121.87838,37.49167],[-121.8939,37.49135],[-121.90685,37.49182],[-121.96202,37.49326],[-122.01627,37.50411],[-122.025,37.50691],[-122.08217,37.52523],[-122.08875,37.5274],[-122.10311,37.53213],[-122.13153,37.54129],[-122.16015,37.5503],[-122.19467,37.5615],[-122.22527,37.57139],[-122.24948,37.57937],[-122.28458,37.58904],[-122.31241,37.59803],[-122.33477,37.60475],[-122.36049,37.61448]],"type":"LineString"}
}
