{
  "id": 2014680713,
  "type": "Feature",
  "properties": {
    "geom:area": 0,
    "geom:bbox": "-122.790220,37.551700,-122.108900,38.473360",
    "geom:latitude": 37.876544921150945,
    "geom:longitude": -122.4998991884969,
    "src:alt_label": "swim-approach",
    "src:geom": "swim",
    "swim:elevations": [
      8534,
      8284,
      8003,
      7672,
      7390,
      7168,
      6668,
      6240,
      6027,
      5617,
      5538,
      5090,
      4695,
      4670,
      4382,
      4057,
      3814,
      3561,
      3413,
      3283,
      2996,
      2948,
      2698,
      2494,
      2157,
      1829,
      1829,
      1479,
      1396,
      1148,
      1035,
      976,
      895,
      775,
      617,
      427,
      302,
      173,
      121,
      0
    ],
    "swim:geom": "approach",
    "swim:timestamps": [
      1769898298,
      1769898321,
      1769898345,
      1769898375,
      1769898399,
      1769898421,
      1769898466,
      1769898505,
      1769898525,
      1769898567,
      1769898577,
      1769898617,
      1769898652,
      1769898655,
      1769898682,
      1769898713,
      1769898737,
      1769898761,
      1769898785,
      1769898818,
      1769898866,
      1769898872,
      1769898896,
      1769898914,
      1769898942,
      1769898987,
      1769898999,
      1769899045,
      1769899057,
      1769899105,
      1769899138,
      1769899162,
      1769899189,
      1769899224,
      1769899246,
      1769899278,
      1769899305,
      1769899342,
      1769899357,
      1769899384
    ],
    "wof:geomhash": "878d471d82d0764c5a922b1932a553aa",
    "wof:id": 2014680713,
    "wof:repo": "sfomuseum-data-flights-2026-01"
  },
  "bbox": [
    -122.79022,
    37.5517,
    -122.1089,
    38.47336
  ],
  "geometry": {"coordinates":[[-122.79022,38.47336],[-122.78655,38.43446],[-122.78253,38.39461],[-122.7779,38.34419],[-122.7748,38.30449],[-122.77162,38.26872],[-122.75985,38.19823],[-122.74294,38.1394],[-122.73433,38.10977],[-122.71632,38.04847],[-122.71246,38.0351],[-122.69557,37.97649],[-122.68025,37.92344],[-122.67887,37.91906],[-122.65586,37.88311],[-122.61688,37.84606],[-122.58709,37.81786],[-122.55748,37.79013],[-122.52862,37.7628],[-122.48523,37.73306],[-122.40626,37.71701],[-122.39682,37.7152],[-122.35927,37.70806],[-122.33117,37.70268],[-122.28771,37.6929],[-122.2221,37.66718],[-122.20652,37.65933],[-122.15015,37.63061],[-122.13602,37.62324],[-122.1089,37.58177],[-122.13076,37.55272],[-122.16139,37.5517],[-122.19325,37.56123],[-122.22894,37.57295],[-122.24967,37.57924],[-122.27789,37.5871],[-122.29999,37.59374],[-122.32906,37.6033],[-122.33992,37.60673],[-122.35906,37.6145]],"type":"LineString"}
}
