{
  "id": 2014685985,
  "type": "Feature",
  "properties": {
    "geom:area": 0,
    "geom:bbox": "-122.363180,37.635800,-121.263450,38.413790",
    "geom:latitude": 38.033726620932164,
    "geom:longitude": -121.82166238662707,
    "src:alt_label": "swim-takeoff",
    "src:geom": "swim",
    "swim:elevations": [
      340,
      602,
      933,
      990,
      1084,
      1283,
      1705,
      1886,
      2625,
      2729,
      2822,
      3221,
      3579,
      3929,
      4206,
      4266,
      4456,
      5114,
      5277,
      5604,
      5928,
      6186,
      6530,
      6655,
      7027,
      7374,
      7465,
      7822,
      7977
    ],
    "swim:geom": "takeoff",
    "swim:timestamps": [
      1769850356,
      1769850373,
      1769850407,
      1769850413,
      1769850429,
      1769850458,
      1769850504,
      1769850522,
      1769850566,
      1769850572,
      1769850578,
      1769850607,
      1769850647,
      1769850683,
      1769850706,
      1769850712,
      1769850727,
      1769850774,
      1769850784,
      1769850823,
      1769850858,
      1769850890,
      1769850924,
      1769850935,
      1769850972,
      1769851008,
      1769851020,
      1769851067,
      1769851091
    ],
    "wof:geomhash": "6a9c9975b83ab37506f69b3bc0363c14",
    "wof:id": 2014685985,
    "wof:repo": "sfomuseum-data-flights-2026-01"
  },
  "bbox": [
    -122.36318,
    37.6358,
    -121.26345,
    38.41379
  ],
  "geometry": {"coordinates":[[-122.36318,37.6358],[-122.35162,37.64233],[-122.32855,37.65572],[-122.32449,37.65804],[-122.31316,37.6643],[-122.28836,37.67832],[-122.23808,37.70504],[-122.2164,37.71737],[-122.1726,37.76421],[-122.16689,37.77067],[-122.16097,37.77718],[-122.1314,37.80966],[-122.08668,37.85921],[-122.03514,37.90248],[-121.99608,37.92885],[-121.98587,37.93576],[-121.96094,37.95281],[-121.87819,38.00865],[-121.86028,38.02068],[-121.7912,38.06782],[-121.72856,38.10975],[-121.66709,38.15075],[-121.60048,38.1953],[-121.57971,38.2092],[-121.506,38.25835],[-121.43622,38.30491],[-121.41168,38.32121],[-121.31468,38.38247],[-121.26345,38.41379]],"type":"LineString"}
}
