{
  "id": 2014682777,
  "type": "Feature",
  "properties": {
    "geom:area": 0,
    "geom:bbox": "-123.500570,36.843890,-122.180960,37.610890",
    "geom:latitude": 37.24461758955125,
    "geom:longitude": -122.76931397865951,
    "src:alt_label": "swim-approach",
    "src:geom": "swim",
    "swim:elevations": [
      6031,
      5740,
      5469,
      5060,
      4816,
      4680,
      4313,
      3998,
      3606,
      3264,
      3199,
      3106,
      3048,
      3048,
      3048,
      3048,
      3048,
      3048,
      2985,
      2771,
      2578,
      2439,
      2173,
      2151,
      1983,
      1837,
      1773,
      1447,
      1280,
      1150,
      901,
      739,
      701,
      639,
      457,
      398,
      281,
      210,
      90,
      26
    ],
    "swim:geom": "approach",
    "swim:timestamps": [
      1769847646,
      1769847674,
      1769847715,
      1769847744,
      1769847770,
      1769847783,
      1769847821,
      1769847852,
      1769847893,
      1769847928,
      1769847947,
      1769847980,
      1769848014,
      1769848038,
      1769848074,
      1769848083,
      1769848101,
      1769848130,
      1769848152,
      1769848190,
      1769848220,
      1769848241,
      1769848287,
      1769848290,
      1769848317,
      1769848338,
      1769848351,
      1769848392,
      1769848420,
      1769848451,
      1769848487,
      1769848516,
      1769848554,
      1769848575,
      1769848604,
      1769848623,
      1769848651,
      1769848673,
      1769848706,
      1769848720
    ],
    "wof:geomhash": "fb47c0d8c699cf168e71da7bd8d32e5d",
    "wof:id": 2014682777,
    "wof:repo": "sfomuseum-data-flights-2026-01"
  },
  "bbox": [
    -123.50057,
    36.84389,
    -122.18096,
    37.61089
  ],
  "geometry": {"coordinates":[[-123.50057,36.84389],[-123.44695,36.87945],[-123.36788,36.93165],[-123.31397,36.9665],[-123.26622,36.99721],[-123.24063,37.01388],[-123.17149,37.05868],[-123.11541,37.09504],[-123.04245,37.14217],[-122.98277,37.18061],[-122.95066,37.20132],[-122.89734,37.23566],[-122.84255,37.26181],[-122.80154,37.27207],[-122.74173,37.28613],[-122.7271,37.28954],[-122.69606,37.29669],[-122.64881,37.30767],[-122.61142,37.31635],[-122.54728,37.33115],[-122.49816,37.34264],[-122.46338,37.35063],[-122.38914,37.36778],[-122.38441,37.36887],[-122.34182,37.37872],[-122.30866,37.38616],[-122.28883,37.39071],[-122.22875,37.4086],[-122.20833,37.43647],[-122.19284,37.46751],[-122.18096,37.50048],[-122.19445,37.52541],[-122.22203,37.55213],[-122.23992,37.56263],[-122.26823,37.57322],[-122.28477,37.58029],[-122.3056,37.5894],[-122.32193,37.59637],[-122.34674,37.60676],[-122.35635,37.61089]],"type":"LineString"}
}
