{
  "id": 2014682473,
  "type": "Feature",
  "properties": {
    "geom:area": 0,
    "geom:bbox": "-122.358710,36.740700,-121.889580,37.611910",
    "geom:latitude": 37.2186974022445,
    "geom:longitude": -122.07375900046318,
    "src:alt_label": "swim-approach",
    "src:geom": "swim",
    "swim:elevations": [
      5393,
      5267,
      4869,
      4559,
      4369,
      4280,
      4026,
      3544,
      3357,
      3141,
      3080,
      3047,
      2921,
      2842,
      2528,
      2328,
      2163,
      2078,
      1709,
      1535,
      1394,
      1238,
      916,
      859,
      662,
      556,
      400,
      342,
      197,
      58
    ],
    "swim:geom": "approach",
    "swim:timestamps": [
      1769886928,
      1769886947,
      1769886982,
      1769887017,
      1769887042,
      1769887053,
      1769887087,
      1769887135,
      1769887152,
      1769887171,
      1769887185,
      1769887201,
      1769887224,
      1769887236,
      1769887283,
      1769887314,
      1769887342,
      1769887357,
      1769887402,
      1769887436,
      1769887461,
      1769887480,
      1769887528,
      1769887541,
      1769887585,
      1769887606,
      1769887640,
      1769887652,
      1769887685,
      1769887732
    ],
    "wof:geomhash": "f641133665eaa6dcb7b3c5582f67a410",
    "wof:id": 2014682473,
    "wof:repo": "sfomuseum-data-flights-2026-01"
  },
  "bbox": [
    -122.35871,
    36.7407,
    -121.88958,
    37.61191
  ],
  "geometry": {"coordinates":[[-121.88958,36.7407],[-121.90179,36.76995],[-121.91763,36.82854],[-121.93362,36.88374],[-121.94564,36.92394],[-121.95034,36.94045],[-121.96913,36.99162],[-121.99491,37.0606],[-122.00412,37.08401],[-122.01495,37.11107],[-122.02233,37.12982],[-122.03101,37.15162],[-122.04324,37.18115],[-122.04961,37.19698],[-122.07278,37.25762],[-122.08711,37.29634],[-122.1015,37.33196],[-122.10894,37.35036],[-122.12854,37.40411],[-122.14182,37.44352],[-122.15308,37.4698],[-122.16343,37.48809],[-122.19272,37.53029],[-122.2002,37.54063],[-122.23836,37.56006],[-122.25784,37.56906],[-122.28698,37.58156],[-122.29673,37.58554],[-122.32227,37.59624],[-122.35871,37.61191]],"type":"LineString"}
}
