{
  "id": 2014685949,
  "type": "Feature",
  "properties": {
    "geom:area": 0,
    "geom:bbox": "-122.468670,36.718560,-121.432770,37.709420",
    "geom:latitude": 37.21218744773929,
    "geom:longitude": -122.04884651969486,
    "src:alt_label": "swim-takeoff",
    "src:geom": "swim",
    "swim:elevations": [
      305,
      396,
      1021,
      1169,
      1488,
      2072,
      2595,
      3114,
      3308,
      3639,
      3932,
      4763,
      4833,
      5389,
      5609,
      5946,
      6358,
      6534,
      6932,
      7253,
      7484,
      7813,
      8148,
      8184,
      8767,
      8876,
      9064,
      9364,
      9465,
      9817,
      10028,
      10201,
      10556
    ],
    "swim:geom": "takeoff",
    "swim:timestamps": [
      1769886268,
      1769886278,
      1769886326,
      1769886345,
      1769886380,
      1769886416,
      1769886444,
      1769886472,
      1769886486,
      1769886513,
      1769886542,
      1769886598,
      1769886602,
      1769886640,
      1769886660,
      1769886684,
      1769886715,
      1769886731,
      1769886772,
      1769886808,
      1769886833,
      1769886865,
      1769886895,
      1769886901,
      1769886957,
      1769886968,
      1769886997,
      1769887042,
      1769887053,
      1769887090,
      1769887114,
      1769887141,
      1769887185
    ],
    "wof:geomhash": "12a1cceff04e8abc5429ced0a81d0c2d",
    "wof:id": 2014685949,
    "wof:repo": "sfomuseum-data-flights-2026-01"
  },
  "bbox": [
    -122.46867,
    36.71856,
    -121.43277,
    37.70942
  ],
  "geometry": {"coordinates":[[-122.36467,37.63581],[-122.36398,37.6437],[-122.36164,37.68127],[-122.36737,37.6977],[-122.40921,37.70942],[-122.44146,37.67774],[-122.44574,37.64347],[-122.45106,37.60841],[-122.45429,37.59075],[-122.46212,37.55442],[-122.46867,37.51223],[-122.40643,37.44069],[-122.39993,37.43578],[-122.34284,37.39368],[-122.3123,37.37105],[-122.27576,37.34382],[-122.22747,37.30809],[-122.20376,37.29053],[-122.13744,37.24136],[-122.07813,37.19754],[-122.03647,37.16662],[-121.98288,37.12641],[-121.93145,37.08826],[-121.92129,37.08053],[-121.82743,37.01074],[-121.80846,36.99646],[-121.75841,36.95976],[-121.67939,36.9014],[-121.66107,36.88763],[-121.59603,36.83932],[-121.55601,36.80765],[-121.50965,36.77217],[-121.43277,36.71856]],"type":"LineString"}
}
