{
  "id": 2014685923,
  "type": "Feature",
  "properties": {
    "geom:area": 0,
    "geom:bbox": "-122.366220,37.629140,-121.246900,37.965280",
    "geom:latitude": 37.83813283340593,
    "geom:longitude": -121.82161722414868,
    "src:alt_label": "swim-takeoff",
    "src:geom": "swim",
    "swim:elevations": [
      183,
      362,
      582,
      937,
      1052,
      1208,
      1558,
      2042,
      2285,
      2387,
      2565,
      3130,
      3208,
      3478,
      3939,
      4239,
      4348,
      4686,
      5136,
      5339,
      5687,
      5894,
      6081,
      6227,
      6533,
      6897,
      7049,
      7276
    ],
    "swim:geom": "takeoff",
    "swim:timestamps": [
      1769849696,
      1769849707,
      1769849725,
      1769849752,
      1769849763,
      1769849792,
      1769849831,
      1769849862,
      1769849876,
      1769849883,
      1769849893,
      1769849937,
      1769849949,
      1769849981,
      1769850018,
      1769850044,
      1769850053,
      1769850079,
      1769850114,
      1769850132,
      1769850172,
      1769850193,
      1769850216,
      1769850233,
      1769850263,
      1769850296,
      1769850311,
      1769850332
    ],
    "wof:geomhash": "a63f7356056465e1db15af5638701e96",
    "wof:id": 2014685923,
    "wof:repo": "sfomuseum-data-flights-2026-01"
  },
  "bbox": [
    -122.36622,
    37.62914,
    -121.2469,
    37.96528
  ],
  "geometry": {"coordinates":[[-122.36622,37.62914],[-122.36071,37.63674],[-122.34721,37.64514],[-122.32397,37.65749],[-122.31464,37.66262],[-122.28667,37.6787],[-122.2397,37.7044],[-122.19731,37.72659],[-122.17751,37.73688],[-122.16779,37.74187],[-122.15357,37.74908],[-122.09137,37.78121],[-122.07291,37.79065],[-122.01838,37.81798],[-121.94579,37.83664],[-121.89327,37.84668],[-121.87442,37.85017],[-121.8188,37.86056],[-121.74352,37.87451],[-121.70522,37.88161],[-121.61808,37.89775],[-121.57101,37.90637],[-121.51859,37.91596],[-121.47907,37.92312],[-121.40861,37.93592],[-121.33234,37.94984],[-121.29643,37.95631],[-121.2469,37.96528]],"type":"LineString"}
}
