{
  "id": 2014685209,
  "type": "Feature",
  "properties": {
    "geom:area": 0,
    "geom:bbox": "-123.312810,37.636640,-122.360920,38.511720",
    "geom:latitude": 38.02676352426657,
    "geom:longitude": -122.82988972900928,
    "src:alt_label": "swim-takeoff",
    "src:geom": "swim",
    "swim:elevations": [
      305,
      851,
      981,
      1045,
      1296,
      1500,
      1693,
      2053,
      2602,
      2959,
      3029,
      3375,
      3538,
      3714,
      3861,
      4035,
      4589,
      4936,
      5200,
      5421,
      5540,
      5582,
      6141,
      6331,
      6612,
      6961,
      7130,
      7422,
      7529
    ],
    "swim:geom": "takeoff",
    "swim:timestamps": [
      1769860688,
      1769860738,
      1769860749,
      1769860754,
      1769860797,
      1769860821,
      1769860837,
      1769860860,
      1769860898,
      1769860928,
      1769860945,
      1769860976,
      1769861004,
      1769861032,
      1769861057,
      1769861073,
      1769861121,
      1769861154,
      1769861179,
      1769861200,
      1769861217,
      1769861222,
      1769861277,
      1769861299,
      1769861328,
      1769861366,
      1769861385,
      1769861421,
      1769861437
    ],
    "wof:geomhash": "8367bf89d0bf9959165f7344492bd8e3",
    "wof:id": 2014685209,
    "wof:repo": "sfomuseum-data-flights-2026-01"
  },
  "bbox": [
    -123.31281,
    37.63664,
    -122.36092,
    38.51172
  ],
  "geometry": {"coordinates":[[-122.36092,37.63664],[-122.36324,37.68029],[-122.36234,37.69095],[-122.36211,37.69585],[-122.38744,37.73191],[-122.42394,37.73095],[-122.44477,37.71807],[-122.47138,37.69661],[-122.533,37.69351],[-122.57028,37.72344],[-122.58826,37.74362],[-122.62125,37.78038],[-122.65332,37.81471],[-122.68792,37.85138],[-122.72163,37.8873],[-122.74353,37.91098],[-122.81206,37.98409],[-122.85972,38.03468],[-122.89776,38.07514],[-122.92859,38.10805],[-122.95502,38.13624],[-122.96289,38.14464],[-123.04832,38.23497],[-123.08308,38.27175],[-123.13056,38.32193],[-123.19228,38.38654],[-123.22475,38.42011],[-123.28598,38.48341],[-123.31281,38.51172]],"type":"LineString"}
}
