{
  "id": 2014685869,
  "type": "Feature",
  "properties": {
    "geom:area": 0,
    "geom:bbox": "-122.386140,37.625190,-121.433080,38.516530",
    "geom:latitude": 38.119798184486854,
    "geom:longitude": -122.01504170822385,
    "src:alt_label": "swim-takeoff",
    "src:geom": "swim",
    "swim:elevations": [
      122,
      448,
      840,
      1037,
      1298,
      1560,
      1752,
      2018,
      2424,
      2779,
      3226,
      3454,
      3516,
      3750,
      4033,
      4391,
      4421,
      4961,
      4980,
      5092,
      5245,
      5661,
      5886,
      6118,
      6357,
      6489,
      6690,
      6867,
      7044
    ],
    "swim:geom": "takeoff",
    "swim:timestamps": [
      1769904596,
      1769904616,
      1769904646,
      1769904667,
      1769904708,
      1769904747,
      1769904771,
      1769904792,
      1769904822,
      1769904852,
      1769904894,
      1769904924,
      1769904933,
      1769904969,
      1769905009,
      1769905048,
      1769905051,
      1769905108,
      1769905111,
      1769905123,
      1769905141,
      1769905192,
      1769905222,
      1769905252,
      1769905285,
      1769905308,
      1769905335,
      1769905361,
      1769905382
    ],
    "wof:geomhash": "9805464e9419ad7d53376c8ccf0b588d",
    "wof:id": 2014685869,
    "wof:repo": "sfomuseum-data-flights-2026-01"
  },
  "bbox": [
    -122.38614,
    37.62519,
    -121.43308,
    38.51653
  ],
  "geometry": {"coordinates":[[-122.36831,37.62519],[-122.3563,37.63765],[-122.33634,37.65548],[-122.32253,37.66799],[-122.3124,37.70174],[-122.33284,37.74034],[-122.34778,37.76785],[-122.36052,37.79353],[-122.37915,37.8305],[-122.38614,37.87153],[-122.3809,37.93254],[-122.34379,37.96665],[-122.32947,37.97536],[-122.26766,38.01138],[-122.1976,38.054],[-122.12467,38.09883],[-122.11899,38.10232],[-122.00911,38.16911],[-122.00322,38.17267],[-121.97949,38.18705],[-121.94354,38.20879],[-121.83877,38.272],[-121.77816,38.30836],[-121.71526,38.3461],[-121.64526,38.38808],[-121.59583,38.41757],[-121.53526,38.45375],[-121.47866,38.48843],[-121.43308,38.51653]],"type":"LineString"}
}
