{
  "id": 2014686085,
  "type": "Feature",
  "properties": {
    "geom:area": 0,
    "geom:bbox": "-122.386580,37.631310,-121.305490,37.991210",
    "geom:latitude": 37.93372440718031,
    "geom:longitude": -121.96572843483513,
    "src:alt_label": "swim-takeoff",
    "src:geom": "swim",
    "swim:elevations": [
      213,
      708,
      978,
      1232,
      1498,
      1554,
      2126,
      2719,
      3102,
      3349,
      3599,
      3841,
      4173,
      4522,
      4614,
      4762,
      5047,
      5497,
      5810,
      6007,
      6423,
      6623,
      6877,
      7174,
      7463,
      7545
    ],
    "swim:geom": "takeoff",
    "swim:timestamps": [
      1769904714,
      1769904744,
      1769904771,
      1769904795,
      1769904834,
      1769904840,
      1769904876,
      1769904921,
      1769904946,
      1769904972,
      1769905018,
      1769905039,
      1769905078,
      1769905105,
      1769905114,
      1769905129,
      1769905153,
      1769905198,
      1769905228,
      1769905246,
      1769905288,
      1769905312,
      1769905338,
      1769905371,
      1769905407,
      1769905416
    ],
    "wof:geomhash": "e7d5fa4057302ff8ca3fe893dfec9de6",
    "wof:id": 2014686085,
    "wof:repo": "sfomuseum-data-flights-2026-01"
  },
  "bbox": [
    -122.38658,
    37.63131,
    -121.30549,
    37.99121
  ],
  "geometry": {"coordinates":[[-122.36414,37.63131],[-122.34554,37.65054],[-122.32501,37.66725],[-122.30882,37.68513],[-122.3205,37.72575],[-122.32499,37.73225],[-122.35058,37.77355],[-122.37885,37.83008],[-122.38658,37.86469],[-122.38268,37.90494],[-122.32651,37.96215],[-122.28091,37.96967],[-122.19128,37.97999],[-122.12596,37.98707],[-122.104,37.98808],[-122.0669,37.98842],[-122.00693,37.98885],[-121.89065,37.98969],[-121.81478,37.99006],[-121.76773,37.99027],[-121.65675,37.99069],[-121.59206,37.9908],[-121.51933,37.99097],[-121.4288,37.99114],[-121.32829,37.99121],[-121.30549,37.99121]],"type":"LineString"}
}
