{
  "id": 2014685903,
  "type": "Feature",
  "properties": {
    "geom:area": 0,
    "geom:bbox": "-122.361560,37.636120,-121.350250,38.353520",
    "geom:latitude": 38.00435006859072,
    "geom:longitude": -121.86455724548024,
    "src:alt_label": "swim-takeoff",
    "src:geom": "swim",
    "swim:elevations": [
      378,
      773,
      1185,
      1364,
      1654,
      2151,
      2549,
      2730,
      3203,
      3318,
      3434,
      3573,
      4131,
      4356,
      4811,
      5417,
      5512,
      5884,
      6003,
      6090,
      6303,
      6651,
      6732
    ],
    "swim:geom": "takeoff",
    "swim:timestamps": [
      1769857512,
      1769857552,
      1769857609,
      1769857636,
      1769857668,
      1769857707,
      1769857737,
      1769857751,
      1769857797,
      1769857825,
      1769857849,
      1769857861,
      1769857912,
      1769857936,
      1769857975,
      1769858033,
      1769858045,
      1769858085,
      1769858101,
      1769858113,
      1769858139,
      1769858181,
      1769858197
    ],
    "wof:geomhash": "27b60e47ea6014af8d05312bacbb0951",
    "wof:id": 2014685903,
    "wof:repo": "sfomuseum-data-flights-2026-01"
  },
  "bbox": [
    -122.36156,
    37.63612,
    -121.35025,
    38.35352
  ],
  "geometry": {"coordinates":[[-122.36156,37.63612],[-122.33212,37.65654],[-122.28,37.68411],[-122.24869,37.70063],[-122.21015,37.72239],[-122.17207,37.76484],[-122.14425,37.79656],[-122.12995,37.8122],[-122.08171,37.86579],[-122.04456,37.89717],[-122.00576,37.92345],[-121.98564,37.9369],[-121.89679,37.99577],[-121.85385,38.02454],[-121.7818,38.07321],[-121.67579,38.14474],[-121.65425,38.15921],[-121.57872,38.20986],[-121.54844,38.23005],[-121.52385,38.2465],[-121.47191,38.28121],[-121.38682,38.33453],[-121.35025,38.35352]],"type":"LineString"}
}
