{
  "id": 2014681261,
  "type": "Feature",
  "properties": {
    "geom:area": 0,
    "geom:bbox": "-122.760880,37.554760,-122.122760,38.418060",
    "geom:latitude": 37.879219330197444,
    "geom:longitude": -122.4917962311552,
    "src:alt_label": "swim-approach",
    "src:geom": "swim",
    "swim:elevations": [
      7590,
      7559,
      7324,
      7291,
      7207,
      6965,
      6680,
      6420,
      6210,
      5963,
      5687,
      5404,
      5375,
      5128,
      4686,
      4561,
      4204,
      3945,
      3744,
      3592,
      3391,
      3383,
      3353,
      3312,
      3137,
      2837,
      2538,
      2336,
      2106,
      2057,
      1852,
      1829,
      1621,
      1437,
      1183,
      1034,
      999,
      941,
      648,
      442,
      333,
      203,
      149,
      58,
      0
    ],
    "swim:geom": "approach",
    "swim:timestamps": [
      1769886628,
      1769886632,
      1769886660,
      1769886664,
      1769886677,
      1769886708,
      1769886741,
      1769886775,
      1769886805,
      1769886827,
      1769886860,
      1769886892,
      1769886904,
      1769886932,
      1769886982,
      1769886997,
      1769887042,
      1769887074,
      1769887099,
      1769887129,
      1769887168,
      1769887171,
      1769887189,
      1769887224,
      1769887248,
      1769887283,
      1769887317,
      1769887339,
      1769887373,
      1769887384,
      1769887427,
      1769887445,
      1769887498,
      1769887528,
      1769887553,
      1769887582,
      1769887588,
      1769887600,
      1769887630,
      1769887670,
      1769887694,
      1769887725,
      1769887741,
      1769887763,
      1769887773
    ],
    "wof:geomhash": "15cd134f091fd39378a5fb362755a85e",
    "wof:id": 2014681261,
    "wof:repo": "sfomuseum-data-flights-2026-01"
  },
  "bbox": [
    -122.76088,
    37.55476,
    -122.12276,
    38.41806
  ],
  "geometry": {"coordinates":[[-122.56856,38.41806],[-122.57369,38.41306],[-122.60928,38.37871],[-122.61418,38.37395],[-122.62935,38.35927],[-122.66737,38.32227],[-122.70652,38.28407],[-122.74691,38.24422],[-122.76088,38.20328],[-122.75158,38.17212],[-122.73783,38.12516],[-122.72523,38.07955],[-122.7205,38.06262],[-122.70939,38.02439],[-122.68875,37.95373],[-122.68277,37.93294],[-122.6488,37.87499],[-122.60935,37.83955],[-122.57986,37.8115],[-122.54484,37.77846],[-122.50144,37.73733],[-122.49818,37.73427],[-122.47516,37.72011],[-122.42521,37.70544],[-122.39403,37.69687],[-122.34782,37.68454],[-122.30473,37.67257],[-122.27755,37.66501],[-122.23382,37.65223],[-122.21981,37.64796],[-122.16551,37.63162],[-122.14209,37.62424],[-122.12276,37.57626],[-122.14546,37.55925],[-122.1723,37.55693],[-122.20282,37.55476],[-122.20889,37.55478],[-122.22051,37.55679],[-122.24694,37.56747],[-122.27974,37.58111],[-122.2983,37.58886],[-122.32218,37.5988],[-122.33438,37.60393],[-122.35108,37.61097],[-122.35813,37.61396]],"type":"LineString"}
}
