{
  "id": 2014684217,
  "type": "Feature",
  "properties": {
    "geom:area": 0,
    "geom:bbox": "-122.385950,37.633890,-121.245140,38.426170",
    "geom:latitude": 38.08842169132779,
    "geom:longitude": -121.92341339311676,
    "src:alt_label": "swim-takeoff",
    "src:geom": "swim",
    "swim:elevations": [
      213,
      370,
      746,
      829,
      1445,
      1613,
      1795,
      2349,
      2656,
      2919,
      3225,
      3429,
      3493,
      3624,
      3779,
      4008,
      4332,
      4657,
      4965,
      5233,
      5620,
      6029,
      6176,
      6422,
      6741,
      6878,
      7117,
      7165,
      7382,
      7397
    ],
    "swim:geom": "takeoff",
    "swim:timestamps": [
      1769900093,
      1769900102,
      1769900155,
      1769900167,
      1769900213,
      1769900224,
      1769900236,
      1769900276,
      1769900304,
      1769900325,
      1769900365,
      1769900395,
      1769900404,
      1769900423,
      1769900442,
      1769900461,
      1769900493,
      1769900530,
      1769900559,
      1769900585,
      1769900627,
      1769900660,
      1769900683,
      1769900716,
      1769900757,
      1769900775,
      1769900802,
      1769900808,
      1769900847,
      1769900850
    ],
    "wof:geomhash": "91d0e1935679b801959f1c6291e60606",
    "wof:id": 2014684217,
    "wof:repo": "sfomuseum-data-flights-2026-01"
  },
  "bbox": [
    -122.38595,
    37.63389,
    -121.24514,
    38.42617
  ],
  "geometry": {"coordinates":[[-122.36242,37.63389],[-122.35643,37.64052],[-122.3145,37.68067],[-122.31182,37.69436],[-122.33721,37.74747],[-122.34384,37.75964],[-122.35111,37.77382],[-122.37559,37.82384],[-122.38595,37.86126],[-122.38491,37.8929],[-122.35765,37.94706],[-122.30459,37.97257],[-122.2871,37.97973],[-122.24782,37.99561],[-122.20966,38.01117],[-122.16732,38.02865],[-122.09937,38.05613],[-122.01567,38.08896],[-121.94717,38.11584],[-121.88617,38.14012],[-121.78613,38.18073],[-121.70729,38.21191],[-121.65286,38.23298],[-121.57135,38.265],[-121.4676,38.30646],[-121.42158,38.32519],[-121.35611,38.3581],[-121.34209,38.36626],[-121.25209,38.42177],[-121.24514,38.42617]],"type":"LineString"}
}
