{
  "id": 2014685821,
  "type": "Feature",
  "properties": {
    "geom:area": 0,
    "geom:bbox": "-123.474320,37.351110,-122.405080,37.670100",
    "geom:latitude": 37.52326888446147,
    "geom:longitude": -122.93822777170314,
    "src:alt_label": "swim-takeoff",
    "src:geom": "swim",
    "swim:elevations": [
      308,
      514,
      823,
      1149,
      1299,
      1398,
      1526,
      1670,
      2042,
      2400,
      2754,
      2848,
      3311,
      3498,
      3734,
      4006,
      4107,
      4555,
      4751,
      5127,
      5436,
      5656,
      5870,
      6146,
      6303
    ],
    "swim:geom": "takeoff",
    "swim:timestamps": [
      1769899643,
      1769899661,
      1769899694,
      1769899733,
      1769899763,
      1769899778,
      1769899793,
      1769899805,
      1769899832,
      1769899856,
      1769899882,
      1769899891,
      1769899941,
      1769899971,
      1769900008,
      1769900037,
      1769900049,
      1769900092,
      1769900111,
      1769900152,
      1769900185,
      1769900210,
      1769900233,
      1769900265,
      1769900284
    ],
    "wof:geomhash": "3d69231f52c24188e7699611be2bab98",
    "wof:id": 2014685821,
    "wof:repo": "sfomuseum-data-flights-2026-01"
  },
  "bbox": [
    -123.47432,
    37.35111,
    -122.40508,
    37.6701
  ],
  "geometry": {"coordinates":[[-122.40508,37.63131],[-122.42119,37.63847],[-122.45347,37.65265],[-122.49497,37.6701],[-122.53397,37.66708],[-122.55491,37.66146],[-122.57731,37.65565],[-122.5956,37.65095],[-122.63698,37.64028],[-122.67364,37.63092],[-122.71382,37.62055],[-122.72761,37.61696],[-122.80358,37.59059],[-122.85203,37.56902],[-122.91564,37.54048],[-122.96739,37.51635],[-122.9894,37.50637],[-123.06927,37.47125],[-123.10612,37.45451],[-123.18618,37.4215],[-123.25703,37.40322],[-123.31148,37.39019],[-123.36087,37.3784],[-123.43223,37.36123],[-123.47432,37.35111]],"type":"LineString"}
}
