{
  "id": 2014682747,
  "type": "Feature",
  "properties": {
    "geom:area": 0,
    "geom:bbox": "-122.558020,37.463970,-121.255150,37.670350",
    "geom:latitude": 37.55392941432752,
    "geom:longitude": -122.05709020837352,
    "src:alt_label": "swim-approach",
    "src:geom": "swim",
    "swim:elevations": [
      4990,
      4640,
      4339,
      4268,
      3725,
      3324,
      3190,
      2956,
      2813,
      2654,
      2498,
      2434,
      2197,
      1980,
      1934,
      1768,
      1706,
      1337,
      1331,
      1039,
      801,
      547,
      394,
      249,
      87,
      304,
      696,
      1049,
      1477,
      1541,
      1524,
      1524,
      1523,
      1524,
      1524,
      1524,
      1524,
      1514,
      1394,
      1363,
      1188,
      910,
      914,
      874,
      608,
      526,
      307,
      155,
      22
    ],
    "swim:geom": "approach",
    "swim:timestamps": [
      1769857396,
      1769857436,
      1769857468,
      1769857474,
      1769857522,
      1769857558,
      1769857594,
      1769857636,
      1769857655,
      1769857675,
      1769857707,
      1769857717,
      1769857751,
      1769857797,
      1769857811,
      1769857847,
      1769857861,
      1769857916,
      1769857920,
      1769857975,
      1769858016,
      1769858049,
      1769858076,
      1769858109,
      1769858143,
      1769858181,
      1769858216,
      1769858255,
      1769858286,
      1769858333,
      1769858364,
      1769858396,
      1769858418,
      1769858438,
      1769858452,
      1769858482,
      1769858500,
      1769858558,
      1769858577,
      1769858581,
      1769858614,
      1769858656,
      1769858697,
      1769858722,
      1769858758,
      1769858770,
      1769858813,
      1769858841,
      1769858865
    ],
    "wof:geomhash": "adbc2206d8fdab6935c40090101e40a8",
    "wof:id": 2014682747,
    "wof:repo": "sfomuseum-data-flights-2026-01"
  },
  "bbox": [
    -122.55802,
    37.46397,
    -121.25515,
    37.67035
  ],
  "geometry": {"coordinates":[[-121.25515,37.59388],[-121.33422,37.58449],[-121.39666,37.57745],[-121.40721,37.57627],[-121.49543,37.56605],[-121.56276,37.558],[-121.6243,37.55058],[-121.69119,37.53499],[-121.72064,37.52795],[-121.75097,37.52085],[-121.79918,37.50913],[-121.81306,37.50576],[-121.86238,37.49399],[-121.93224,37.49259],[-121.95162,37.49299],[-122.00439,37.49992],[-122.0241,37.50641],[-122.10247,37.53181],[-122.10754,37.53347],[-122.17727,37.5561],[-122.22219,37.57046],[-122.25733,37.58177],[-122.28455,37.58972],[-122.31379,37.59836],[-122.34299,37.60775],[-122.37475,37.62087],[-122.41174,37.63643],[-122.46066,37.65769],[-122.50603,37.67035],[-122.55802,37.63386],[-122.54193,37.60016],[-122.5071,37.57357],[-122.48038,37.55647],[-122.45309,37.54482],[-122.43434,37.5368],[-122.39387,37.51933],[-122.37077,37.50937],[-122.29145,37.47635],[-122.26391,37.47095],[-122.25673,37.46967],[-122.20798,37.46397],[-122.16736,37.5],[-122.19567,37.54205],[-122.22459,37.55537],[-122.26221,37.57117],[-122.27482,37.57643],[-122.31464,37.59316],[-122.33673,37.60246],[-122.35629,37.61084]],"type":"LineString"}
}
