{
  "id": 2014685633,
  "type": "Feature",
  "properties": {
    "geom:area": 0,
    "geom:bbox": "-122.467640,37.211580,-121.243570,37.715510",
    "geom:latitude": 37.410575349839306,
    "geom:longitude": -121.97997945047081,
    "src:alt_label": "swim-takeoff",
    "src:geom": "swim",
    "swim:elevations": [
      213,
      539,
      838,
      1270,
      1368,
      1697,
      2284,
      3004,
      3213,
      4023,
      4189,
      4848,
      5135,
      5399,
      5753,
      6219,
      6410,
      7160,
      7407,
      7951,
      8164,
      8605,
      8914,
      9367,
      9449,
      9449,
      9449,
      9449,
      9449,
      9459,
      9683
    ],
    "swim:geom": "takeoff",
    "swim:timestamps": [
      1769847978,
      1769848008,
      1769848038,
      1769848074,
      1769848087,
      1769848107,
      1769848136,
      1769848166,
      1769848175,
      1769848226,
      1769848235,
      1769848272,
      1769848290,
      1769848308,
      1769848338,
      1769848369,
      1769848382,
      1769848430,
      1769848448,
      1769848493,
      1769848516,
      1769848551,
      1769848575,
      1769848616,
      1769848642,
      1769848656,
      1769848673,
      1769848702,
      1769848729,
      1769848751,
      1769848783
    ],
    "wof:geomhash": "88b93a10e97d7801b3a5cce2a566b57b",
    "wof:id": 2014685633,
    "wof:repo": "sfomuseum-data-flights-2026-01"
  },
  "bbox": [
    -122.46764,
    37.21158,
    -121.24357,
    37.71551
  ],
  "geometry": {"coordinates":[[-122.36758,37.63114],[-122.36467,37.65296],[-122.36202,37.68013],[-122.38059,37.71128],[-122.39876,37.71551],[-122.42914,37.70865],[-122.44804,37.67745],[-122.45397,37.63874],[-122.45557,37.62766],[-122.46588,37.55509],[-122.46764,37.54167],[-122.44669,37.48762],[-122.41575,37.4691],[-122.3782,37.46017],[-122.31382,37.44654],[-122.24645,37.43181],[-122.22002,37.42606],[-122.1122,37.40272],[-122.07039,37.39372],[-121.96477,37.37088],[-121.91169,37.35933],[-121.8252,37.34054],[-121.76629,37.32747],[-121.66524,37.30553],[-121.60035,37.29153],[-121.5657,37.2838],[-121.52408,37.27452],[-121.45295,37.25834],[-121.38324,37.24298],[-121.32669,37.23035],[-121.24357,37.21158]],"type":"LineString"}
}
