{
  "id": 2014682665,
  "type": "Feature",
  "properties": {
    "geom:area": 0,
    "geom:bbox": "-122.355790,37.052590,-121.992440,37.610660",
    "geom:latitude": 37.36658634029181,
    "geom:longitude": -122.13563917154347,
    "src:alt_label": "swim-approach",
    "src:geom": "swim",
    "swim:elevations": [
      3343,
      3114,
      3052,
      2740,
      2658,
      2386,
      2221,
      2042,
      1773,
      1614,
      1551,
      1525,
      1326,
      1149,
      851,
      672,
      642,
      412,
      334,
      242,
      56
    ],
    "swim:geom": "approach",
    "swim:timestamps": [
      1769879134,
      1769879180,
      1769879206,
      1769879248,
      1769879260,
      1769879302,
      1769879326,
      1769879352,
      1769879380,
      1769879408,
      1769879421,
      1769879430,
      1769879478,
      1769879500,
      1769879548,
      1769879575,
      1769879580,
      1769879636,
      1769879650,
      1769879674,
      1769879726
    ],
    "wof:geomhash": "1abe9a1c6247a099948142f7ddf7476c",
    "wof:id": 2014682665,
    "wof:repo": "sfomuseum-data-flights-2026-01"
  },
  "bbox": [
    -122.35579,
    37.05259,
    -121.99244,
    37.61066
  ],
  "geometry": {"coordinates":[[-121.99244,37.05259],[-122.01875,37.12023],[-122.0324,37.15518],[-122.05355,37.20905],[-122.05953,37.22422],[-122.08057,37.27838],[-122.09239,37.30832],[-122.10506,37.34037],[-122.1184,37.37385],[-122.13028,37.40751],[-122.13524,37.42194],[-122.13839,37.43103],[-122.15949,37.48262],[-122.17698,37.50311],[-122.21173,37.54327],[-122.23415,37.55996],[-122.23839,37.5615],[-122.28602,37.58133],[-122.29779,37.58625],[-122.31634,37.59407],[-122.35579,37.61066]],"type":"LineString"}
}
