{
  "id": 2014682007,
  "type": "Feature",
  "properties": {
    "geom:area": 0,
    "geom:bbox": "-122.354020,37.596300,-122.316270,37.612210",
    "geom:latitude": 37.604254999999995,
    "geom:longitude": -122.33514500000001,
    "src:alt_label": "swim-approach",
    "src:geom": "swim",
    "swim:elevations": [
      248,
      47
    ],
    "swim:geom": "approach",
    "swim:timestamps": [
      1769874921,
      1769874972
    ],
    "wof:geomhash": "a3d5f852ec770dfe047971128ef29615",
    "wof:id": 2014682007,
    "wof:repo": "sfomuseum-data-flights-2026-01"
  },
  "bbox": [
    -122.35402,
    37.5963,
    -122.31627,
    37.61221
  ],
  "geometry": {"coordinates":[[-122.31627,37.5963],[-122.35402,37.61221]],"type":"LineString"}
}
