{
  "id": 2014682037,
  "type": "Feature",
  "properties": {
    "geom:area": 0,
    "geom:bbox": "-122.337220,36.738960,-121.888730,37.602860",
    "geom:latitude": 37.21159368931991,
    "geom:longitude": -122.0672413774199,
    "src:alt_label": "swim-approach",
    "src:geom": "swim",
    "swim:elevations": [
      5422,
      5109,
      4768,
      4269,
      3941,
      3654,
      3521,
      3286,
      3135,
      3048,
      2773,
      2692,
      2505,
      2169,
      2002,
      1797,
      1657,
      1312,
      1000,
      882,
      730,
      517,
      395,
      278,
      151,
      124
    ],
    "swim:geom": "approach",
    "swim:timestamps": [
      1769863717,
      1769863742,
      1769863774,
      1769863824,
      1769863858,
      1769863882,
      1769863894,
      1769863918,
      1769863938,
      1769863968,
      1769864008,
      1769864018,
      1769864044,
      1769864098,
      1769864125,
      1769864147,
      1769864162,
      1769864220,
      1769864277,
      1769864297,
      1769864322,
      1769864363,
      1769864394,
      1769864422,
      1769864455,
      1769864463
    ],
    "wof:geomhash": "e3bf50f0390887389bcb429ea555baf9",
    "wof:id": 2014682037,
    "wof:repo": "sfomuseum-data-flights-2026-01"
  },
  "bbox": [
    -122.33722,
    36.73896,
    -121.88873,
    37.60286
  ],
  "geometry": {"coordinates":[[-121.88873,36.73896],[-121.90537,36.7824],[-121.92064,36.83737],[-121.94439,36.92191],[-121.96287,36.97701],[-121.97786,37.01497],[-121.98534,37.03436],[-121.99936,37.0703],[-122.01162,37.1016],[-122.02822,37.14486],[-122.04977,37.19952],[-122.05526,37.21341],[-122.06863,37.24775],[-122.09548,37.31588],[-122.10873,37.3494],[-122.11937,37.37621],[-122.12588,37.39472],[-122.14935,37.46447],[-122.17012,37.52354],[-122.18587,37.5392],[-122.21327,37.55053],[-122.25589,37.56857],[-122.2843,37.58062],[-122.30678,37.59005],[-122.3316,37.6005],[-122.33722,37.60286]],"type":"LineString"}
}
