{
  "id": 2014682449,
  "type": "Feature",
  "properties": {
    "geom:area": 0,
    "geom:bbox": "-122.357730,37.490930,-121.259360,37.613810",
    "geom:latitude": 37.546136214828636,
    "geom:longitude": -121.81347638126414,
    "src:alt_label": "swim-approach",
    "src:geom": "swim",
    "swim:elevations": [
      4798,
      4527,
      4325,
      4170,
      4045,
      3550,
      3326,
      3163,
      3043,
      2933,
      2864,
      2646,
      2531,
      2499,
      2268,
      2254,
      1900,
      1854,
      1775,
      1527,
      1351,
      1220,
      1219,
      987,
      734,
      574,
      470,
      343,
      330,
      153,
      127,
      138
    ],
    "swim:geom": "approach",
    "swim:timestamps": [
      1769892109,
      1769892133,
      1769892156,
      1769892175,
      1769892187,
      1769892238,
      1769892259,
      1769892280,
      1769892327,
      1769892339,
      1769892348,
      1769892382,
      1769892409,
      1769892424,
      1769892475,
      1769892481,
      1769892535,
      1769892546,
      1769892562,
      1769892598,
      1769892624,
      1769892652,
      1769892664,
      1769892704,
      1769892739,
      1769892775,
      1769892804,
      1769892836,
      1769892841,
      1769892889,
      1769892896,
      1769892919
    ],
    "wof:geomhash": "4b6cb4bf567d88f160bf6328bec45c78",
    "wof:id": 2014682449,
    "wof:repo": "sfomuseum-data-flights-2026-01"
  },
  "bbox": [
    -122.35773,
    37.49093,
    -121.25936,
    37.61381
  ],
  "geometry": {"coordinates":[[-121.25936,37.59323],[-121.30512,37.58728],[-121.34931,37.58254],[-121.38505,37.57852],[-121.40755,37.57591],[-121.50405,37.56483],[-121.54292,37.56018],[-121.58233,37.55563],[-121.66269,37.54155],[-121.68158,37.53713],[-121.69576,37.53374],[-121.74948,37.52091],[-121.79142,37.51103],[-121.81287,37.50586],[-121.88448,37.49096],[-121.89242,37.49093],[-121.96439,37.49314],[-121.97785,37.4938],[-121.99854,37.49797],[-122.04169,37.51207],[-122.07282,37.52215],[-122.10586,37.53287],[-122.11918,37.53725],[-122.15973,37.5504],[-122.19471,37.56161],[-122.23189,37.5736],[-122.26054,37.58293],[-122.29097,37.59182],[-122.29521,37.59304],[-122.33492,37.60461],[-122.34083,37.60664],[-122.35773,37.61381]],"type":"LineString"}
}
