{
  "id": 2014683209,
  "type": "Feature",
  "properties": {
    "geom:area": 0,
    "geom:bbox": "-122.468290,36.726620,-121.306050,37.705640",
    "geom:latitude": 37.21491615392708,
    "geom:longitude": -121.99632354560333,
    "src:alt_label": "swim-takeoff",
    "src:geom": "swim",
    "swim:elevations": [
      213,
      610,
      824,
      903,
      1809,
      2068,
      2903,
      3019,
      3048,
      3202,
      3530,
      4127,
      4520,
      4896,
      4942,
      5446,
      5756,
      6024,
      6301,
      6693,
      7012,
      7161,
      7396,
      7649,
      7773,
      8004,
      8215,
      8373,
      8596,
      8774,
      8879,
      9212
    ],
    "swim:geom": "takeoff",
    "swim:timestamps": [
      1769851396,
      1769851435,
      1769851466,
      1769851475,
      1769851523,
      1769851536,
      1769851586,
      1769851604,
      1769851632,
      1769851659,
      1769851683,
      1769851723,
      1769851754,
      1769851782,
      1769851786,
      1769851827,
      1769851857,
      1769851879,
      1769851909,
      1769851941,
      1769851971,
      1769851988,
      1769852021,
      1769852057,
      1769852071,
      1769852111,
      1769852140,
      1769852169,
      1769852205,
      1769852244,
      1769852257,
      1769852296
    ],
    "wof:geomhash": "6917e57e62614dff3a2c97539c463e5f",
    "wof:id": 2014683209,
    "wof:repo": "sfomuseum-data-flights-2026-01"
  },
  "bbox": [
    -122.46829,
    36.72662,
    -121.30605,
    37.70564
  ],
  "geometry": {"coordinates":[[-122.36858,37.62942],[-122.36268,37.65804],[-122.36265,37.68879],[-122.36776,37.69856],[-122.43379,37.70564],[-122.44455,37.69225],[-122.45222,37.62803],[-122.45547,37.60576],[-122.46185,37.56737],[-122.46829,37.52839],[-122.46082,37.49077],[-122.40392,37.44414],[-122.3508,37.41007],[-122.30175,37.37856],[-122.29476,37.37408],[-122.22157,37.32674],[-122.16834,37.29225],[-122.1297,37.26721],[-122.07515,37.23181],[-122.01581,37.19324],[-121.96022,37.15713],[-121.92844,37.13637],[-121.86612,37.09566],[-121.79663,37.05015],[-121.76998,37.03268],[-121.69028,36.98077],[-121.63156,36.94263],[-121.572,36.90297],[-121.49781,36.85409],[-121.4174,36.80109],[-121.38908,36.78163],[-121.30605,36.72662]],"type":"LineString"}
}
