{
  "id": 2014685621,
  "type": "Feature",
  "properties": {
    "geom:area": 0,
    "geom:bbox": "-122.445080,37.135510,-121.279850,37.714920",
    "geom:latitude": 37.33034955646807,
    "geom:longitude": -122.01555802271,
    "src:alt_label": "swim-takeoff",
    "src:geom": "swim",
    "swim:elevations": [
      392,
      595,
      977,
      1175,
      1677,
      2208,
      2557,
      3340,
      3867,
      4104,
      4418,
      4943,
      5210,
      5785,
      5791,
      5810,
      6410,
      6612,
      6920,
      7457,
      7776,
      8465,
      8580,
      9156,
      9364,
      9449,
      9449,
      9449,
      9449,
      9449,
      9449,
      9449
    ],
    "swim:geom": "takeoff",
    "swim:timestamps": [
      1769864995,
      1769865022,
      1769865052,
      1769865065,
      1769865102,
      1769865144,
      1769865161,
      1769865202,
      1769865235,
      1769865246,
      1769865265,
      1769865294,
      1769865310,
      1769865358,
      1769865371,
      1769865400,
      1769865447,
      1769865463,
      1769865490,
      1769865528,
      1769865552,
      1769865592,
      1769865600,
      1769865647,
      1769865664,
      1769865717,
      1769865738,
      1769865773,
      1769865784,
      1769865830,
      1769865861,
      1769865873
    ],
    "wof:geomhash": "c305c295bee3383364987da5af02fa95",
    "wof:id": 2014685621,
    "wof:repo": "sfomuseum-data-flights-2026-01"
  },
  "bbox": [
    -122.44508,
    37.13551,
    -121.27985,
    37.71492
  ],
  "geometry": {"coordinates":[[-122.36313,37.64331],[-122.36214,37.66554],[-122.36532,37.69615],[-122.37634,37.70725],[-122.42118,37.71492],[-122.44508,37.6726],[-122.44316,37.65152],[-122.43688,37.60059],[-122.4292,37.55409],[-122.42641,37.53744],[-122.42136,37.51016],[-122.41405,37.46698],[-122.41074,37.44297],[-122.40144,37.36593],[-122.39639,37.34545],[-122.35686,37.3113],[-122.25801,37.29277],[-122.22277,37.287],[-122.16185,37.27694],[-122.0758,37.26319],[-122.02029,37.25425],[-121.92685,37.2399],[-121.90645,37.23665],[-121.80025,37.21951],[-121.76269,37.21382],[-121.63979,37.19414],[-121.59131,37.18622],[-121.50967,37.17283],[-121.48551,37.16875],[-121.37778,37.15149],[-121.30688,37.14012],[-121.27985,37.13551]],"type":"LineString"}
}
