{
  "id": 2014682485,
  "type": "Feature",
  "properties": {
    "geom:area": 0,
    "geom:bbox": "-122.358620,37.492120,-121.296240,37.614900",
    "geom:latitude": 37.54492654461483,
    "geom:longitude": -121.83245452632976,
    "src:alt_label": "swim-approach",
    "src:geom": "swim",
    "swim:elevations": [
      4508,
      4397,
      3939,
      3659,
      3589,
      3198,
      3113,
      3021,
      2839,
      2668,
      2591,
      2415,
      2289,
      2066,
      1962,
      1860,
      1796,
      1650,
      1543,
      1299,
      1074,
      828,
      639,
      488,
      409,
      225,
      87,
      0
    ],
    "swim:geom": "approach",
    "swim:timestamps": [
      1769860797,
      1769860807,
      1769860856,
      1769860888,
      1769860894,
      1769860945,
      1769860976,
      1769861004,
      1769861032,
      1769861057,
      1769861073,
      1769861107,
      1769861132,
      1769861184,
      1769861200,
      1769861217,
      1769861233,
      1769861267,
      1769861299,
      1769861328,
      1769861357,
      1769861385,
      1769861406,
      1769861447,
      1769861480,
      1769861517,
      1769861548,
      1769861572
    ],
    "wof:geomhash": "04ef870db380b988c092ccdec9470f8d",
    "wof:id": 2014682485,
    "wof:repo": "sfomuseum-data-flights-2026-01"
  },
  "bbox": [
    -122.35862,
    37.49212,
    -121.29624,
    37.6149
  ],
  "geometry": {"coordinates":[[-121.29624,37.58848],[-121.31664,37.58622],[-121.40827,37.57625],[-121.46571,37.56943],[-121.47631,37.56815],[-121.56767,37.55744],[-121.6189,37.55108],[-121.66121,37.54204],[-121.7012,37.53258],[-121.73806,37.52368],[-121.76221,37.51802],[-121.81164,37.50612],[-121.84854,37.49727],[-121.92629,37.49212],[-121.94983,37.49273],[-121.97594,37.49388],[-121.99999,37.49857],[-122.04814,37.51408],[-122.08967,37.52772],[-122.12679,37.53987],[-122.16099,37.551],[-122.19239,37.56108],[-122.21553,37.56854],[-122.25737,37.58187],[-122.28991,37.59075],[-122.32033,37.59781],[-122.34293,37.60761],[-122.35862,37.6149]],"type":"LineString"}
}
