{
  "id": 2014682793,
  "type": "Feature",
  "properties": {
    "geom:area": 0,
    "geom:bbox": "-123.500070,37.263570,-122.112790,37.614000",
    "geom:latitude": 37.386469170505435,
    "geom:longitude": -122.6999040193354,
    "src:alt_label": "swim-approach",
    "src:geom": "swim",
    "swim:elevations": [
      5408,
      5017,
      4938,
      4529,
      4204,
      3885,
      3643,
      3453,
      3162,
      3126,
      3048,
      3048,
      3048,
      3048,
      3048,
      3048,
      3048,
      3010,
      2719,
      2476,
      2438,
      2369,
      2085,
      1849,
      1732,
      1617,
      1523,
      1397,
      1090,
      791,
      720,
      564,
      488,
      303,
      208,
      61,
      25
    ],
    "swim:geom": "approach",
    "swim:timestamps": [
      1769925953,
      1769925986,
      1769925995,
      1769926034,
      1769926066,
      1769926099,
      1769926123,
      1769926141,
      1769926195,
      1769926201,
      1769926248,
      1769926285,
      1769926312,
      1769926324,
      1769926356,
      1769926384,
      1769926437,
      1769926452,
      1769926492,
      1769926519,
      1769926538,
      1769926561,
      1769926615,
      1769926648,
      1769926668,
      1769926689,
      1769926713,
      1769926741,
      1769926791,
      1769926825,
      1769926833,
      1769926862,
      1769926874,
      1769926918,
      1769926939,
      1769926975,
      1769926984
    ],
    "wof:geomhash": "6c024823f85b4032aff2a72729efeade",
    "wof:id": 2014682793,
    "wof:repo": "sfomuseum-data-flights-2026-01"
  },
  "bbox": [
    -123.50007,
    37.26357,
    -122.11279,
    37.614
  ],
  "geometry": {"coordinates":[[-123.50007,37.45289],[-123.42275,37.42939],[-123.40221,37.42323],[-123.31322,37.39622],[-123.24276,37.3745],[-123.1725,37.35288],[-123.12069,37.33709],[-123.08223,37.32532],[-122.96939,37.29056],[-122.95761,37.28693],[-122.86466,37.26357],[-122.78839,37.27467],[-122.73349,37.28749],[-122.70912,37.29338],[-122.64409,37.30889],[-122.58614,37.32244],[-122.48037,37.34683],[-122.45185,37.3534],[-122.38376,37.36881],[-122.33763,37.37951],[-122.30715,37.38651],[-122.27135,37.39474],[-122.19001,37.4137],[-122.14275,37.4257],[-122.12219,37.44184],[-122.11279,37.46453],[-122.11474,37.48991],[-122.12976,37.51513],[-122.18234,37.53976],[-122.21763,37.55486],[-122.22634,37.55844],[-122.25601,37.57097],[-122.26767,37.57576],[-122.30571,37.59194],[-122.32268,37.599],[-122.35118,37.611],[-122.35821,37.614]],"type":"LineString"}
}
