{
  "id": 2014682069,
  "type": "Feature",
  "properties": {
    "geom:area": 0,
    "geom:bbox": "-122.350550,36.726010,-121.880700,37.608460",
    "geom:latitude": 37.210276462762366,
    "geom:longitude": -122.06841037253864,
    "src:alt_label": "swim-approach",
    "src:geom": "swim",
    "swim:elevations": [
      5227,
      4897,
      4565,
      4374,
      4101,
      3874,
      3789,
      3567,
      3326,
      2954,
      2801,
      2644,
      2465,
      2435,
      2375,
      2285,
      2127,
      1940,
      1906,
      1639,
      1448,
      1366,
      1220,
      1081,
      762,
      716,
      487,
      354,
      272,
      192,
      63
    ],
    "swim:geom": "approach",
    "swim:timestamps": [
      1769889261,
      1769889291,
      1769889327,
      1769889348,
      1769889379,
      1769889413,
      1769889430,
      1769889466,
      1769889494,
      1769889532,
      1769889553,
      1769889580,
      1769889611,
      1769889646,
      1769889664,
      1769889685,
      1769889718,
      1769889745,
      1769889754,
      1769889805,
      1769889836,
      1769889848,
      1769889868,
      1769889883,
      1769889925,
      1769889937,
      1769889983,
      1769890013,
      1769890031,
      1769890052,
      1769890088
    ],
    "wof:geomhash": "cd1ba2d03e4e8dbc05b9204175d08b86",
    "wof:id": 2014682069,
    "wof:repo": "sfomuseum-data-flights-2026-01"
  },
  "bbox": [
    -122.35055,
    36.72601,
    -121.8807,
    37.60846
  ],
  "geometry": {"coordinates":[[-121.8807,36.72601],[-121.904,36.77818],[-121.92188,36.84131],[-121.93208,36.87733],[-121.94637,36.92824],[-121.96431,36.98065],[-121.97387,37.00547],[-121.99312,37.0545],[-122.00703,37.09052],[-122.02696,37.14138],[-122.03789,37.16938],[-122.05198,37.20496],[-122.0674,37.24447],[-122.0851,37.28948],[-122.09316,37.31082],[-122.10254,37.33455],[-122.11708,37.37097],[-122.12758,37.39997],[-122.13084,37.40972],[-122.14877,37.46182],[-122.15835,37.48947],[-122.16184,37.49979],[-122.16779,37.51761],[-122.17359,37.53052],[-122.21188,37.55011],[-122.22385,37.55523],[-122.26685,37.57323],[-122.29157,37.58363],[-122.30579,37.58954],[-122.32236,37.59652],[-122.35055,37.60846]],"type":"LineString"}
}
