{
  "id": 2014686319,
  "type": "Feature",
  "properties": {
    "geom:area": 0,
    "geom:bbox": "-122.364220,37.631640,-121.247940,38.423980",
    "geom:latitude": 38.03353663783399,
    "geom:longitude": -121.81142884609513,
    "src:alt_label": "swim-takeoff",
    "src:geom": "swim",
    "swim:elevations": [
      244,
      438,
      929,
      1205,
      1383,
      1554,
      2327,
      2486,
      3097,
      3282,
      3385,
      3580,
      3700,
      3896,
      4395,
      4587,
      5139,
      5301,
      5652,
      5943,
      6128,
      6391,
      6515,
      6821
    ],
    "swim:geom": "takeoff",
    "swim:timestamps": [
      1769867156,
      1769867168,
      1769867212,
      1769867248,
      1769867268,
      1769867286,
      1769867338,
      1769867347,
      1769867392,
      1769867420,
      1769867437,
      1769867476,
      1769867496,
      1769867520,
      1769867565,
      1769867582,
      1769867632,
      1769867647,
      1769867687,
      1769867721,
      1769867744,
      1769867779,
      1769867796,
      1769867837
    ],
    "wof:geomhash": "810963ca2ba73782cd100257a7eeb407",
    "wof:id": 2014686319,
    "wof:repo": "sfomuseum-data-flights-2026-01"
  },
  "bbox": [
    -122.36422,
    37.63164,
    -121.24794,
    38.42398
  ],
  "geometry": {"coordinates":[[-122.36422,37.63164],[-122.35754,37.63938],[-122.32214,37.65958],[-122.28848,37.67818],[-122.26597,37.69072],[-122.24415,37.70223],[-122.18532,37.74938],[-122.17712,37.75873],[-122.13129,37.80889],[-122.09404,37.83921],[-122.06807,37.85661],[-122.00219,37.90426],[-121.9656,37.93046],[-121.92098,37.96215],[-121.83221,38.02505],[-121.79792,38.04935],[-121.69633,38.1211],[-121.66608,38.14239],[-121.58212,38.20133],[-121.5102,38.25168],[-121.46079,38.28625],[-121.38319,38.33915],[-121.34305,38.36493],[-121.24794,38.42398]],"type":"LineString"}
}
