{
  "id": 2014682605,
  "type": "Feature",
  "properties": {
    "geom:area": 0,
    "geom:bbox": "-122.364560,36.725030,-121.880430,37.614110",
    "geom:latitude": 37.212876667221536,
    "geom:longitude": -122.07225237275263,
    "src:alt_label": "swim-approach",
    "src:geom": "swim",
    "swim:elevations": [
      5135,
      4857,
      4407,
      4201,
      4079,
      3910,
      3575,
      3332,
      3253,
      3140,
      3074,
      2871,
      2639,
      2437,
      2251,
      2145,
      1893,
      1670,
      1520,
      1340,
      1108,
      939,
      822,
      653,
      560,
      439,
      388,
      278,
      50,
      4
    ],
    "swim:geom": "approach",
    "swim:timestamps": [
      1769847393,
      1769847422,
      1769847473,
      1769847497,
      1769847511,
      1769847529,
      1769847568,
      1769847593,
      1769847605,
      1769847637,
      1769847660,
      1769847700,
      1769847740,
      1769847772,
      1769847797,
      1769847812,
      1769847852,
      1769847893,
      1769847928,
      1769847953,
      1769847986,
      1769848014,
      1769848032,
      1769848060,
      1769848083,
      1769848107,
      1769848114,
      1769848142,
      1769848193,
      1769848207
    ],
    "wof:geomhash": "bf34dd1be23d337b6324c6685c922798",
    "wof:id": 2014682605,
    "wof:repo": "sfomuseum-data-flights-2026-01"
  },
  "bbox": [
    -122.36456,
    36.72503,
    -121.88043,
    37.61411
  ],
  "geometry": {"coordinates":[[-121.88043,36.72503],[-121.90195,36.7701],[-121.92536,36.85348],[-121.9363,36.89237],[-121.94262,36.91468],[-121.95104,36.94458],[-121.97403,37.00579],[-121.98873,37.0435],[-121.99598,37.06195],[-122.01405,37.1085],[-122.02613,37.13917],[-122.04615,37.19016],[-122.06486,37.23812],[-122.08053,37.27789],[-122.0921,37.3073],[-122.09908,37.32533],[-122.11792,37.3722],[-122.13368,37.41822],[-122.14593,37.45375],[-122.15742,37.47864],[-122.1781,37.50919],[-122.19536,37.53402],[-122.20933,37.54805],[-122.23776,37.56082],[-122.25919,37.57011],[-122.28218,37.57956],[-122.28858,37.58234],[-122.31099,37.59183],[-122.35268,37.60928],[-122.36456,37.61411]],"type":"LineString"}
}
