{
  "id": 2014682267,
  "type": "Feature",
  "properties": {
    "geom:area": 0,
    "geom:bbox": "-123.497040,36.970010,-122.115660,37.612000",
    "geom:latitude": 37.275421826405314,
    "geom:longitude": -122.68570298683842,
    "src:alt_label": "swim-approach",
    "src:geom": "swim",
    "swim:elevations": [
      6059,
      5846,
      5583,
      5157,
      4968,
      4607,
      4384,
      4062,
      3953,
      3729,
      3269,
      3152,
      3048,
      3048,
      3048,
      3048,
      2896,
      2696,
      2579,
      2466,
      2250,
      2139,
      1842,
      1828,
      1829,
      1829,
      1829,
      1829,
      1769,
      1520,
      1412,
      1267,
      1088,
      835,
      719,
      641,
      640,
      549,
      512,
      396,
      183,
      144,
      0
    ],
    "swim:geom": "approach",
    "swim:timestamps": [
      1769891570,
      1769891594,
      1769891621,
      1769891668,
      1769891689,
      1769891728,
      1769891753,
      1769891788,
      1769891800,
      1769891824,
      1769891872,
      1769891884,
      1769891938,
      1769891947,
      1769891977,
      1769892020,
      1769892052,
      1769892082,
      1769892103,
      1769892136,
      1769892175,
      1769892191,
      1769892235,
      1769892256,
      1769892290,
      1769892327,
      1769892336,
      1769892357,
      1769892385,
      1769892412,
      1769892432,
      1769892453,
      1769892508,
      1769892538,
      1769892556,
      1769892586,
      1769892604,
      1769892636,
      1769892670,
      1769892695,
      1769892742,
      1769892754,
      1769892784
    ],
    "wof:geomhash": "54095693439521b86a59c577ef020561",
    "wof:id": 2014682267,
    "wof:repo": "sfomuseum-data-flights-2026-01"
  },
  "bbox": [
    -123.49704,
    36.97001,
    -122.11566,
    37.612
  ],
  "geometry": {"coordinates":[[-123.49704,36.97001],[-123.44823,36.99191],[-123.39392,37.01715],[-123.29928,37.06031],[-123.25758,37.07914],[-123.18162,37.11392],[-123.13475,37.13516],[-123.06767,37.1656],[-123.04509,37.17583],[-123.00059,37.19584],[-122.91321,37.23527],[-122.89154,37.24498],[-122.79416,37.27397],[-122.77816,37.27769],[-122.72894,37.28916],[-122.65492,37.30618],[-122.60001,37.30866],[-122.55052,37.30923],[-122.51528,37.30959],[-122.46366,37.31011],[-122.40745,37.31024],[-122.38474,37.30996],[-122.32181,37.30888],[-122.2922,37.30833],[-122.2451,37.30754],[-122.19219,37.30652],[-122.1794,37.30628],[-122.15052,37.30983],[-122.1265,37.3338],[-122.11566,37.36229],[-122.12138,37.38382],[-122.1283,37.40553],[-122.14583,37.46147],[-122.1557,37.49222],[-122.16467,37.50899],[-122.18037,37.53396],[-122.19691,37.54372],[-122.22753,37.55677],[-122.2612,37.57093],[-122.284,37.58055],[-122.32423,37.59732],[-122.33457,37.60178],[-122.35876,37.612]],"type":"LineString"}
}
