{
  "id": 2014682275,
  "type": "Feature",
  "properties": {
    "geom:area": 0,
    "geom:bbox": "-122.356900,37.492810,-121.261960,37.613450",
    "geom:latitude": 37.546236500745465,
    "geom:longitude": -121.81426217131417,
    "src:alt_label": "swim-approach",
    "src:geom": "swim",
    "swim:elevations": [
      4772,
      4332,
      4068,
      3938,
      3705,
      3342,
      3255,
      3111,
      2567,
      2468,
      2226,
      2190,
      1943,
      1887,
      1793,
      1293,
      1117,
      906,
      768,
      556,
      399,
      309,
      211,
      7
    ],
    "swim:geom": "approach",
    "swim:timestamps": [
      1769859552,
      1769859597,
      1769859622,
      1769859636,
      1769859661,
      1769859698,
      1769859720,
      1769859753,
      1769859834,
      1769859861,
      1769859895,
      1769859901,
      1769859957,
      1769859969,
      1769859990,
      1769860070,
      1769860101,
      1769860134,
      1769860157,
      1769860196,
      1769860225,
      1769860249,
      1769860272,
      1769860315
    ],
    "wof:geomhash": "3ba8b69cfe8a31f356253cc961331c4d",
    "wof:id": 2014682275,
    "wof:repo": "sfomuseum-data-flights-2026-01"
  },
  "bbox": [
    -122.3569,
    37.49281,
    -121.26196,
    37.61345
  ],
  "geometry": {"coordinates":[[-121.26196,37.59296],[-121.35253,37.58245],[-121.39951,37.5771],[-121.42523,37.57416],[-121.47121,37.56866],[-121.5406,37.5607],[-121.581,37.55591],[-121.6353,37.54816],[-121.76308,37.51783],[-121.80442,37.50779],[-121.85467,37.49581],[-121.86241,37.49403],[-121.94652,37.49281],[-121.96318,37.49325],[-121.99245,37.49634],[-122.09547,37.52953],[-122.13457,37.54225],[-122.17684,37.5559],[-122.20602,37.56544],[-122.24921,37.57924],[-122.27825,37.58788],[-122.29962,37.59432],[-122.3202,37.60044],[-122.3569,37.61345]],"type":"LineString"}
}
