{
  "id": 2014680147,
  "type": "Feature",
  "properties": {
    "geom:area": 0,
    "geom:bbox": "-123.094700,37.629580,-122.386830,38.485050",
    "geom:latitude": 38.06665306851557,
    "geom:longitude": -122.7318355071605,
    "src:alt_label": "swim-approach",
    "src:geom": "swim",
    "swim:elevations": [
      7691,
      7590,
      7332,
      6977,
      6685,
      6444,
      6117,
      5956,
      5856,
      5463,
      5278,
      4980,
      4700,
      4434,
      4352,
      4267,
      4002,
      3656,
      3544,
      3417,
      3350,
      3353,
      3353,
      3353,
      3353
    ],
    "swim:geom": "approach",
    "swim:timestamps": [
      1769869617,
      1769869630,
      1769869655,
      1769869688,
      1769869721,
      1769869754,
      1769869794,
      1769869817,
      1769869832,
      1769869872,
      1769869901,
      1769869936,
      1769869966,
      1769870000,
      1769870011,
      1769870052,
      1769870092,
      1769870125,
      1769870149,
      1769870177,
      1769870197,
      1769870237,
      1769870248,
      1769870260,
      1769870297
    ],
    "wof:geomhash": "2f6d5844bb7499fb10c572c266c53d2a",
    "wof:id": 2014680147,
    "wof:repo": "sfomuseum-data-flights-2026-01"
  },
  "bbox": [
    -123.0947,
    37.62958,
    -122.38683,
    38.48505
  ],
  "geometry": {"coordinates":[[-123.0947,38.48505],[-123.07449,38.46823],[-123.03522,38.43808],[-122.9841,38.39736],[-122.93265,38.3565],[-122.88282,38.3168],[-122.82364,38.26949],[-122.79023,38.24265],[-122.77305,38.22319],[-122.74954,38.16418],[-122.73668,38.11968],[-122.72186,38.06767],[-122.70877,38.02209],[-122.69452,37.97269],[-122.68949,37.95521],[-122.6667,37.89641],[-122.6183,37.84726],[-122.57674,37.80837],[-122.54815,37.78167],[-122.51737,37.75262],[-122.49671,37.73293],[-122.45249,37.6913],[-122.44076,37.68032],[-122.4276,37.66795],[-122.38683,37.62958]],"type":"LineString"}
}
