{
  "id": 2014682761,
  "type": "Feature",
  "properties": {
    "geom:area": 0,
    "geom:bbox": "-122.363240,37.491490,-121.271070,37.616730",
    "geom:latitude": 37.546312050056066,
    "geom:longitude": -121.82217957734646,
    "src:alt_label": "swim-approach",
    "src:geom": "swim",
    "swim:elevations": [
      4877,
      4735,
      4201,
      4077,
      4001,
      3595,
      3362,
      3259,
      3105,
      2880,
      2768,
      2600,
      2422,
      2116,
      2009,
      1882,
      1481,
      1340,
      1235,
      1140,
      999,
      841,
      655,
      586,
      366,
      244,
      183,
      428
    ],
    "swim:geom": "approach",
    "swim:timestamps": [
      1769857131,
      1769857143,
      1769857192,
      1769857203,
      1769857212,
      1769857252,
      1769857276,
      1769857297,
      1769857332,
      1769857371,
      1769857386,
      1769857411,
      1769857444,
      1769857491,
      1769857512,
      1769857552,
      1769857617,
      1769857642,
      1769857655,
      1769857671,
      1769857701,
      1769857732,
      1769857768,
      1769857781,
      1769857825,
      1769857849,
      1769857861,
      1769857916
    ],
    "wof:geomhash": "b100d0d833e2b1179401dd3b0d177ce5",
    "wof:id": 2014682761,
    "wof:repo": "sfomuseum-data-flights-2026-01"
  },
  "bbox": [
    -122.36324,
    37.49149,
    -121.27107,
    37.61673
  ],
  "geometry": {"coordinates":[[-121.27107,37.59171],[-121.2966,37.5885],[-121.39449,37.57784],[-121.41566,37.57539],[-121.43098,37.57367],[-121.50593,37.5646],[-121.54882,37.55962],[-121.5884,37.55498],[-121.64605,37.54566],[-121.70479,37.53165],[-121.72837,37.52616],[-121.76632,37.51712],[-121.8148,37.50528],[-121.88273,37.49149],[-121.91348,37.49206],[-121.96961,37.49311],[-122.05541,37.51621],[-122.08741,37.52672],[-122.104,37.53218],[-122.12333,37.53862],[-122.15712,37.54958],[-122.19123,37.56061],[-122.23171,37.57349],[-122.24585,37.57812],[-122.28988,37.59148],[-122.31088,37.59757],[-122.32133,37.60057],[-122.36324,37.61673]],"type":"LineString"}
}
