{
  "id": 2014682781,
  "type": "Feature",
  "properties": {
    "geom:area": 0,
    "geom:bbox": "-123.008590,37.461000,-122.168110,38.417470",
    "geom:latitude": 37.85673500516397,
    "geom:longitude": -122.5497809166836,
    "src:alt_label": "swim-approach",
    "src:geom": "swim",
    "swim:elevations": [
      7685,
      7637,
      7565,
      7161,
      7063,
      6659,
      6298,
      5990,
      5692,
      5565,
      5125,
      4818,
      4628,
      4336,
      4293,
      4121,
      3542,
      3387,
      3354,
      3353,
      3353,
      3353,
      3301,
      2842,
      2677,
      2267,
      2039,
      1838,
      1552,
      1420,
      1379,
      1091,
      986,
      867,
      689,
      595,
      521,
      316,
      219,
      40,
      0
    ],
    "swim:geom": "approach",
    "swim:timestamps": [
      1769846425,
      1769846432,
      1769846438,
      1769846483,
      1769846493,
      1769846536,
      1769846575,
      1769846606,
      1769846637,
      1769846650,
      1769846693,
      1769846725,
      1769846756,
      1769846789,
      1769846795,
      1769846820,
      1769846870,
      1769846906,
      1769846936,
      1769846966,
      1769846986,
      1769847027,
      1769847041,
      1769847086,
      1769847100,
      1769847139,
      1769847161,
      1769847180,
      1769847207,
      1769847235,
      1769847241,
      1769847285,
      1769847311,
      1769847336,
      1769847368,
      1769847381,
      1769847396,
      1769847443,
      1769847462,
      1769847505,
      1769847511
    ],
    "wof:geomhash": "8605302b4401e0078dd81480735ce3ef",
    "wof:id": 2014682781,
    "wof:repo": "sfomuseum-data-flights-2026-01"
  },
  "bbox": [
    -123.00859,
    37.461,
    -122.16811,
    38.41747
  ],
  "geometry": {"coordinates":[[-123.00859,38.41747],[-122.99756,38.40823],[-122.98761,38.4001],[-122.91403,38.34166],[-122.89671,38.32794],[-122.82812,38.27319],[-122.77302,38.22112],[-122.75256,38.17258],[-122.73727,38.12133],[-122.73138,38.10094],[-122.71107,38.03069],[-122.69623,37.9794],[-122.6825,37.93197],[-122.65705,37.88485],[-122.64871,37.87632],[-122.61762,37.84667],[-122.55486,37.78785],[-122.51345,37.7488],[-122.47969,37.71698],[-122.44664,37.68591],[-122.42445,37.66504],[-122.38387,37.62676],[-122.37048,37.61408],[-122.33949,37.56582],[-122.33239,37.55147],[-122.30888,37.5102],[-122.2916,37.48928],[-122.27035,37.47779],[-122.23502,37.4652],[-122.19857,37.461],[-122.19095,37.4633],[-122.16811,37.50369],[-122.1785,37.53008],[-122.19732,37.5494],[-122.23394,37.56165],[-122.24827,37.5678],[-122.26448,37.57408],[-122.30662,37.5919],[-122.32108,37.59845],[-122.35419,37.61232],[-122.35859,37.61393]],"type":"LineString"}
}
