{
  "id": 2014686109,
  "type": "Feature",
  "properties": {
    "geom:area": 0,
    "geom:bbox": "-122.385580,37.626640,-121.258800,38.417550",
    "geom:latitude": 38.08268882623126,
    "geom:longitude": -121.932016236986,
    "src:alt_label": "swim-takeoff",
    "src:geom": "swim",
    "swim:elevations": [
      213,
      881,
      921,
      1114,
      1292,
      1857,
      1985,
      2414,
      3190,
      3265,
      3443,
      3665,
      3694,
      3872,
      4370,
      4789,
      5220,
      5704,
      5940,
      6067,
      6622,
      6821,
      7148,
      7426,
      7672,
      7895,
      8135,
      8162
    ],
    "swim:geom": "takeoff",
    "swim:timestamps": [
      1769897264,
      1769897308,
      1769897311,
      1769897326,
      1769897341,
      1769897398,
      1769897407,
      1769897434,
      1769897485,
      1769897491,
      1769897506,
      1769897545,
      1769897551,
      1769897580,
      1769897623,
      1769897661,
      1769897685,
      1769897725,
      1769897749,
      1769897761,
      1769897817,
      1769897837,
      1769897877,
      1769897907,
      1769897937,
      1769897967,
      1769897997,
      1769898003
    ],
    "wof:geomhash": "e1c376d10826052e0694017d2433a0fc",
    "wof:id": 2014686109,
    "wof:repo": "sfomuseum-data-flights-2026-01"
  },
  "bbox": [
    -122.38558,
    37.62664,
    -121.2588,
    38.41755
  ],
  "geometry": {"coordinates":[[-122.36753,37.62664],[-122.34002,37.6525],[-122.33806,37.65428],[-122.32804,37.6633],[-122.31717,37.67312],[-122.32716,37.73016],[-122.33292,37.7404],[-122.35098,37.77359],[-122.38392,37.8429],[-122.38558,37.85195],[-122.3846,37.87545],[-122.36439,37.93942],[-122.35514,37.94778],[-122.29693,37.97575],[-122.19679,38.01594],[-122.1078,38.05172],[-122.05039,38.07478],[-121.95598,38.11263],[-121.89763,38.13588],[-121.86817,38.14751],[-121.72802,38.2031],[-121.67609,38.22364],[-121.57438,38.2638],[-121.49619,38.29463],[-121.41783,38.32619],[-121.34455,38.3647],[-121.27302,38.40874],[-121.2588,38.41755]],"type":"LineString"}
}
