{
  "id": 2014682271,
  "type": "Feature",
  "properties": {
    "geom:area": 0,
    "geom:bbox": "-122.344630,36.727940,-121.881840,37.608460",
    "geom:latitude": 37.21401552499468,
    "geom:longitude": -122.06757687915696,
    "src:alt_label": "swim-approach",
    "src:geom": "swim",
    "swim:elevations": [
      5212,
      4982,
      4855,
      4566,
      4355,
      4183,
      4023,
      3777,
      3652,
      3344,
      3108,
      3064,
      3000,
      2804,
      2769,
      2654,
      2472,
      2296,
      2071,
      1927,
      1767,
      1574,
      1429,
      1343,
      1068,
      896,
      758,
      561,
      487,
      426,
      257,
      145,
      90
    ],
    "swim:geom": "approach",
    "swim:timestamps": [
      1769896009,
      1769896045,
      1769896063,
      1769896105,
      1769896126,
      1769896144,
      1769896165,
      1769896193,
      1769896208,
      1769896250,
      1769896284,
      1769896299,
      1769896308,
      1769896341,
      1769896348,
      1769896375,
      1769896408,
      1769896438,
      1769896468,
      1769896483,
      1769896507,
      1769896552,
      1769896576,
      1769896592,
      1769896640,
      1769896673,
      1769896696,
      1769896733,
      1769896763,
      1769896787,
      1769896828,
      1769896852,
      1769896866
    ],
    "wof:geomhash": "82c121c47a1759b00747df660d286a7b",
    "wof:id": 2014682271,
    "wof:repo": "sfomuseum-data-flights-2026-01"
  },
  "bbox": [
    -122.34463,
    36.72794,
    -121.88184,
    37.60846
  ],
  "geometry": {"coordinates":[[-121.88184,36.72794],[-121.90602,36.78472],[-121.91431,36.81418],[-121.93247,36.87894],[-121.9414,36.91054],[-121.949,36.93732],[-121.9593,36.9678],[-121.97451,37.00651],[-121.9826,37.02736],[-122.00501,37.08494],[-122.02314,37.1319],[-122.03101,37.15225],[-122.03591,37.16454],[-122.05342,37.20868],[-122.05747,37.219],[-122.07101,37.25413],[-122.08642,37.29329],[-122.0997,37.32633],[-122.11212,37.3579],[-122.11824,37.37327],[-122.12694,37.39811],[-122.14231,37.44334],[-122.15052,37.46772],[-122.15558,37.48389],[-122.17036,37.5293],[-122.18337,37.55639],[-122.20315,37.56422],[-122.23299,37.57476],[-122.25734,37.58201],[-122.27782,37.58798],[-122.31305,37.59815],[-122.33366,37.60423],[-122.34463,37.60846]],"type":"LineString"}
}
