{
  "id": 2014686385,
  "type": "Feature",
  "properties": {
    "geom:area": 0,
    "geom:bbox": "-123.495630,37.208080,-122.404630,37.667600",
    "geom:latitude": 37.444624969968906,
    "geom:longitude": -122.94468454448925,
    "src:alt_label": "swim-takeoff",
    "src:geom": "swim",
    "swim:elevations": [
      296,
      721,
      896,
      951,
      1120,
      1282,
      1315,
      1713,
      2092,
      2481,
      2967,
      3073,
      3130,
      3252,
      3268,
      3373,
      3575,
      3918,
      4203,
      4380,
      4644,
      4823,
      5020,
      5410,
      5482,
      5816,
      6017,
      6304,
      6348
    ],
    "swim:geom": "takeoff",
    "swim:timestamps": [
      1769900686,
      1769900728,
      1769900749,
      1769900760,
      1769900790,
      1769900817,
      1769900823,
      1769900861,
      1769900891,
      1769900919,
      1769900966,
      1769900977,
      1769900986,
      1769901004,
      1769901010,
      1769901035,
      1769901071,
      1769901112,
      1769901142,
      1769901160,
      1769901185,
      1769901203,
      1769901224,
      1769901265,
      1769901279,
      1769901321,
      1769901348,
      1769901386,
      1769901392
    ],
    "wof:geomhash": "4a29c56b12330fd733df8cee022870e5",
    "wof:id": 2014686385,
    "wof:repo": "sfomuseum-data-flights-2026-01"
  },
  "bbox": [
    -123.49563,
    37.20808,
    -122.40463,
    37.6676
  ],
  "geometry": {"coordinates":[[-122.40463,37.63123],[-122.44501,37.64904],[-122.46633,37.65836],[-122.47838,37.66365],[-122.51434,37.6676],[-122.54479,37.64984],[-122.55171,37.64509],[-122.59588,37.61593],[-122.63309,37.5922],[-122.66612,37.57102],[-122.72188,37.53529],[-122.73629,37.52806],[-122.74837,37.52275],[-122.77435,37.5117],[-122.78332,37.50791],[-122.82266,37.49123],[-122.88453,37.46459],[-122.95726,37.43264],[-123.01254,37.4092],[-123.04634,37.39518],[-123.09251,37.37495],[-123.12617,37.36031],[-123.16562,37.34326],[-123.24514,37.31058],[-123.27267,37.29951],[-123.35457,37.26559],[-123.40782,37.2438],[-123.48358,37.21294],[-123.49563,37.20808]],"type":"LineString"}
}
