{
  "id": 2014686131,
  "type": "Feature",
  "properties": {
    "geom:area": 0,
    "geom:bbox": "-122.364780,37.630970,-121.265020,38.117100",
    "geom:latitude": 37.890151826459565,
    "geom:longitude": -121.82292451430335,
    "src:alt_label": "swim-takeoff",
    "src:geom": "swim",
    "swim:elevations": [
      213,
      676,
      1148,
      1303,
      1712,
      2030,
      2101,
      2690,
      3169,
      3347,
      3505,
      3853,
      4129,
      4284,
      4538,
      5251,
      5615,
      6033,
      6427,
      6705,
      6851,
      6999,
      7376,
      7754
    ],
    "swim:geom": "takeoff",
    "swim:timestamps": [
      1769850949,
      1769850977,
      1769851015,
      1769851038,
      1769851072,
      1769851091,
      1769851095,
      1769851128,
      1769851164,
      1769851185,
      1769851203,
      1769851239,
      1769851262,
      1769851274,
      1769851291,
      1769851334,
      1769851363,
      1769851399,
      1769851435,
      1769851458,
      1769851466,
      1769851479,
      1769851508,
      1769851542
    ],
    "wof:geomhash": "854bd73303604a16e85665e4820588d2",
    "wof:id": 2014686131,
    "wof:repo": "sfomuseum-data-flights-2026-01"
  },
  "bbox": [
    -122.36478,
    37.63097,
    -121.26502,
    38.1171
  ],
  "geometry": {"coordinates":[[-122.36478,37.63097],[-122.34676,37.64808],[-122.31248,37.66612],[-122.28872,37.67857],[-122.24634,37.7012],[-122.21973,37.71491],[-122.21412,37.71785],[-122.16843,37.74156],[-122.11574,37.76863],[-122.08192,37.78607],[-122.05052,37.80252],[-121.98187,37.83533],[-121.93152,37.85557],[-121.9057,37.8656],[-121.86809,37.88033],[-121.77058,37.91881],[-121.70425,37.94481],[-121.62157,37.97778],[-121.53195,38.01304],[-121.47609,38.03504],[-121.45606,38.04286],[-121.42381,38.05542],[-121.35114,38.08375],[-121.26502,38.1171]],"type":"LineString"}
}
