{
  "id": 2014682039,
  "type": "Feature",
  "properties": {
    "geom:area": 0,
    "geom:bbox": "-122.364560,36.723780,-121.879420,37.616280",
    "geom:latitude": 37.238769439304384,
    "geom:longitude": -122.1100853903121,
    "src:alt_label": "swim-approach",
    "src:geom": "swim",
    "swim:elevations": [
      3381,
      3236,
      3110,
      3014,
      2879,
      2829,
      2572,
      2452,
      2202,
      2022,
      1982,
      1736,
      1661,
      1531,
      1270,
      1237,
      1060,
      872,
      714,
      610,
      481,
      395,
      273,
      129,
      47,
      5629,
      5500,
      5460,
      4787,
      4461,
      4302,
      3802,
      3601,
      3326,
      3079,
      3029,
      2771,
      2562,
      2437,
      2267,
      2156,
      2008,
      1883,
      1743,
      1582,
      1431,
      1331,
      1181,
      1024,
      922,
      755,
      618,
      486,
      351,
      201,
      103,
      411
    ],
    "swim:geom": "approach",
    "swim:timestamps": [
      1769846418,
      1769846432,
      1769846459,
      1769846483,
      1769846516,
      1769846525,
      1769846575,
      1769846596,
      1769846637,
      1769846666,
      1769846678,
      1769846725,
      1769846742,
      1769846762,
      1769846814,
      1769846823,
      1769846867,
      1769846906,
      1769846924,
      1769846942,
      1769846966,
      1769846982,
      1769847012,
      1769847051,
      1769847086,
      1769925097,
      1769925109,
      1769925121,
      1769925177,
      1769925207,
      1769925222,
      1769925268,
      1769925289,
      1769925316,
      1769925358,
      1769925373,
      1769925410,
      1769925440,
      1769925469,
      1769925493,
      1769925508,
      1769925532,
      1769925550,
      1769925574,
      1769925613,
      1769925644,
      1769925662,
      1769925686,
      1769925716,
      1769925734,
      1769925767,
      1769925797,
      1769925824,
      1769925857,
      1769925893,
      1769925926,
      1769925956
    ],
    "wof:geomhash": "d2e60eb9870d07141d4e457c7cf7da14",
    "wof:id": 2014682039,
    "wof:repo": "sfomuseum-data-flights-2026-01"
  },
  "bbox": [
    -122.36456,
    36.72378,
    -121.87942,
    37.61628
  ],
  "geometry": {"coordinates":[[-121.99374,37.05642],[-122.00226,37.07822],[-122.01742,37.11685],[-122.03046,37.15038],[-122.04684,37.19279],[-122.05141,37.20388],[-122.10977,37.23824],[-122.13545,37.24847],[-122.1646,37.28305],[-122.15449,37.31384],[-122.15036,37.32647],[-122.14944,37.37739],[-122.15144,37.39549],[-122.15385,37.41734],[-122.16021,37.47219],[-122.16278,37.48177],[-122.17873,37.52396],[-122.2075,37.5484],[-122.22569,37.55571],[-122.24486,37.56377],[-122.26737,37.57342],[-122.28157,37.57948],[-122.30514,37.58933],[-122.33412,37.60157],[-122.36134,37.61269],[-121.87942,36.72378],[-121.89036,36.74219],[-121.89865,36.76133],[-121.9259,36.85457],[-121.93966,36.90495],[-121.94647,36.92981],[-121.97334,37.00368],[-121.98567,37.03624],[-122.0016,37.07726],[-122.02542,37.13779],[-122.03322,37.15772],[-122.0516,37.20411],[-122.06617,37.24112],[-122.07965,37.27589],[-122.09029,37.30298],[-122.09713,37.3198],[-122.10771,37.34673],[-122.1155,37.36686],[-122.12538,37.39348],[-122.13928,37.43534],[-122.15022,37.46716],[-122.15617,37.48564],[-122.16356,37.50922],[-122.17272,37.53708],[-122.17916,37.55266],[-122.21033,37.56629],[-122.23967,37.57624],[-122.26556,37.58423],[-122.2941,37.59288],[-122.32112,37.60067],[-122.34373,37.60796],[-122.36456,37.61628]],"type":"LineString"}
}
