{
  "id": 2014682723,
  "type": "Feature",
  "properties": {
    "geom:area": 0,
    "geom:bbox": "-122.361210,37.491420,-121.255960,37.615770",
    "geom:latitude": 37.54672915563167,
    "geom:longitude": -121.8136635048817,
    "src:alt_label": "swim-approach",
    "src:geom": "swim",
    "swim:elevations": [
      4577,
      4308,
      3995,
      3713,
      3556,
      3162,
      3137,
      3077,
      2864,
      2653,
      2471,
      2284,
      2113,
      2040,
      1877,
      1829,
      1670,
      1546,
      1216,
      1072,
      806,
      742,
      517,
      335,
      234,
      188,
      68,
      137
    ],
    "swim:geom": "approach",
    "swim:timestamps": [
      1769858378,
      1769858410,
      1769858443,
      1769858476,
      1769858494,
      1769858558,
      1769858565,
      1769858584,
      1769858626,
      1769858656,
      1769858690,
      1769858722,
      1769858754,
      1769858770,
      1769858813,
      1769858841,
      1769858876,
      1769858893,
      1769858937,
      1769858953,
      1769858998,
      1769859008,
      1769859052,
      1769859087,
      1769859112,
      1769859124,
      1769859150,
      1769859172
    ],
    "wof:geomhash": "74aa5e16c8146b3abd2114e71ce2cb87",
    "wof:id": 2014682723,
    "wof:repo": "sfomuseum-data-flights-2026-01"
  },
  "bbox": [
    -122.36121,
    37.49142,
    -121.25596,
    37.61577
  ],
  "geometry": {"coordinates":[[-121.25596,37.59371],[-121.31631,37.58653],[-121.37742,37.57974],[-121.43765,37.57259],[-121.47089,37.56876],[-121.58661,37.55523],[-121.5983,37.55389],[-121.63119,37.54925],[-121.69426,37.53423],[-121.73942,37.52351],[-121.79009,37.51122],[-121.83724,37.49992],[-121.88278,37.49142],[-121.90659,37.49178],[-121.96768,37.49323],[-122.00314,37.49955],[-122.04791,37.5141],[-122.06914,37.52113],[-122.12388,37.5388],[-122.14417,37.54535],[-122.20068,37.5637],[-122.21129,37.56715],[-122.25997,37.58265],[-122.29273,37.59221],[-122.3139,37.59839],[-122.32386,37.60139],[-122.34504,37.60841],[-122.36121,37.61577]],"type":"LineString"}
}
