{
  "id": 2014686301,
  "type": "Feature",
  "properties": {
    "geom:area": 0,
    "geom:bbox": "-122.361720,37.635720,-121.260360,38.415760",
    "geom:latitude": 38.03528294335112,
    "geom:longitude": -121.81973981708082,
    "src:alt_label": "swim-takeoff",
    "src:geom": "swim",
    "swim:elevations": [
      335,
      760,
      947,
      1162,
      1290,
      1424,
      1626,
      2105,
      2619,
      2789,
      3214,
      3512,
      3722,
      3894,
      4182,
      4464,
      5029,
      5360,
      5672,
      5753,
      5824,
      6063,
      6384,
      6773,
      6974,
      7018,
      7154,
      7610,
      7727,
      8043,
      8130
    ],
    "swim:geom": "takeoff",
    "swim:timestamps": [
      1769850112,
      1769850142,
      1769850156,
      1769850186,
      1769850204,
      1769850216,
      1769850229,
      1769850266,
      1769850296,
      1769850311,
      1769850343,
      1769850380,
      1769850398,
      1769850413,
      1769850439,
      1769850462,
      1769850504,
      1769850530,
      1769850566,
      1769850575,
      1769850585,
      1769850614,
      1769850650,
      1769850688,
      1769850706,
      1769850712,
      1769850724,
      1769850771,
      1769850784,
      1769850831,
      1769850844
    ],
    "wof:geomhash": "af17e1e235172085d29af9183914895c",
    "wof:id": 2014686301,
    "wof:repo": "sfomuseum-data-flights-2026-01"
  },
  "bbox": [
    -122.36172,
    37.63572,
    -121.26036,
    38.41576
  ],
  "geometry": {"coordinates":[[-122.36172,37.63572],[-122.33726,37.65098],[-122.32538,37.65696],[-122.29711,37.67279],[-122.27653,37.68489],[-122.26227,37.69341],[-122.24547,37.70244],[-122.2,37.73176],[-122.17283,37.76351],[-122.15866,37.78035],[-122.1259,37.81611],[-122.08453,37.86174],[-122.06146,37.88389],[-122.03884,37.9001],[-121.99648,37.9287],[-121.95786,37.9547],[-121.88847,38.00161],[-121.84537,38.03066],[-121.78448,38.0719],[-121.76898,38.0823],[-121.75164,38.09393],[-121.70062,38.1282],[-121.63353,38.17335],[-121.56354,38.22033],[-121.52922,38.24324],[-121.51792,38.25079],[-121.4963,38.26521],[-121.40628,38.3251],[-121.38088,38.34181],[-121.28719,38.39935],[-121.26036,38.41576]],"type":"LineString"}
}
