{
  "id": 2014682063,
  "type": "Feature",
  "properties": {
    "geom:area": 0,
    "geom:bbox": "-122.354960,37.491940,-121.257100,37.612560",
    "geom:latitude": 37.54618531295936,
    "geom:longitude": -121.81089952765926,
    "src:alt_label": "swim-approach",
    "src:geom": "swim",
    "swim:elevations": [
      4888,
      4614,
      4292,
      4017,
      3525,
      3199,
      3201,
      2888,
      2681,
      2436,
      2438,
      2438,
      2225,
      2020,
      1947,
      1765,
      1644,
      1369,
      1194,
      987,
      916,
      713,
      610,
      426,
      324,
      169,
      65,
      29
    ],
    "swim:geom": "approach",
    "swim:timestamps": [
      1769861053,
      1769861078,
      1769861107,
      1769861132,
      1769861179,
      1769861217,
      1769861222,
      1769861277,
      1769861299,
      1769861336,
      1769861357,
      1769861371,
      1769861409,
      1769861455,
      1769861476,
      1769861517,
      1769861537,
      1769861578,
      1769861601,
      1769861637,
      1769861644,
      1769861681,
      1769861701,
      1769861751,
      1769861778,
      1769861818,
      1769861848,
      1769861855
    ],
    "wof:geomhash": "65c1126cdbeda52366a84e1cfdd96ce9",
    "wof:id": 2014682063,
    "wof:repo": "sfomuseum-data-flights-2026-01"
  },
  "bbox": [
    -122.35496,
    37.49194,
    -121.2571,
    37.61256
  ],
  "geometry": {"coordinates":[[-121.2571,37.5936],[-121.30836,37.58712],[-121.36532,37.58095],[-121.41507,37.57559],[-121.50407,37.56493],[-121.5736,37.55676],[-121.58269,37.55572],[-121.6698,37.53998],[-121.70179,37.53251],[-121.75536,37.51988],[-121.78297,37.51301],[-121.80128,37.50838],[-121.85232,37.49615],[-121.91528,37.49194],[-121.94257,37.49266],[-121.99691,37.49749],[-122.02214,37.5057],[-122.077,37.52354],[-122.10786,37.53374],[-122.15359,37.54861],[-122.16263,37.55144],[-122.2043,37.56436],[-122.22548,37.57116],[-122.27355,37.58638],[-122.29591,37.59244],[-122.32822,37.60134],[-122.34993,37.61044],[-122.35496,37.61256]],"type":"LineString"}
}
