{
  "id": 2014685891,
  "type": "Feature",
  "properties": {
    "geom:area": 0,
    "geom:bbox": "-122.526140,37.628840,-121.247070,37.972760",
    "geom:latitude": 37.85808749521403,
    "geom:longitude": -121.97916199534576,
    "src:alt_label": "swim-takeoff",
    "src:geom": "swim",
    "swim:elevations": [
      224,
      322,
      800,
      957,
      1066,
      1592,
      1972,
      2333,
      2591,
      2755,
      2894,
      3171,
      3468,
      3578,
      3932,
      4202,
      4310,
      4595,
      4957,
      5323,
      5467,
      5902,
      5981,
      6234,
      6500,
      6893,
      7097,
      7363,
      7534,
      7620
    ],
    "swim:geom": "takeoff",
    "swim:timestamps": [
      1769851732,
      1769851743,
      1769851786,
      1769851827,
      1769851844,
      1769851885,
      1769851914,
      1769851941,
      1769851960,
      1769851974,
      1769851985,
      1769852015,
      1769852060,
      1769852071,
      1769852104,
      1769852133,
      1769852143,
      1769852169,
      1769852198,
      1769852233,
      1769852257,
      1769852306,
      1769852318,
      1769852353,
      1769852386,
      1769852426,
      1769852449,
      1769852480,
      1769852505,
      1769852520
    ],
    "wof:geomhash": "ab805149cd57d86ade901882797a41bd",
    "wof:id": 2014685891,
    "wof:repo": "sfomuseum-data-flights-2026-01"
  },
  "bbox": [
    -122.52614,
    37.62884,
    -121.24707,
    37.97276
  ],
  "geometry": {"coordinates":[[-122.39931,37.62884],[-122.40985,37.63332],[-122.45452,37.65283],[-122.50191,37.67357],[-122.5184,37.68803],[-122.52565,37.73969],[-122.52614,37.77732],[-122.50027,37.80359],[-122.47008,37.80955],[-122.44656,37.81248],[-122.42807,37.81516],[-122.37675,37.82256],[-122.29047,37.83474],[-122.26903,37.83774],[-122.20183,37.84691],[-122.14005,37.85533],[-122.11761,37.8583],[-122.06018,37.86603],[-121.99816,37.87434],[-121.92195,37.88463],[-121.86798,37.89187],[-121.75778,37.9065],[-121.73055,37.91011],[-121.64839,37.92088],[-121.56918,37.93126],[-121.47345,37.94372],[-121.41792,37.95094],[-121.34538,37.96014],[-121.28485,37.96794],[-121.24707,37.97276]],"type":"LineString"}
}
