{
  "id": 2014685609,
  "type": "Feature",
  "properties": {
    "geom:area": 0,
    "geom:bbox": "-122.385270,37.636490,-121.253520,38.420440",
    "geom:latitude": 38.087451053721516,
    "geom:longitude": -121.9260786151464,
    "src:alt_label": "swim-takeoff",
    "src:geom": "swim",
    "swim:elevations": [
      459,
      669,
      808,
      1279,
      1783,
      2347,
      2879,
      3179,
      3737,
      3886,
      4280,
      4791,
      5161,
      5667,
      5800,
      6375,
      6593,
      7107,
      7407,
      7594,
      7937,
      8233,
      8493,
      8688,
      8811,
      9072,
      9538
    ],
    "swim:geom": "takeoff",
    "swim:timestamps": [
      1769925478,
      1769925505,
      1769925514,
      1769925553,
      1769925592,
      1769925626,
      1769925656,
      1769925677,
      1769925713,
      1769925740,
      1769925767,
      1769925800,
      1769925827,
      1769925863,
      1769925872,
      1769925914,
      1769925932,
      1769925977,
      1769926004,
      1769926021,
      1769926052,
      1769926081,
      1769926108,
      1769926129,
      1769926144,
      1769926172,
      1769926210
    ],
    "wof:geomhash": "bcee541d905fb8d2ca0e9a09fffbb39b",
    "wof:id": 2014685609,
    "wof:repo": "sfomuseum-data-flights-2026-01"
  },
  "bbox": [
    -122.38527,
    37.63649,
    -121.25352,
    38.42044
  ],
  "geometry": {"coordinates":[[-122.35768,37.63649],[-122.33768,37.65393],[-122.33037,37.66044],[-122.31129,37.6955],[-122.33256,37.7392],[-122.35331,37.7785],[-122.37099,37.81436],[-122.38291,37.84119],[-122.38527,37.8933],[-122.36815,37.93481],[-122.3215,37.96528],[-122.25272,37.99346],[-122.19434,38.01721],[-122.11429,38.04919],[-122.09395,38.05729],[-121.99864,38.09534],[-121.95625,38.11225],[-121.84653,38.15596],[-121.77929,38.18263],[-121.73582,38.19989],[-121.65807,38.23061],[-121.58375,38.2598],[-121.51295,38.28772],[-121.45672,38.30912],[-121.41719,38.32561],[-121.34491,38.36432],[-121.25352,38.42044]],"type":"LineString"}
}
