{
  "id": 2014682365,
  "type": "Feature",
  "properties": {
    "geom:area": 0,
    "geom:bbox": "-122.358680,37.491340,-121.266560,37.614500",
    "geom:latitude": 37.54605236341485,
    "geom:longitude": -121.81762956920274,
    "src:alt_label": "swim-approach",
    "src:geom": "swim",
    "swim:elevations": [
      4977,
      4681,
      4526,
      3937,
      3724,
      3542,
      3425,
      3054,
      2881,
      2829,
      2706,
      2498,
      2439,
      2253,
      2051,
      1941,
      1809,
      1658,
      1585,
      1402,
      1310,
      1125,
      944,
      868,
      669,
      630,
      417,
      274,
      170,
      86,
      0
    ],
    "swim:geom": "approach",
    "swim:timestamps": [
      1769891333,
      1769891359,
      1769891374,
      1769891425,
      1769891452,
      1769891482,
      1769891494,
      1769891536,
      1769891567,
      1769891582,
      1769891603,
      1769891633,
      1769891651,
      1769891677,
      1769891716,
      1769891753,
      1769891788,
      1769891818,
      1769891830,
      1769891866,
      1769891884,
      1769891924,
      1769891964,
      1769891977,
      1769892020,
      1769892031,
      1769892073,
      1769892106,
      1769892136,
      1769892156,
      1769892175
    ],
    "wof:geomhash": "3f42e42dd27b83b77a33d6c38590152a",
    "wof:id": 2014682365,
    "wof:repo": "sfomuseum-data-flights-2026-01"
  },
  "bbox": [
    -122.35868,
    37.49134,
    -121.26656,
    37.6145
  ],
  "geometry": {"coordinates":[[-121.26656,37.59225],[-121.31908,37.58598],[-121.34716,37.58295],[-121.44557,37.57192],[-121.49757,37.56593],[-121.5501,37.5597],[-121.57028,37.55723],[-121.63956,37.5471],[-121.68635,37.53601],[-121.70838,37.53085],[-121.73867,37.5236],[-121.78175,37.51327],[-121.80788,37.50709],[-121.84547,37.49791],[-121.90175,37.49134],[-121.95007,37.49281],[-121.99098,37.49563],[-122.0232,37.50572],[-122.03577,37.50977],[-122.07333,37.52217],[-122.09175,37.52829],[-122.13162,37.54134],[-122.1721,37.55443],[-122.18502,37.55855],[-122.23034,37.57323],[-122.24133,37.57679],[-122.27933,37.58823],[-122.30621,37.59578],[-122.32998,37.60241],[-122.34503,37.60848],[-122.35868,37.6145]],"type":"LineString"}
}
