{
  "id": 2014682261,
  "type": "Feature",
  "properties": {
    "geom:area": 0,
    "geom:bbox": "-122.844110,37.446000,-122.139610,38.488530",
    "geom:latitude": 37.83784436709698,
    "geom:longitude": -122.51117042555408,
    "src:alt_label": "swim-approach",
    "src:geom": "swim",
    "swim:elevations": [
      7772,
      7543,
      7307,
      7105,
      6824,
      6474,
      6303,
      5996,
      5697,
      5654,
      5451,
      5226,
      5057,
      4820,
      4499,
      4425,
      4244,
      4042,
      3872,
      3549,
      3392,
      3351,
      3353,
      3353,
      3353,
      3288,
      3191,
      2938,
      2723,
      2372,
      2033,
      1890,
      1688,
      1505,
      1304,
      1040,
      943,
      909,
      914,
      775,
      645,
      574,
      340,
      323,
      126,
      0,
      0
    ],
    "swim:geom": "approach",
    "swim:timestamps": [
      1769895324,
      1769895351,
      1769895378,
      1769895399,
      1769895431,
      1769895473,
      1769895493,
      1769895529,
      1769895563,
      1769895570,
      1769895597,
      1769895628,
      1769895649,
      1769895677,
      1769895716,
      1769895727,
      1769895748,
      1769895778,
      1769895804,
      1769895838,
      1769895860,
      1769895875,
      1769895900,
      1769895933,
      1769895967,
      1769895985,
      1769896000,
      1769896036,
      1769896075,
      1769896102,
      1769896129,
      1769896144,
      1769896162,
      1769896183,
      1769896208,
      1769896250,
      1769896278,
      1769896290,
      1769896314,
      1769896348,
      1769896372,
      1769896387,
      1769896438,
      1769896449,
      1769896498,
      1769896528,
      1769896532
    ],
    "wof:geomhash": "3f5b79236d22dd74829776168290ac8a",
    "wof:id": 2014682261,
    "wof:repo": "sfomuseum-data-flights-2026-01"
  },
  "bbox": [
    -122.84411,
    37.446,
    -122.13961,
    38.48853
  ],
  "geometry": {"coordinates":[[-122.84411,38.48853],[-122.83154,38.44535],[-122.81894,38.40237],[-122.80913,38.36914],[-122.79429,38.31819],[-122.77526,38.25323],[-122.76668,38.22375],[-122.75099,38.16995],[-122.73625,38.11914],[-122.73321,38.10878],[-122.72173,38.06921],[-122.70846,38.02295],[-122.69933,37.99203],[-122.68759,37.95129],[-122.6668,37.89621],[-122.65316,37.88184],[-122.62705,37.85689],[-122.59031,37.82209],[-122.56101,37.79453],[-122.52448,37.75973],[-122.502,37.73856],[-122.48654,37.72392],[-122.45962,37.69885],[-122.42527,37.66666],[-122.39005,37.6333],[-122.372,37.61562],[-122.36236,37.59861],[-122.33757,37.55878],[-122.31266,37.51787],[-122.28879,37.49505],[-122.25417,37.47804],[-122.23495,37.46858],[-122.2122,37.45689],[-122.1847,37.446],[-122.1503,37.45283],[-122.13961,37.49538],[-122.15182,37.5228],[-122.1624,37.53018],[-122.18495,37.541],[-122.21728,37.55471],[-122.23918,37.56392],[-122.25312,37.56983],[-122.29556,37.58761],[-122.30344,37.59095],[-122.33891,37.60589],[-122.36021,37.61463],[-122.36237,37.6164]],"type":"LineString"}
}
