{
  "id": 2014684703,
  "type": "Feature",
  "properties": {
    "geom:area": 0,
    "geom:bbox": "-122.385240,37.643750,-121.287350,38.377670",
    "geom:latitude": 38.07892942412945,
    "geom:longitude": -121.94515502085643,
    "src:alt_label": "swim-takeoff",
    "src:geom": "swim",
    "swim:elevations": [
      460,
      686,
      1022,
      1103,
      1335,
      1955,
      2672,
      3192,
      3281,
      3695,
      4278,
      4741,
      5165,
      5686,
      6100,
      6572,
      6803,
      7128,
      7486,
      7835,
      8122,
      8403,
      8525,
      8613,
      8893,
      8986,
      9241
    ],
    "swim:geom": "takeoff",
    "swim:timestamps": [
      1769927966,
      1769927993,
      1769928021,
      1769928027,
      1769928042,
      1769928075,
      1769928108,
      1769928144,
      1769928156,
      1769928189,
      1769928227,
      1769928257,
      1769928287,
      1769928325,
      1769928352,
      1769928388,
      1769928409,
      1769928441,
      1769928474,
      1769928507,
      1769928536,
      1769928567,
      1769928582,
      1769928591,
      1769928624,
      1769928633,
      1769928666
    ],
    "wof:geomhash": "3e7aede9765319283e7fe59af4890eab",
    "wof:id": 2014684703,
    "wof:repo": "sfomuseum-data-flights-2026-01"
  },
  "bbox": [
    -122.38524,
    37.64375,
    -121.28735,
    38.37767
  ],
  "geometry": {"coordinates":[[-122.35302,37.64375],[-122.33329,37.65977],[-122.31359,37.6848],[-122.31248,37.69157],[-122.31668,37.70878],[-122.33683,37.74631],[-122.35674,37.78499],[-122.37855,37.82932],[-122.38384,37.84655],[-122.38524,37.89897],[-122.34785,37.95572],[-122.28653,37.98253],[-122.22145,38.00734],[-122.13634,38.04033],[-122.07662,38.06424],[-121.99438,38.09727],[-121.94514,38.11696],[-121.86841,38.14748],[-121.78692,38.17983],[-121.70385,38.21248],[-121.62862,38.24191],[-121.54882,38.27346],[-121.51013,38.28843],[-121.48671,38.29801],[-121.3993,38.33285],[-121.37422,38.34243],[-121.28735,38.37767]],"type":"LineString"}
}
