{
  "id": 2014686345,
  "type": "Feature",
  "properties": {
    "geom:area": 0,
    "geom:bbox": "-123.500220,37.311320,-122.395750,37.665940",
    "geom:latitude": 37.49565594041935,
    "geom:longitude": -122.9429091346622,
    "src:alt_label": "swim-takeoff",
    "src:geom": "swim",
    "swim:elevations": [
      213,
      490,
      765,
      949,
      1139,
      1411,
      1765,
      1961,
      2526,
      2966,
      3109,
      3155,
      3453,
      3708,
      4016,
      4278,
      4591,
      4773,
      4948,
      4990,
      5199,
      5399,
      5602,
      5863,
      6068,
      6190
    ],
    "swim:geom": "takeoff",
    "swim:timestamps": [
      1769894096,
      1769894117,
      1769894150,
      1769894183,
      1769894210,
      1769894241,
      1769894265,
      1769894283,
      1769894325,
      1769894366,
      1769894393,
      1769894412,
      1769894447,
      1769894474,
      1769894516,
      1769894539,
      1769894572,
      1769894587,
      1769894608,
      1769894614,
      1769894638,
      1769894662,
      1769894692,
      1769894728,
      1769894755,
      1769894773
    ],
    "wof:geomhash": "063b28699a20c473e6e02adb677069ce",
    "wof:id": 2014686345,
    "wof:repo": "sfomuseum-data-flights-2026-01"
  },
  "bbox": [
    -123.50022,
    37.31132,
    -122.39575,
    37.66594
  ],
  "geometry": {"coordinates":[[-122.39575,37.62758],[-122.41564,37.63619],[-122.44705,37.64992],[-122.48353,37.66594],[-122.5203,37.66525],[-122.55665,37.64234],[-122.58499,37.62315],[-122.60649,37.60933],[-122.6634,37.58441],[-122.7236,37.56408],[-122.76628,37.55093],[-122.79836,37.54079],[-122.86069,37.52012],[-122.90989,37.50409],[-122.9883,37.47859],[-123.03302,37.46416],[-123.09683,37.44339],[-123.12574,37.43347],[-123.16627,37.4197],[-123.17813,37.41581],[-123.22584,37.40069],[-123.27503,37.38591],[-123.33539,37.36688],[-123.40917,37.34395],[-123.46539,37.32653],[-123.50022,37.31132]],"type":"LineString"}
}
