{
  "id": 2014681711,
  "type": "Feature",
  "properties": {
    "geom:area": 0,
    "geom:bbox": "-122.353160,37.492300,-121.280480,37.611840",
    "geom:latitude": 37.54496644698937,
    "geom:longitude": -121.82150448703322,
    "src:alt_label": "swim-approach",
    "src:geom": "swim",
    "swim:elevations": [
      4796,
      4465,
      4262,
      3776,
      3656,
      3443,
      3224,
      3089,
      2792,
      2548,
      2438,
      2438,
      2433,
      2280,
      2172,
      1957,
      1839,
      1829,
      1761,
      1585,
      1394,
      1336,
      1231,
      1033,
      945,
      867,
      716,
      641,
      540,
      425,
      364,
      218,
      86,
      47
    ],
    "swim:geom": "approach",
    "swim:timestamps": [
      1769900516,
      1769900545,
      1769900562,
      1769900606,
      1769900615,
      1769900636,
      1769900660,
      1769900692,
      1769900725,
      1769900746,
      1769900781,
      1769900802,
      1769900817,
      1769900847,
      1769900864,
      1769900906,
      1769900936,
      1769900960,
      1769900972,
      1769900986,
      1769901004,
      1769901013,
      1769901031,
      1769901077,
      1769901109,
      1769901136,
      1769901167,
      1769901182,
      1769901200,
      1769901227,
      1769901248,
      1769901288,
      1769901327,
      1769901339
    ],
    "wof:geomhash": "10ef617ff0a36f0d9aa09a60a65d76a1",
    "wof:id": 2014681711,
    "wof:repo": "sfomuseum-data-flights-2026-01"
  },
  "bbox": [
    -122.35316,
    37.4923,
    -121.28048,
    37.61184
  ],
  "geometry": {"coordinates":[[-121.28048,37.59039],[-121.3365,37.58375],[-121.36959,37.58007],[-121.45296,37.57056],[-121.47,37.56854],[-121.50961,37.56391],[-121.55471,37.5587],[-121.61093,37.55208],[-121.66466,37.54101],[-121.69826,37.53274],[-121.75043,37.52051],[-121.77974,37.51361],[-121.8007,37.50858],[-121.84223,37.49862],[-121.86444,37.49341],[-121.92261,37.4923],[-121.96073,37.49315],[-121.99162,37.49577],[-122.00654,37.50049],[-122.02332,37.50611],[-122.04641,37.51369],[-122.05791,37.51742],[-122.07987,37.52457],[-122.13145,37.54137],[-122.16393,37.55175],[-122.19125,37.56054],[-122.22177,37.57037],[-122.23619,37.57508],[-122.25307,37.58048],[-122.27562,37.58728],[-122.2909,37.59173],[-122.31867,37.59995],[-122.34542,37.60864],[-122.35316,37.61184]],"type":"LineString"}
}
