{
  "id": 2014682041,
  "type": "Feature",
  "properties": {
    "geom:area": 0,
    "geom:bbox": "-122.354830,37.491710,-121.247400,37.612490",
    "geom:latitude": 37.54666443059863,
    "geom:longitude": -121.80593386339069,
    "src:alt_label": "swim-approach",
    "src:geom": "swim",
    "swim:elevations": [
      5133,
      4971,
      4514,
      4148,
      4032,
      3532,
      3319,
      3098,
      3037,
      2666,
      2529,
      2350,
      2151,
      2050,
      1922,
      1732,
      1566,
      1376,
      1335,
      983,
      863,
      687,
      634,
      580,
      400,
      308,
      271,
      176,
      49,
      27
    ],
    "swim:geom": "approach",
    "swim:timestamps": [
      1769883175,
      1769883187,
      1769883228,
      1769883261,
      1769883271,
      1769883316,
      1769883346,
      1769883388,
      1769883397,
      1769883439,
      1769883463,
      1769883502,
      1769883535,
      1769883556,
      1769883586,
      1769883625,
      1769883652,
      1769883682,
      1769883691,
      1769883745,
      1769883766,
      1769883804,
      1769883824,
      1769883850,
      1769883895,
      1769883916,
      1769883931,
      1769883956,
      1769883988,
      1769883991
    ],
    "wof:geomhash": "2c4250c41c0c6fb49831748df910cca6",
    "wof:id": 2014682041,
    "wof:repo": "sfomuseum-data-flights-2026-01"
  },
  "bbox": [
    -122.35483,
    37.49171,
    -121.2474,
    37.61249
  ],
  "geometry": {"coordinates":[[-121.2474,37.59476],[-121.27157,37.59143],[-121.35465,37.58206],[-121.41945,37.57488],[-121.43949,37.57267],[-121.52574,37.56253],[-121.58119,37.55591],[-121.65182,37.54441],[-121.66592,37.54107],[-121.73322,37.52508],[-121.77121,37.5158],[-121.82926,37.50192],[-121.87746,37.49182],[-121.90898,37.49171],[-121.95204,37.49295],[-122.00312,37.49953],[-122.03625,37.51045],[-122.07046,37.52125],[-122.08096,37.52465],[-122.14083,37.5443],[-122.1634,37.55172],[-122.20289,37.56441],[-122.22185,37.57054],[-122.24447,37.57781],[-122.28171,37.589],[-122.29899,37.59414],[-122.31057,37.59748],[-122.32928,37.60313],[-122.3527,37.61159],[-122.35483,37.61249]],"type":"LineString"}
}
