{
  "id": 2014682277,
  "type": "Feature",
  "properties": {
    "geom:area": 0,
    "geom:bbox": "-123.468170,36.873280,-122.091110,37.613560",
    "geom:latitude": 37.27515975749377,
    "geom:longitude": -122.69532508685478,
    "src:alt_label": "swim-approach",
    "src:geom": "swim",
    "swim:elevations": [
      5730,
      5587,
      5260,
      4817,
      4546,
      4346,
      4072,
      3934,
      3753,
      3485,
      3225,
      3139,
      3108,
      3048,
      3048,
      3048,
      2863,
      2804,
      2772,
      2715,
      2652,
      2595,
      2559,
      2496,
      2469,
      2268,
      2084,
      2032,
      1945,
      1853,
      1710,
      1544,
      1291,
      945,
      913,
      914,
      830,
      630,
      514,
      372,
      206,
      91,
      3
    ],
    "swim:geom": "approach",
    "swim:timestamps": [
      1769926099,
      1769926116,
      1769926151,
      1769926198,
      1769926225,
      1769926248,
      1769926277,
      1769926291,
      1769926309,
      1769926339,
      1769926372,
      1769926405,
      1769926417,
      1769926467,
      1769926495,
      1769926515,
      1769926555,
      1769926588,
      1769926600,
      1769926639,
      1769926668,
      1769926698,
      1769926725,
      1769926761,
      1769926785,
      1769926825,
      1769926850,
      1769926862,
      1769926879,
      1769926892,
      1769926927,
      1769926957,
      1769926987,
      1769927032,
      1769927044,
      1769927077,
      1769927108,
      1769927142,
      1769927170,
      1769927201,
      1769927243,
      1769927267,
      1769927288
    ],
    "wof:geomhash": "f68431de1f2606e2e267ff1a009f7a05",
    "wof:id": 2014682277,
    "wof:repo": "sfomuseum-data-flights-2026-01"
  },
  "bbox": [
    -123.46817,
    36.87328,
    -122.09111,
    37.61356
  ],
  "geometry": {"coordinates":[[-123.46817,36.87328],[-123.4348,36.89508],[-123.36893,36.93689],[-123.28154,36.99258],[-123.23169,37.02428],[-123.18979,37.05099],[-123.13877,37.08351],[-123.11304,37.09976],[-123.08136,37.11996],[-123.02913,37.15303],[-122.97253,37.18889],[-122.91937,37.22249],[-122.90104,37.23399],[-122.82132,37.26713],[-122.7762,37.27783],[-122.74311,37.28565],[-122.67756,37.30098],[-122.6231,37.31371],[-122.6033,37.3183],[-122.53839,37.33333],[-122.49064,37.34441],[-122.44125,37.35574],[-122.39781,37.36565],[-122.34182,37.37863],[-122.30467,37.38719],[-122.24398,37.401],[-122.20579,37.40978],[-122.18903,37.41354],[-122.1669,37.41852],[-122.14838,37.42274],[-122.1153,37.44748],[-122.09955,37.47491],[-122.09111,37.50319],[-122.12508,37.53376],[-122.13942,37.53639],[-122.17594,37.54268],[-122.20756,37.55057],[-122.24,37.56429],[-122.26507,37.57484],[-122.29091,37.58569],[-122.32328,37.59929],[-122.34166,37.60699],[-122.35731,37.61356]],"type":"LineString"}
}
