{
  "id": 2014685391,
  "type": "Feature",
  "properties": {
    "geom:area": 0,
    "geom:bbox": "-122.366580,37.628080,-121.489050,38.482040",
    "geom:latitude": 38.04547213105611,
    "geom:longitude": -121.92085094891938,
    "src:alt_label": "swim-takeoff",
    "src:geom": "swim",
    "swim:elevations": [
      152,
      491,
      586,
      956,
      1531,
      2043,
      2144,
      2896,
      3257,
      3426,
      3464,
      4181,
      4262,
      4730,
      5138,
      5435,
      5907,
      6178,
      6663,
      6939,
      7050,
      7394,
      7516
    ],
    "swim:geom": "takeoff",
    "swim:timestamps": [
      1769868654,
      1769868684,
      1769868704,
      1769868732,
      1769868778,
      1769868808,
      1769868816,
      1769868864,
      1769868894,
      1769868928,
      1769868932,
      1769868988,
      1769868996,
      1769869033,
      1769869063,
      1769869089,
      1769869141,
      1769869173,
      1769869228,
      1769869258,
      1769869273,
      1769869315,
      1769869330
    ],
    "wof:geomhash": "3debba1f1f7a1d689fcb56d81050c343",
    "wof:id": 2014685391,
    "wof:repo": "sfomuseum-data-flights-2026-01"
  },
  "bbox": [
    -122.36658,
    37.62808,
    -121.48905,
    38.48204
  ],
  "geometry": {"coordinates":[[-122.36658,37.62808],[-122.35015,37.64358],[-122.33184,37.65393],[-122.30298,37.67045],[-122.24767,37.70128],[-122.20923,37.7245],[-122.20128,37.73194],[-122.15377,37.78549],[-122.12247,37.81985],[-122.08292,37.8633],[-122.07714,37.86963],[-122.005,37.94903],[-121.99456,37.9605],[-121.94471,38.01543],[-121.90342,38.06056],[-121.86796,38.09944],[-121.79392,38.18036],[-121.74746,38.23098],[-121.66527,38.32045],[-121.6189,38.37077],[-121.59525,38.39647],[-121.52082,38.46186],[-121.48905,38.48204]],"type":"LineString"}
}
