{
  "id": 2014686051,
  "type": "Feature",
  "properties": {
    "geom:area": 0,
    "geom:bbox": "-122.464890,36.724850,-121.301750,37.709450",
    "geom:latitude": 37.205805056988105,
    "geom:longitude": -121.986698155241,
    "src:alt_label": "swim-takeoff",
    "src:geom": "swim",
    "swim:elevations": [
      470,
      742,
      913,
      1207,
      1430,
      1849,
      2005,
      2446,
      2788,
      2992,
      3382,
      3706,
      3984,
      4245,
      4515,
      4772,
      4944,
      5499,
      5863,
      5933,
      6429,
      6575,
      6862,
      6982,
      7295,
      7539,
      7704,
      7993,
      8074,
      8162,
      8370,
      8406,
      8687,
      8818,
      9041,
      9091
    ],
    "swim:geom": "takeoff",
    "swim:timestamps": [
      1769848466,
      1769848493,
      1769848511,
      1769848551,
      1769848579,
      1769848613,
      1769848623,
      1769848651,
      1769848673,
      1769848687,
      1769848715,
      1769848754,
      1769848780,
      1769848805,
      1769848831,
      1769848850,
      1769848862,
      1769848916,
      1769848946,
      1769848952,
      1769848996,
      1769849010,
      1769849035,
      1769849046,
      1769849083,
      1769849117,
      1769849139,
      1769849185,
      1769849203,
      1769849212,
      1769849246,
      1769849252,
      1769849300,
      1769849331,
      1769849368,
      1769849376
    ],
    "wof:geomhash": "410905e60e3a9f8f89154959676f589f",
    "wof:id": 2014686051,
    "wof:repo": "sfomuseum-data-flights-2026-01"
  },
  "bbox": [
    -122.46489,
    36.72485,
    -121.30175,
    37.70945
  ],
  "geometry": {"coordinates":[[-122.36289,37.6465],[-122.36241,37.66815],[-122.36174,37.68218],[-122.38857,37.70945],[-122.42455,37.70355],[-122.44257,37.66475],[-122.44424,37.65282],[-122.44988,37.61733],[-122.45518,37.58911],[-122.45822,37.57222],[-122.46489,37.53499],[-122.45248,37.48097],[-122.41499,37.45273],[-122.37321,37.42581],[-122.33068,37.39726],[-122.298,37.37566],[-122.27743,37.36234],[-122.18341,37.30193],[-122.13218,37.26871],[-122.12159,37.26179],[-122.04162,37.21004],[-122.01689,37.19396],[-121.97145,37.16449],[-121.95199,37.15184],[-121.88556,37.10845],[-121.82088,37.06636],[-121.77904,37.03912],[-121.69237,36.98193],[-121.65681,36.95885],[-121.63818,36.94626],[-121.57065,36.90216],[-121.55859,36.89417],[-121.46024,36.82879],[-121.39566,36.78646],[-121.31867,36.7358],[-121.30175,36.72485]],"type":"LineString"}
}
