{
  "id": 2014682351,
  "type": "Feature",
  "properties": {
    "geom:area": 0,
    "geom:bbox": "-122.805720,37.544070,-122.075580,38.492950",
    "geom:latitude": 37.897364434824496,
    "geom:longitude": -122.51011362742547,
    "src:alt_label": "swim-approach",
    "src:geom": "swim",
    "swim:elevations": [
      8063,
      7897,
      7391,
      7262,
      6952,
      6637,
      6510,
      6057,
      5702,
      5425,
      5228,
      4849,
      4603,
      4273,
      3879,
      3739,
      3611,
      3414,
      3350,
      3353,
      3330,
      3071,
      2848,
      2519,
      2442,
      2034,
      1878,
      1829,
      1829,
      1829,
      1789,
      1606,
      1163,
      951,
      844,
      587
    ],
    "swim:geom": "approach",
    "swim:timestamps": [
      1769869315,
      1769869330,
      1769869377,
      1769869390,
      1769869420,
      1769869449,
      1769869470,
      1769869513,
      1769869545,
      1769869574,
      1769869594,
      1769869630,
      1769869655,
      1769869688,
      1769869726,
      1769869740,
      1769869754,
      1769869794,
      1769869813,
      1769869832,
      1769869869,
      1769869905,
      1769869932,
      1769869977,
      1769869985,
      1769870033,
      1769870052,
      1769870078,
      1769870092,
      1769870111,
      1769870134,
      1769870160,
      1769870212,
      1769870237,
      1769870260,
      1769870301
    ],
    "wof:geomhash": "734e2918d1a0d7f0cae40f10c0581a5f",
    "wof:id": 2014682351,
    "wof:repo": "sfomuseum-data-flights-2026-01"
  },
  "bbox": [
    -122.80572,
    37.54407,
    -122.07558,
    38.49295
  ],
  "geometry": {"coordinates":[[-122.80572,38.49295],[-122.80146,38.46504],[-122.78922,38.37951],[-122.78592,38.35646],[-122.77862,38.30549],[-122.7714,38.2552],[-122.76521,38.21975],[-122.74568,38.15149],[-122.73126,38.10196],[-122.71793,38.05589],[-122.70908,38.02533],[-122.69321,37.97043],[-122.68247,37.93301],[-122.65832,37.88654],[-122.60949,37.84],[-122.59249,37.82398],[-122.57459,37.80716],[-122.52614,37.76137],[-122.50448,37.74076],[-122.48402,37.72213],[-122.43129,37.70549],[-122.37889,37.69486],[-122.34208,37.68644],[-122.28329,37.66815],[-122.27293,37.66483],[-122.21303,37.64492],[-122.18989,37.63711],[-122.15854,37.6269],[-122.14144,37.6214],[-122.1176,37.61388],[-122.09289,37.6015],[-122.07558,37.5795],[-122.113,37.54407],[-122.14713,37.55131],[-122.17522,37.55972],[-122.22071,37.57167]],"type":"LineString"}
}
