{
  "id": 2014684305,
  "type": "Feature",
  "properties": {
    "geom:area": 0,
    "geom:bbox": "-122.364140,37.631640,-122.142630,38.502380",
    "geom:latitude": 38.03207312100627,
    "geom:longitude": -122.18702617117991,
    "src:alt_label": "swim-takeoff",
    "src:geom": "swim",
    "swim:elevations": [
      274,
      757,
      1094,
      1667,
      1872,
      2592,
      3183,
      3317,
      4082,
      4145,
      4595,
      5176,
      5405,
      5883,
      6180,
      6556,
      7005,
      7196,
      7621,
      7758
    ],
    "swim:geom": "takeoff",
    "swim:timestamps": [
      1769878594,
      1769878639,
      1769878669,
      1769878701,
      1769878714,
      1769878753,
      1769878788,
      1769878804,
      1769878855,
      1769878860,
      1769878890,
      1769878937,
      1769878957,
      1769878997,
      1769879025,
      1769879056,
      1769879095,
      1769879112,
      1769879158,
      1769879176
    ],
    "wof:geomhash": "0ac707761416f24b5c5025b59a468c4d",
    "wof:id": 2014684305,
    "wof:repo": "sfomuseum-data-flights-2026-01"
  },
  "bbox": [
    -122.36414,
    37.63164,
    -122.14263,
    38.50238
  ],
  "geometry": {"coordinates":[[-122.36414,37.63164],[-122.32457,37.6547],[-122.29055,37.67589],[-122.24849,37.70004],[-122.23173,37.70867],[-122.20208,37.75425],[-122.19888,37.80314],[-122.19591,37.8278],[-122.18314,37.90787],[-122.18184,37.91575],[-122.17391,37.96505],[-122.16097,38.04484],[-122.15504,38.0801],[-122.15068,38.15361],[-122.14949,38.20579],[-122.14802,38.26523],[-122.14614,38.34047],[-122.14532,38.37421],[-122.14293,38.46653],[-122.14263,38.50238]],"type":"LineString"}
}
