{
  "id": 2014682407,
  "type": "Feature",
  "properties": {
    "geom:area": 0,
    "geom:bbox": "-122.358360,36.726340,-121.882150,37.611370",
    "geom:latitude": 37.20677570346496,
    "geom:longitude": -122.09601610287964,
    "src:alt_label": "swim-approach",
    "src:geom": "swim",
    "swim:elevations": [
      4662,
      4405,
      4213,
      3961,
      3689,
      3535,
      3507,
      3351,
      3280,
      3073,
      3050,
      3048,
      2945,
      2794,
      2622,
      2609,
      2564,
      2369,
      2218,
      2083,
      1945,
      1705,
      1581,
      1353,
      1301,
      1194,
      848,
      591,
      475,
      389,
      273,
      74,
      0
    ],
    "swim:geom": "approach",
    "swim:timestamps": [
      1769879034,
      1769879063,
      1769879085,
      1769879105,
      1769879138,
      1769879185,
      1769879206,
      1769879242,
      1769879253,
      1769879286,
      1769879302,
      1769879330,
      1769879366,
      1769879384,
      1769879412,
      1769879417,
      1769879430,
      1769879478,
      1769879504,
      1769879528,
      1769879560,
      1769879597,
      1769879620,
      1769879657,
      1769879678,
      1769879701,
      1769879753,
      1769879784,
      1769879805,
      1769879830,
      1769879854,
      1769879906,
      1769879923
    ],
    "wof:geomhash": "136ba4f93a4d850e99212872ccc56cee",
    "wof:id": 2014682407,
    "wof:repo": "sfomuseum-data-flights-2026-01"
  },
  "bbox": [
    -122.35836,
    36.72634,
    -121.88215,
    37.61137
  ],
  "geometry": {"coordinates":[[-121.88215,36.72634],[-121.9025,36.77202],[-121.91277,36.80915],[-121.92205,36.84209],[-121.937,36.89467],[-121.95838,36.96577],[-121.96977,36.99454],[-121.98773,37.04096],[-121.99344,37.0545],[-122.02636,37.0873],[-122.04426,37.10243],[-122.07507,37.12867],[-122.11391,37.162],[-122.1335,37.17855],[-122.16465,37.2044],[-122.16998,37.2087],[-122.18212,37.22021],[-122.18326,37.27594],[-122.18177,37.30577],[-122.18044,37.33349],[-122.17127,37.36848],[-122.15878,37.40888],[-122.15105,37.43373],[-122.14684,37.47399],[-122.15811,37.49348],[-122.17145,37.51477],[-122.21553,37.55193],[-122.25039,37.56566],[-122.27144,37.57464],[-122.29227,37.5839],[-122.31028,37.59136],[-122.34719,37.60705],[-122.35836,37.61137]],"type":"LineString"}
}
