{
  "id": 2014682465,
  "type": "Feature",
  "properties": {
    "geom:area": 0,
    "geom:bbox": "-122.189480,36.749470,-121.893710,37.525280",
    "geom:latitude": 37.142229062198986,
    "geom:longitude": -122.03040240342062,
    "src:alt_label": "swim-approach",
    "src:geom": "swim",
    "swim:elevations": [
      5041,
      4797,
      4723,
      4341,
      4174,
      3980,
      3541,
      3268,
      3165,
      3076,
      2946,
      2802,
      2460,
      2260,
      2127,
      1981,
      1764,
      1639,
      1370,
      1260,
      992
    ],
    "swim:geom": "approach",
    "swim:timestamps": [
      1769869721,
      1769869746,
      1769869754,
      1769869794,
      1769869809,
      1769869832,
      1769869881,
      1769869912,
      1769869932,
      1769869966,
      1769869993,
      1769870016,
      1769870066,
      1769870092,
      1769870114,
      1769870140,
      1769870177,
      1769870197,
      1769870241,
      1769870254,
      1769870293
    ],
    "wof:geomhash": "12eafdb24896310e3afb7737e4a1d115",
    "wof:id": 2014682465,
    "wof:repo": "sfomuseum-data-flights-2026-01"
  },
  "bbox": [
    -122.18948,
    36.74947,
    -121.89371,
    37.52528
  ],
  "geometry": {"coordinates":[[-121.89371,36.74947],[-121.90817,36.79228],[-121.91229,36.80673],[-121.93164,36.87589],[-121.93862,36.90066],[-121.94933,36.9389],[-121.97848,37.01689],[-121.99695,37.06447],[-122.00839,37.09353],[-122.02736,37.14233],[-122.04107,37.17719],[-122.05312,37.20796],[-122.078,37.27166],[-122.09084,37.30407],[-122.10187,37.33214],[-122.1143,37.36365],[-122.12914,37.40495],[-122.13637,37.42611],[-122.15497,37.47396],[-122.1628,37.48774],[-122.18948,37.52528]],"type":"LineString"}
}
