{
  "id": 2014686039,
  "type": "Feature",
  "properties": {
    "geom:area": 0,
    "geom:bbox": "-122.364780,37.630860,-121.288580,38.027080",
    "geom:latitude": 37.853149455196856,
    "geom:longitude": -121.83590166987732,
    "src:alt_label": "swim-takeoff",
    "src:geom": "swim",
    "swim:elevations": [
      152,
      305,
      953,
      1106,
      1226,
      1825,
      1954,
      2469,
      2834,
      3143,
      3264,
      3407,
      3890,
      4457,
      4807,
      5267,
      5510,
      5740,
      5980,
      6275,
      6319
    ],
    "swim:geom": "takeoff",
    "swim:timestamps": [
      1769860018,
      1769860026,
      1769860078,
      1769860101,
      1769860117,
      1769860165,
      1769860177,
      1769860217,
      1769860246,
      1769860288,
      1769860315,
      1769860331,
      1769860377,
      1769860436,
      1769860461,
      1769860495,
      1769860522,
      1769860550,
      1769860583,
      1769860619,
      1769860625
    ],
    "wof:geomhash": "68ec0dea3c92e38123ad38abe2e58e64",
    "wof:id": 2014686039,
    "wof:repo": "sfomuseum-data-flights-2026-01"
  },
  "bbox": [
    -122.36478,
    37.63086,
    -121.28858,
    38.02708
  ],
  "geometry": {"coordinates":[[-122.36478,37.63086],[-122.36042,37.63667],[-122.31331,37.66408],[-122.29136,37.67627],[-122.27301,37.68659],[-122.21332,37.71847],[-122.19773,37.72649],[-122.14272,37.75466],[-122.10231,37.77545],[-122.03813,37.80836],[-121.98768,37.82828],[-121.9548,37.83523],[-121.85312,37.85429],[-121.71795,37.87942],[-121.65847,37.89443],[-121.5878,37.92996],[-121.53146,37.95849],[-121.47243,37.98851],[-121.39532,38.01243],[-121.30611,38.02467],[-121.28858,38.02708]],"type":"LineString"}
}
