{
  "id": 2014686069,
  "type": "Feature",
  "properties": {
    "geom:area": 0,
    "geom:bbox": "-122.559210,36.737710,-122.286410,37.717410",
    "geom:latitude": 37.248352132333345,
    "geom:longitude": -122.46359372749404,
    "src:alt_label": "swim-takeoff",
    "src:geom": "swim",
    "swim:elevations": [
      122,
      503,
      869,
      1120,
      1661,
      2015,
      2752,
      3347,
      3530,
      4314,
      4892,
      5487,
      5792,
      5791,
      5791,
      5994,
      6575,
      6788,
      7240,
      7680,
      8306,
      8618,
      8798,
      9119,
      9315,
      9449,
      9449,
      9449,
      9449
    ],
    "swim:geom": "takeoff",
    "swim:timestamps": [
      1769877688,
      1769877713,
      1769877736,
      1769877755,
      1769877805,
      1769877821,
      1769877856,
      1769877886,
      1769877916,
      1769877949,
      1769877976,
      1769878009,
      1769878041,
      1769878061,
      1769878073,
      1769878096,
      1769878135,
      1769878150,
      1769878184,
      1769878216,
      1769878253,
      1769878277,
      1769878301,
      1769878336,
      1769878356,
      1769878399,
      1769878414,
      1769878463,
      1769878479
    ],
    "wof:geomhash": "39fca7a7158e5fb1d9f7f9c74b4dd2a5",
    "wof:id": 2014686069,
    "wof:repo": "sfomuseum-data-flights-2026-01"
  },
  "bbox": [
    -122.55921,
    36.73771,
    -122.28641,
    37.71741
  ],
  "geometry": {"coordinates":[[-122.37128,37.62539],[-122.3652,37.64254],[-122.36443,37.65952],[-122.36331,37.67427],[-122.39575,37.71741],[-122.42066,37.71682],[-122.45558,37.68572],[-122.45795,37.64763],[-122.46195,37.60448],[-122.46842,37.55264],[-122.47279,37.51157],[-122.48037,37.46041],[-122.48914,37.41184],[-122.49468,37.38159],[-122.49813,37.36251],[-122.50489,37.32603],[-122.51648,37.26455],[-122.52082,37.24076],[-122.53114,37.18518],[-122.54111,37.13144],[-122.55272,37.06992],[-122.55921,37.03038],[-122.5458,36.99057],[-122.49674,36.94067],[-122.46762,36.91255],[-122.40499,36.8519],[-122.38299,36.83091],[-122.30977,36.76027],[-122.28641,36.73771]],"type":"LineString"}
}
