{
  "id": 2014685971,
  "type": "Feature",
  "properties": {
    "geom:area": 0,
    "geom:bbox": "-122.366060,37.629280,-121.247180,38.423870",
    "geom:latitude": 38.03743564235014,
    "geom:longitude": -121.8162538610885,
    "src:alt_label": "swim-takeoff",
    "src:geom": "swim",
    "swim:elevations": [
      152,
      918,
      1028,
      1159,
      1249,
      1591,
      2099,
      2667,
      2813,
      3310,
      3466,
      3917,
      4175,
      4552,
      4807,
      5286,
      5457,
      5482,
      5515,
      5715,
      5982,
      6315,
      6428,
      6569,
      6849,
      6972,
      7281,
      7438,
      7716,
      8013
    ],
    "swim:geom": "takeoff",
    "swim:timestamps": [
      1769848592,
      1769848642,
      1769848651,
      1769848670,
      1769848683,
      1769848720,
      1769848757,
      1769848793,
      1769848805,
      1769848840,
      1769848851,
      1769848887,
      1769848910,
      1769848938,
      1769848959,
      1769848993,
      1769849020,
      1769849035,
      1769849040,
      1769849080,
      1769849111,
      1769849150,
      1769849162,
      1769849174,
      1769849203,
      1769849215,
      1769849246,
      1769849261,
      1769849292,
      1769849331
    ],
    "wof:geomhash": "4343e0a4f18a95d3664714878b936abf",
    "wof:id": 2014685971,
    "wof:repo": "sfomuseum-data-flights-2026-01"
  },
  "bbox": [
    -122.36606,
    37.62928,
    -121.24718,
    38.42387
  ],
  "geometry": {"coordinates":[[-122.36606,37.62928],[-122.3302,37.6567],[-122.32258,37.66092],[-122.30503,37.67048],[-122.29233,37.67707],[-122.24834,37.70048],[-122.20146,37.7308],[-122.16821,37.7698],[-122.156,37.78298],[-122.12084,37.82186],[-122.10991,37.83397],[-122.06999,37.87663],[-122.03713,37.90166],[-121.99491,37.92973],[-121.9639,37.95032],[-121.91033,37.98636],[-121.86856,38.01466],[-121.84293,38.03205],[-121.83485,38.0375],[-121.76398,38.08537],[-121.70507,38.1251],[-121.62666,38.17775],[-121.60392,38.193],[-121.58003,38.20904],[-121.52105,38.24844],[-121.49465,38.26605],[-121.43162,38.30811],[-121.40051,38.32885],[-121.33482,38.3706],[-121.24718,38.42387]],"type":"LineString"}
}
