{
  "id": 2014685843,
  "type": "Feature",
  "properties": {
    "geom:area": 0,
    "geom:bbox": "-122.369400,37.628420,-122.316130,37.811810",
    "geom:latitude": 37.71622969359201,
    "geom:longitude": -122.33923076007449,
    "src:alt_label": "swim-takeoff",
    "src:geom": "swim",
    "swim:elevations": [
      152,
      475,
      910,
      1037,
      1307,
      1444,
      2073,
      2606
    ],
    "swim:geom": "takeoff",
    "swim:timestamps": [
      1769930341,
      1769930361,
      1769930399,
      1769930407,
      1769930456,
      1769930465,
      1769930515,
      1769930544
    ],
    "wof:geomhash": "82b9c5c081ac9975fe0cb24853756c73",
    "wof:id": 2014685843,
    "wof:repo": "sfomuseum-data-flights-2026-01"
  },
  "bbox": [
    -122.3694,
    37.62842,
    -122.31613,
    37.81181
  ],
  "geometry": {"coordinates":[[-122.36653,37.62842],[-122.35613,37.64203],[-122.32847,37.66479],[-122.32164,37.67026],[-122.31613,37.71121],[-122.32179,37.72095],[-122.3526,37.77731],[-122.3694,37.81181]],"type":"LineString"}
}
