{
  "id": 2014682127,
  "type": "Feature",
  "properties": {
    "geom:area": 0,
    "geom:bbox": "-122.360400,37.491440,-121.272790,37.614740",
    "geom:latitude": 37.54577401490954,
    "geom:longitude": -121.82164653884102,
    "src:alt_label": "swim-approach",
    "src:geom": "swim",
    "swim:elevations": [
      4576,
      4402,
      4027,
      3798,
      3685,
      3292,
      3110,
      3054,
      2898,
      2346,
      2308,
      2096,
      2076,
      1987,
      1948,
      1857,
      1677,
      1464,
      1211,
      1084,
      943,
      730,
      688,
      486,
      273,
      215,
      0,
      0
    ],
    "swim:geom": "approach",
    "swim:timestamps": [
      1769868140,
      1769868164,
      1769868204,
      1769868232,
      1769868248,
      1769868296,
      1769868328,
      1769868340,
      1769868361,
      1769868418,
      1769868428,
      1769868470,
      1769868508,
      1769868533,
      1769868550,
      1769868575,
      1769868606,
      1769868636,
      1769868688,
      1769868709,
      1769868736,
      1769868778,
      1769868784,
      1769868827,
      1769868864,
      1769868881,
      1769868928,
      1769868932
    ],
    "wof:geomhash": "28791d53ea1b655676702d257b6a55aa",
    "wof:id": 2014682127,
    "wof:repo": "sfomuseum-data-flights-2026-01"
  },
  "bbox": [
    -122.3604,
    37.49144,
    -121.27279,
    37.61474
  ],
  "geometry": {"coordinates":[[-121.27279,37.59142],[-121.32049,37.58575],[-121.39623,37.57745],[-121.4506,37.57112],[-121.48018,37.5677],[-121.56855,37.55741],[-121.62525,37.5502],[-121.64554,37.54584],[-121.67848,37.53802],[-121.77092,37.51576],[-121.78739,37.5118],[-121.85285,37.49622],[-121.9075,37.49144],[-121.94114,37.49267],[-121.9641,37.4935],[-121.99458,37.49764],[-122.03419,37.51027],[-122.07359,37.52296],[-122.14109,37.54479],[-122.16712,37.55318],[-122.19881,37.56338],[-122.24062,37.57512],[-122.2457,37.57636],[-122.28187,37.58465],[-122.31176,37.5939],[-122.32362,37.599],[-122.35681,37.61334],[-122.3604,37.61474]],"type":"LineString"}
}
