{
  "id": 2014682363,
  "type": "Feature",
  "properties": {
    "geom:area": 0,
    "geom:bbox": "-122.759200,37.557570,-122.108580,38.292880",
    "geom:latitude": 37.81411122405465,
    "geom:longitude": -122.46589794237835,
    "src:alt_label": "swim-approach",
    "src:geom": "swim",
    "swim:elevations": [
      6770,
      6247,
      5825,
      5644,
      5475,
      5191,
      5011,
      4623,
      4400,
      4103,
      3901,
      3702,
      3459,
      3385,
      3313,
      3100,
      3032,
      2736,
      2626,
      2370,
      2124,
      1837,
      1678,
      1409,
      1217,
      894,
      799,
      676,
      495,
      398,
      213,
      131,
      23
    ],
    "swim:geom": "approach",
    "swim:timestamps": [
      1769875449,
      1769875509,
      1769875556,
      1769875576,
      1769875596,
      1769875637,
      1769875658,
      1769875703,
      1769875730,
      1769875753,
      1769875770,
      1769875802,
      1769875849,
      1769875864,
      1769875916,
      1769875946,
      1769875955,
      1769875998,
      1769876012,
      1769876046,
      1769876076,
      1769876113,
      1769876134,
      1769876173,
      1769876209,
      1769876248,
      1769876268,
      1769876293,
      1769876330,
      1769876350,
      1769876392,
      1769876413,
      1769876441
    ],
    "wof:geomhash": "ae625961e48950a7d441d3805017d695",
    "wof:id": 2014682363,
    "wof:repo": "sfomuseum-data-flights-2026-01"
  },
  "bbox": [
    -122.7592,
    37.55757,
    -122.10858,
    38.29288
  ],
  "geometry": {"coordinates":[[-122.6972,38.29288],[-122.7592,38.214],[-122.74262,38.14106],[-122.73373,38.1101],[-122.72501,38.07973],[-122.70705,38.01752],[-122.69804,37.9861],[-122.67842,37.9185],[-122.65397,37.88159],[-122.62391,37.85292],[-122.60235,37.83281],[-122.56158,37.7945],[-122.50867,37.74448],[-122.49077,37.73147],[-122.41729,37.70996],[-122.37656,37.6986],[-122.36489,37.69527],[-122.30867,37.67868],[-122.28993,37.67301],[-122.2476,37.66003],[-122.20959,37.6481],[-122.16378,37.63384],[-122.13731,37.62522],[-122.10858,37.59362],[-122.12614,37.56111],[-122.17672,37.55757],[-122.2007,37.5643],[-122.22913,37.5732],[-122.26564,37.58466],[-122.28438,37.59007],[-122.32102,37.60067],[-122.33581,37.60522],[-122.3555,37.61279]],"type":"LineString"}
}
