{
  "id": 2014681215,
  "type": "Feature",
  "properties": {
    "geom:area": 0,
    "geom:bbox": "-122.664430,37.457650,-122.161120,38.506300",
    "geom:latitude": 37.863132965057325,
    "geom:longitude": -122.45952600381992,
    "src:alt_label": "swim-approach",
    "src:geom": "swim",
    "swim:elevations": [
      8147,
      7800,
      7264,
      6919,
      6749,
      6439,
      6301,
      5941,
      5631,
      5420,
      5382,
      4941,
      4761,
      4642,
      4407,
      4144,
      3950,
      3826,
      3384,
      3353,
      3353,
      3353,
      3347,
      2955,
      2898,
      2758,
      2545,
      2256,
      2030,
      1674,
      1544,
      1254,
      1178,
      1125,
      917,
      772,
      627,
      600,
      387,
      219,
      137,
      49
    ],
    "swim:geom": "approach",
    "swim:timestamps": [
      1769852116,
      1769852140,
      1769852179,
      1769852217,
      1769852238,
      1769852273,
      1769852289,
      1769852329,
      1769852364,
      1769852386,
      1769852401,
      1769852449,
      1769852471,
      1769852486,
      1769852510,
      1769852544,
      1769852572,
      1769852582,
      1769852624,
      1769852656,
      1769852688,
      1769852717,
      1769852745,
      1769852786,
      1769852791,
      1769852807,
      1769852833,
      1769852864,
      1769852891,
      1769852933,
      1769852949,
      1769852995,
      1769853017,
      1769853033,
      1769853079,
      1769853115,
      1769853143,
      1769853151,
      1769853193,
      1769853231,
      1769853257,
      1769853280
    ],
    "wof:geomhash": "4b8076b40275e47d6c12f497a544a5a0",
    "wof:id": 2014681215,
    "wof:repo": "sfomuseum-data-flights-2026-01"
  },
  "bbox": [
    -122.66443,
    37.45765,
    -122.16112,
    38.5063
  ],
  "geometry": {"coordinates":[[-122.47878,38.5063],[-122.50882,38.47302],[-122.53068,38.40769],[-122.54771,38.34708],[-122.55743,38.31298],[-122.57286,38.25812],[-122.57979,38.23334],[-122.59746,38.17061],[-122.61273,38.11609],[-122.62224,38.08223],[-122.62836,38.06021],[-122.64928,37.98559],[-122.65834,37.95303],[-122.66443,37.93044],[-122.66221,37.89459],[-122.62392,37.85196],[-122.59083,37.82158],[-122.57863,37.81004],[-122.53248,37.76652],[-122.4974,37.73334],[-122.46256,37.70043],[-122.43173,37.67157],[-122.40466,37.64626],[-122.36686,37.60824],[-122.36356,37.60257],[-122.35367,37.5867],[-122.33329,37.56122],[-122.31337,37.53052],[-122.29597,37.5033],[-122.25863,37.47026],[-122.2385,37.46355],[-122.18041,37.45765],[-122.16467,37.47574],[-122.16112,37.49054],[-122.189,37.526],[-122.2148,37.55152],[-122.24261,37.56519],[-122.25001,37.56834],[-122.28933,37.58502],[-122.31842,37.59726],[-122.33632,37.60477],[-122.35279,37.61168]],"type":"LineString"}
}
