{
  "id": 2014682425,
  "type": "Feature",
  "properties": {
    "geom:area": 0,
    "geom:bbox": "-123.488590,37.259610,-122.153620,37.612660",
    "geom:latitude": 37.35555766150213,
    "geom:longitude": -122.71173998931395,
    "src:alt_label": "swim-approach",
    "src:geom": "swim",
    "swim:elevations": [
      5394,
      4905,
      4873,
      4501,
      4276,
      4019,
      3638,
      3323,
      3176,
      3101,
      3047,
      3048,
      3048,
      2926,
      2829,
      2732,
      2458,
      2316,
      2191,
      2161,
      1974,
      1886,
      1829,
      1674,
      1561,
      1524,
      1397,
      1228,
      1125,
      956,
      849,
      549,
      456,
      226,
      176,
      87
    ],
    "swim:geom": "approach",
    "swim:timestamps": [
      1769855892,
      1769855937,
      1769855941,
      1769855982,
      1769856007,
      1769856035,
      1769856080,
      1769856115,
      1769856135,
      1769856171,
      1769856189,
      1769856234,
      1769856248,
      1769856288,
      1769856317,
      1769856336,
      1769856388,
      1769856417,
      1769856444,
      1769856456,
      1769856492,
      1769856513,
      1769856558,
      1769856596,
      1769856615,
      1769856641,
      1769856679,
      1769856713,
      1769856736,
      1769856768,
      1769856780,
      1769856821,
      1769856840,
      1769856892,
      1769856906,
      1769856949
    ],
    "wof:geomhash": "a1930b62919d336f769abc74b31b71f5",
    "wof:id": 2014682425,
    "wof:repo": "sfomuseum-data-flights-2026-01"
  },
  "bbox": [
    -123.48859,
    37.25961,
    -122.15362,
    37.61266
  ],
  "geometry": {"coordinates":[[-123.48859,37.30495],[-123.39009,37.29774],[-123.38058,37.29707],[-123.29057,37.2904],[-123.23676,37.28632],[-123.17601,37.28164],[-123.08124,37.27431],[-123.00859,37.26886],[-122.9663,37.26561],[-122.89606,37.26024],[-122.86297,37.25961],[-122.7862,37.27591],[-122.76266,37.28131],[-122.69584,37.29676],[-122.64949,37.30751],[-122.61925,37.31456],[-122.53433,37.33422],[-122.48929,37.34471],[-122.44608,37.35458],[-122.42853,37.35859],[-122.37144,37.37176],[-122.34014,37.37895],[-122.27469,37.39402],[-122.22708,37.40479],[-122.20227,37.41045],[-122.17596,37.42634],[-122.16181,37.4652],[-122.15362,37.50115],[-122.1654,37.52255],[-122.19825,37.54461],[-122.21171,37.55015],[-122.25448,37.56808],[-122.27219,37.57549],[-122.31564,37.59366],[-122.32761,37.59878],[-122.36111,37.61266]],"type":"LineString"}
}
