{
  "id": 2014682599,
  "type": "Feature",
  "properties": {
    "geom:area": 0,
    "geom:bbox": "-122.362460,37.166810,-122.036950,37.612560",
    "geom:latitude": 37.42387806537962,
    "geom:longitude": -122.16336107791253,
    "src:alt_label": "swim-approach",
    "src:geom": "swim",
    "swim:elevations": [
      2534,
      2468,
      2440,
      2438,
      2438,
      2358,
      2018,
      1804,
      1675,
      1491,
      1381,
      1182,
      1098,
      854,
      651,
      605,
      393,
      276,
      92,
      87,
      134
    ],
    "swim:geom": "approach",
    "swim:timestamps": [
      1769846418,
      1769846432,
      1769846450,
      1769846480,
      1769846516,
      1769846536,
      1769846575,
      1769846606,
      1769846637,
      1769846663,
      1769846687,
      1769846719,
      1769846737,
      1769846781,
      1769846817,
      1769846823,
      1769846864,
      1769846891,
      1769846936,
      1769846942,
      1769846961
    ],
    "wof:geomhash": "4cd4d505f684a0c54ed1537d4add4ea9",
    "wof:id": 2014682599,
    "wof:repo": "sfomuseum-data-flights-2026-01"
  },
  "bbox": [
    -122.36246,
    37.16681,
    -122.03695,
    37.61256
  ],
  "geometry": {"coordinates":[[-122.03695,37.16681],[-122.04308,37.18249],[-122.05069,37.20165],[-122.06352,37.23416],[-122.07894,37.27347],[-122.08743,37.29518],[-122.10358,37.33657],[-122.11699,37.36993],[-122.12856,37.40328],[-122.13763,37.42984],[-122.14676,37.45476],[-122.16234,37.48627],[-122.17435,37.50303],[-122.20321,37.543],[-122.24035,37.56177],[-122.2468,37.56449],[-122.28813,37.58216],[-122.3123,37.59219],[-122.34519,37.60602],[-122.34932,37.6078],[-122.36246,37.61256]],"type":"LineString"}
}
