{
  "id": 2014686077,
  "type": "Feature",
  "properties": {
    "geom:area": 0,
    "geom:bbox": "-122.366110,37.628750,-122.215300,38.502630",
    "geom:latitude": 38.03311259631498,
    "geom:longitude": -122.23822086683859,
    "src:alt_label": "swim-takeoff",
    "src:geom": "swim",
    "swim:elevations": [
      213,
      713,
      757,
      1038,
      1178,
      1297,
      1515,
      1979,
      2610,
      3111,
      3412,
      3623,
      4070,
      4427,
      4609,
      5002,
      5200,
      5404,
      5839,
      6181,
      6521,
      6825,
      6847
    ],
    "swim:geom": "takeoff",
    "swim:timestamps": [
      1769879809,
      1769879848,
      1769879854,
      1769879889,
      1769879910,
      1769879926,
      1769879957,
      1769879986,
      1769880025,
      1769880057,
      1769880088,
      1769880117,
      1769880148,
      1769880178,
      1769880196,
      1769880228,
      1769880252,
      1769880270,
      1769880316,
      1769880350,
      1769880382,
      1769880417,
      1769880420
    ],
    "wof:geomhash": "c4fa7514738acbbd90d1f8e5974a8c3d",
    "wof:id": 2014686077,
    "wof:repo": "sfomuseum-data-flights-2026-01"
  },
  "bbox": [
    -122.36611,
    37.62875,
    -122.2153,
    38.50263
  ],
  "geometry": {"coordinates":[[-122.36611,37.62875],[-122.34115,37.64647],[-122.3367,37.64913],[-122.31028,37.66422],[-122.29202,37.67507],[-122.27685,37.68434],[-122.2407,37.7042],[-122.2153,37.73439],[-122.21624,37.78621],[-122.21748,37.83047],[-122.21903,37.87687],[-122.22004,37.92416],[-122.22116,37.9775],[-122.22308,38.02978],[-122.22389,38.06195],[-122.22523,38.12118],[-122.22621,38.16462],[-122.22702,38.20051],[-122.22932,38.29051],[-122.23169,38.35992],[-122.23846,38.42386],[-122.24586,38.49642],[-122.24651,38.50263]],"type":"LineString"}
}
