{
  "id": 2014685929,
  "type": "Feature",
  "properties": {
    "geom:area": 0,
    "geom:bbox": "-122.558920,36.744140,-122.359150,37.695000",
    "geom:latitude": 37.238235007742404,
    "geom:longitude": -122.47007297060526,
    "src:alt_label": "swim-takeoff",
    "src:geom": "swim",
    "swim:elevations": [
      244,
      609,
      840,
      1205,
      1419,
      1809,
      2485,
      2815,
      3262,
      3500,
      4172,
      4539,
      5190,
      5408,
      5833,
      6070,
      6417,
      6751,
      7172,
      7284,
      7986,
      8047,
      8284,
      8624,
      8785,
      9035,
      9302,
      9541,
      9697
    ],
    "swim:geom": "takeoff",
    "swim:timestamps": [
      1769929795,
      1769929827,
      1769929839,
      1769929872,
      1769929894,
      1769929923,
      1769929962,
      1769929977,
      1769930001,
      1769930016,
      1769930061,
      1769930082,
      1769930119,
      1769930140,
      1769930169,
      1769930186,
      1769930213,
      1769930240,
      1769930273,
      1769930282,
      1769930336,
      1769930343,
      1769930361,
      1769930396,
      1769930416,
      1769930450,
      1769930480,
      1769930518,
      1769930540
    ],
    "wof:geomhash": "28b811a892e45e95f6e506516f321349",
    "wof:id": 2014685929,
    "wof:repo": "sfomuseum-data-flights-2026-01"
  },
  "bbox": [
    -122.55892,
    36.74414,
    -122.35915,
    37.695
  ],
  "geometry": {"coordinates":[[-122.36711,37.63186],[-122.36435,37.65578],[-122.36363,37.66505],[-122.3686,37.68982],[-122.39481,37.695],[-122.42048,37.67103],[-122.42437,37.6219],[-122.42981,37.60297],[-122.43703,37.57228],[-122.44132,37.55255],[-122.45542,37.48838],[-122.46231,37.45813],[-122.47462,37.40476],[-122.48142,37.3732],[-122.49082,37.33029],[-122.4968,37.30407],[-122.50636,37.26226],[-122.51605,37.21961],[-122.52797,37.16668],[-122.53129,37.15219],[-122.55121,37.06483],[-122.5537,37.05413],[-122.55892,37.02504],[-122.53692,36.96895],[-122.51314,36.93684],[-122.47571,36.88555],[-122.44012,36.83673],[-122.39413,36.77665],[-122.35915,36.74414]],"type":"LineString"}
}
