{
  "id": 2014684953,
  "type": "Feature",
  "properties": {
    "geom:area": 0,
    "geom:bbox": "-122.527060,37.265970,-121.266210,37.747800",
    "geom:latitude": 37.48563518601339,
    "geom:longitude": -122.01127727372065,
    "src:alt_label": "swim-takeoff",
    "src:geom": "swim",
    "swim:elevations": [
      122,
      445,
      658,
      804,
      886,
      1411,
      1917,
      2355,
      3294,
      3345,
      3944,
      4306,
      4481,
      5045,
      5073,
      5208,
      5485,
      5871,
      6259,
      6385,
      6465,
      7012,
      7175,
      7318,
      7643,
      7684,
      7836,
      8070,
      8287,
      8432
    ],
    "swim:geom": "takeoff",
    "swim:timestamps": [
      1769858032,
      1769858053,
      1769858081,
      1769858101,
      1769858113,
      1769858153,
      1769858181,
      1769858207,
      1769858276,
      1769858286,
      1769858333,
      1769858364,
      1769858378,
      1769858426,
      1769858430,
      1769858443,
      1769858476,
      1769858513,
      1769858558,
      1769858573,
      1769858581,
      1769858633,
      1769858656,
      1769858680,
      1769858728,
      1769858739,
      1769858766,
      1769858806,
      1769858841,
      1769858865
    ],
    "wof:geomhash": "0a93ac52f3ded2a37b7138b49834c68b",
    "wof:id": 2014684953,
    "wof:repo": "sfomuseum-data-flights-2026-01"
  },
  "bbox": [
    -122.52706,
    37.26597,
    -121.26621,
    37.7478
  ],
  "geometry": {"coordinates":[[-122.3705,37.62683],[-122.36444,37.64174],[-122.36251,37.66499],[-122.36101,37.68535],[-122.36154,37.69978],[-122.40495,37.73317],[-122.44811,37.7478],[-122.48988,37.74202],[-122.52706,37.66048],[-122.527,37.64723],[-122.47019,37.59214],[-122.42013,37.56192],[-122.39244,37.5518],[-122.29526,37.52858],[-122.28631,37.52628],[-122.25816,37.51902],[-122.18692,37.50072],[-122.1051,37.48002],[-122.00494,37.45479],[-121.97154,37.44633],[-121.95123,37.44123],[-121.83051,37.41082],[-121.77772,37.39741],[-121.72261,37.38337],[-121.60604,37.35362],[-121.57916,37.34672],[-121.51531,37.33015],[-121.41422,37.30412],[-121.32868,37.28215],[-121.26621,37.26597]],"type":"LineString"}
}
