{
  "id": 2014684311,
  "type": "Feature",
  "properties": {
    "geom:area": 0,
    "geom:bbox": "-122.557860,36.728390,-122.276080,37.712210",
    "geom:latitude": 37.24161476617112,
    "geom:longitude": -122.46043100055097,
    "src:alt_label": "swim-takeoff",
    "src:geom": "swim",
    "swim:elevations": [
      207,
      519,
      697,
      764,
      1435,
      1561,
      1878,
      2105,
      2466,
      2937,
      3217,
      3319,
      3517,
      4101,
      4358,
      4578,
      4812,
      5094,
      5160,
      5635,
      5957,
      6174,
      6442,
      6832,
      6876,
      7238,
      7319,
      7558,
      7834,
      7956
    ],
    "swim:geom": "takeoff",
    "swim:timestamps": [
      1769846781,
      1769846809,
      1769846842,
      1769846855,
      1769846906,
      1769846915,
      1769846942,
      1769846961,
      1769846995,
      1769847027,
      1769847046,
      1769847069,
      1769847092,
      1769847136,
      1769847158,
      1769847180,
      1769847207,
      1769847238,
      1769847245,
      1769847296,
      1769847324,
      1769847342,
      1769847371,
      1769847416,
      1769847422,
      1769847476,
      1769847485,
      1769847522,
      1769847568,
      1769847587
    ],
    "wof:geomhash": "54307c34a78f43d80e58c140dfb8eb57",
    "wof:id": 2014684311,
    "wof:repo": "sfomuseum-data-flights-2026-01"
  },
  "bbox": [
    -122.55786,
    36.72839,
    -122.27608,
    37.71221
  ],
  "geometry": {"coordinates":[[-122.36621,37.63357],[-122.36316,37.65566],[-122.36155,37.68665],[-122.36727,37.69997],[-122.43081,37.71221],[-122.44077,37.70596],[-122.45394,37.67691],[-122.45619,37.65558],[-122.46106,37.61275],[-122.46582,37.57177],[-122.46837,37.54695],[-122.47181,37.51491],[-122.4764,37.48024],[-122.48862,37.41531],[-122.49454,37.38207],[-122.50061,37.34981],[-122.50874,37.30666],[-122.51769,37.25794],[-122.51975,37.2463],[-122.53533,37.16135],[-122.54393,37.11549],[-122.54939,37.08543],[-122.55786,37.03865],[-122.52196,36.97064],[-122.51354,36.96261],[-122.43755,36.8881],[-122.42455,36.87535],[-122.37055,36.82244],[-122.30399,36.75588],[-122.27608,36.72839]],"type":"LineString"}
}
