{
  "id": 2014681143,
  "type": "Feature",
  "properties": {
    "geom:area": 0,
    "geom:bbox": "-123.484240,37.260500,-122.120340,37.614480",
    "geom:latitude": 37.386584883363824,
    "geom:longitude": -122.70012759542071,
    "src:alt_label": "swim-approach",
    "src:geom": "swim",
    "swim:elevations": [
      5492,
      5449,
      5147,
      4750,
      4530,
      4268,
      4041,
      3800,
      3662,
      3443,
      3303,
      3137,
      3059,
      3044,
      3048,
      3048,
      3048,
      2990,
      2818,
      2742,
      2680,
      2650,
      2593,
      2561,
      2545,
      2496,
      2439,
      2352,
      2084,
      1954,
      1782,
      1557,
      1374,
      1211,
      1129,
      977,
      877,
      662,
      446,
      371,
      211,
      133,
      0
    ],
    "swim:geom": "approach",
    "swim:timestamps": [
      1769848407,
      1769848411,
      1769848445,
      1769848493,
      1769848521,
      1769848551,
      1769848579,
      1769848607,
      1769848623,
      1769848651,
      1769848667,
      1769848702,
      1769848729,
      1769848740,
      1769848783,
      1769848816,
      1769848840,
      1769848853,
      1769848874,
      1769848913,
      1769848943,
      1769848962,
      1769849006,
      1769849020,
      1769849027,
      1769849055,
      1769849087,
      1769849106,
      1769849150,
      1769849165,
      1769849192,
      1769849215,
      1769849238,
      1769849261,
      1769849284,
      1769849321,
      1769849340,
      1769849384,
      1769849427,
      1769849444,
      1769849485,
      1769849503,
      1769849535
    ],
    "wof:geomhash": "1f7744dab7873ad570f32c04a0348b5c",
    "wof:id": 2014681143,
    "wof:repo": "sfomuseum-data-flights-2026-01"
  },
  "bbox": [
    -123.48424,
    37.2605,
    -122.12034,
    37.61448
  ],
  "geometry": {"coordinates":[[-123.48424,37.45937],[-123.47647,37.45685],[-123.4071,37.43448],[-123.30999,37.40315],[-123.25658,37.38586],[-123.1974,37.36662],[-123.14478,37.34945],[-123.08989,37.33157],[-123.06057,37.32188],[-123.00815,37.30489],[-122.97888,37.29534],[-122.91791,37.27537],[-122.87204,37.26139],[-122.85305,37.2605],[-122.78052,37.27795],[-122.72466,37.29016],[-122.6844,37.29926],[-122.6619,37.30447],[-122.62805,37.3123],[-122.56256,37.32757],[-122.51548,37.33844],[-122.48461,37.34561],[-122.41423,37.36176],[-122.39123,37.36707],[-122.37973,37.36965],[-122.33494,37.38001],[-122.28746,37.39088],[-122.25912,37.39738],[-122.19962,37.41108],[-122.18072,37.41538],[-122.1475,37.426],[-122.13086,37.4472],[-122.12034,37.47],[-122.12738,37.49281],[-122.14502,37.51212],[-122.17644,37.53666],[-122.19566,37.5453],[-122.24092,37.5647],[-122.27968,37.58097],[-122.29278,37.58655],[-122.32332,37.59937],[-122.33651,37.60487],[-122.35963,37.61448]],"type":"LineString"}
}
