{
  "id": 2014685975,
  "type": "Feature",
  "properties": {
    "geom:area": 0,
    "geom:bbox": "-122.466460,37.205200,-121.249850,37.689310",
    "geom:latitude": 37.390792111460954,
    "geom:longitude": -121.96299062922147,
    "src:alt_label": "swim-takeoff",
    "src:geom": "swim",
    "swim:elevations": [
      390,
      578,
      735,
      1007,
      1041,
      1257,
      1857,
      2316,
      2937,
      3167,
      3273,
      3403,
      3775,
      4304,
      4745,
      5120,
      5343,
      5463,
      5839,
      5908,
      6462,
      6550,
      6820,
      7039,
      7158,
      7416,
      7766,
      7860,
      8108,
      8371,
      8566,
      8651,
      8822
    ],
    "swim:geom": "takeoff",
    "swim:timestamps": [
      1769887735,
      1769887750,
      1769887763,
      1769887792,
      1769887804,
      1769887833,
      1769887873,
      1769887901,
      1769887939,
      1769887955,
      1769887971,
      1769887989,
      1769888015,
      1769888061,
      1769888095,
      1769888122,
      1769888143,
      1769888158,
      1769888188,
      1769888194,
      1769888243,
      1769888251,
      1769888290,
      1769888317,
      1769888332,
      1769888359,
      1769888395,
      1769888404,
      1769888431,
      1769888464,
      1769888507,
      1769888528,
      1769888558
    ],
    "wof:geomhash": "c0e04aeac51c3937c132253b51fabbf5",
    "wof:id": 2014685975,
    "wof:repo": "sfomuseum-data-flights-2026-01"
  },
  "bbox": [
    -122.46646,
    37.2052,
    -121.24985,
    37.68931
  ],
  "geometry": {"coordinates":[[-122.36299,37.64524],[-122.36255,37.65731],[-122.36215,37.66786],[-122.37655,37.68723],[-122.39023,37.68931],[-122.42214,37.67382],[-122.46262,37.63798],[-122.46646,37.60456],[-122.46033,37.55835],[-122.45757,37.53849],[-122.45357,37.51804],[-122.43885,37.49633],[-122.39808,37.47399],[-122.31971,37.43808],[-122.25512,37.4191],[-122.2019,37.40816],[-122.15942,37.39926],[-122.12889,37.39277],[-122.06758,37.37986],[-122.05531,37.37722],[-121.95418,37.35605],[-121.93801,37.35269],[-121.85635,37.3355],[-121.79664,37.32287],[-121.76341,37.31589],[-121.70321,37.30307],[-121.62223,37.28593],[-121.602,37.2815],[-121.54268,37.26867],[-121.4688,37.25262],[-121.37156,37.23139],[-121.32217,37.22097],[-121.24985,37.2052]],"type":"LineString"}
}
