{
  "id": 2014686327,
  "type": "Feature",
  "properties": {
    "geom:area": 0,
    "geom:bbox": "-122.369500,37.623720,-122.232690,38.510740",
    "geom:latitude": 38.04703736906178,
    "geom:longitude": -122.25934597433717,
    "src:alt_label": "swim-takeoff",
    "src:geom": "swim",
    "swim:elevations": [
      91,
      811,
      986,
      1188,
      1605,
      1730,
      2767,
      3167,
      3522,
      3790,
      3939,
      4303,
      4987,
      5315,
      5681,
      5790,
      6204,
      6487,
      6786,
      7134,
      7299
    ],
    "swim:geom": "takeoff",
    "swim:timestamps": [
      1769856392,
      1769856441,
      1769856456,
      1769856484,
      1769856530,
      1769856540,
      1769856596,
      1769856618,
      1769856651,
      1769856679,
      1769856690,
      1769856724,
      1769856771,
      1769856794,
      1769856831,
      1769856840,
      1769856880,
      1769856903,
      1769856939,
      1769856976,
      1769856994
    ],
    "wof:geomhash": "4af9a67a13017820d6e9fa95f21fff79",
    "wof:id": 2014686327,
    "wof:repo": "sfomuseum-data-flights-2026-01"
  },
  "bbox": [
    -122.3695,
    37.62372,
    -122.23269,
    38.51074
  ],
  "geometry": {"coordinates":[[-122.3695,37.62372],[-122.34007,37.64854],[-122.32934,37.65449],[-122.30646,37.66724],[-122.27058,37.7047],[-122.26971,37.71784],[-122.26693,37.79106],[-122.26403,37.82205],[-122.26106,37.86912],[-122.25847,37.91397],[-122.25711,37.93251],[-122.25349,37.99046],[-122.24833,38.07692],[-122.24575,38.11816],[-122.24157,38.18633],[-122.24039,38.20378],[-122.23551,38.28244],[-122.23269,38.3268],[-122.23826,38.39821],[-122.25007,38.47318],[-122.25598,38.51074]],"type":"LineString"}
}
