{
  "id": 2014684751,
  "type": "Feature",
  "properties": {
    "geom:area": 0,
    "geom:bbox": "-122.386170,37.625110,-121.265660,37.991250",
    "geom:latitude": 37.93339060862713,
    "geom:longitude": -121.9499850317631,
    "src:alt_label": "swim-takeoff",
    "src:geom": "swim",
    "swim:elevations": [
      122,
      552,
      733,
      812,
      933,
      1177,
      1829,
      2214,
      2586,
      3122,
      3421,
      3462,
      3670,
      3874,
      4136,
      4389,
      4848,
      5094,
      5307,
      5455,
      5901,
      6176,
      6459,
      6620,
      6843,
      7022,
      7185,
      7379,
      7503,
      7815
    ],
    "swim:geom": "takeoff",
    "swim:timestamps": [
      1769897417,
      1769897449,
      1769897482,
      1769897491,
      1769897500,
      1769897521,
      1769897566,
      1769897593,
      1769897623,
      1769897664,
      1769897694,
      1769897700,
      1769897725,
      1769897758,
      1769897776,
      1769897797,
      1769897837,
      1769897859,
      1769897880,
      1769897895,
      1769897937,
      1769897967,
      1769897997,
      1769898015,
      1769898042,
      1769898066,
      1769898084,
      1769898105,
      1769898120,
      1769898152
    ],
    "wof:geomhash": "bc81f13567d610f87e362755849050b9",
    "wof:id": 2014684751,
    "wof:repo": "sfomuseum-data-flights-2026-01"
  },
  "bbox": [
    -122.38617,
    37.62511,
    -121.26566,
    37.99125
  ],
  "geometry": {"coordinates":[[-122.36839,37.62511],[-122.3517,37.64571],[-122.32482,37.66767],[-122.31656,37.67496],[-122.30984,37.68349],[-122.30946,37.70683],[-122.34177,37.75584],[-122.35777,37.78674],[-122.37726,37.82561],[-122.38617,37.88357],[-122.37446,37.92783],[-122.36754,37.93566],[-122.3248,37.95667],[-122.25446,37.96761],[-122.21476,37.97525],[-122.16814,37.98436],[-122.07318,37.98961],[-122.02213,37.98996],[-121.97142,37.99025],[-121.93499,37.99016],[-121.83244,37.98998],[-121.75799,37.99009],[-121.68135,37.99044],[-121.63455,37.99062],[-121.56366,37.99089],[-121.49955,37.99104],[-121.45116,37.99118],[-121.39433,37.99123],[-121.35304,37.99125],[-121.26566,37.991]],"type":"LineString"}
}
