{
  "id": 2014682495,
  "type": "Feature",
  "properties": {
    "geom:area": 0,
    "geom:bbox": "-122.356470,37.491680,-121.268610,37.613140",
    "geom:latitude": 37.545867838137184,
    "geom:longitude": -121.81733975555724,
    "src:alt_label": "swim-approach",
    "src:geom": "swim",
    "swim:elevations": [
      4927,
      4792,
      4350,
      4163,
      4013,
      3711,
      3538,
      3442,
      3198,
      3025,
      2811,
      2469,
      2374,
      2143,
      2070,
      1921,
      1810,
      1570,
      1470,
      1214,
      1116,
      1011,
      841,
      760,
      653,
      552,
      426,
      367,
      295,
      263,
      98,
      86
    ],
    "swim:geom": "approach",
    "swim:timestamps": [
      1769851376,
      1769851388,
      1769851436,
      1769851463,
      1769851483,
      1769851527,
      1769851556,
      1769851572,
      1769851604,
      1769851632,
      1769851663,
      1769851708,
      1769851732,
      1769851768,
      1769851786,
      1769851821,
      1769851849,
      1769851885,
      1769851902,
      1769851937,
      1769851956,
      1769851974,
      1769852008,
      1769852024,
      1769852051,
      1769852078,
      1769852111,
      1769852133,
      1769852155,
      1769852165,
      1769852205,
      1769852225
    ],
    "wof:geomhash": "4a19ae74bfbba1c691d6ab42f645f92f",
    "wof:id": 2014682495,
    "wof:repo": "sfomuseum-data-flights-2026-01"
  },
  "bbox": [
    -122.35647,
    37.49168,
    -121.26861,
    37.61314
  ],
  "geometry": {"coordinates":[[-121.26861,37.59186],[-121.29405,37.58858],[-121.38034,37.57935],[-121.42635,37.57433],[-121.45969,37.57043],[-121.52975,37.5619],[-121.57354,37.55685],[-121.59586,37.55418],[-121.64356,37.54629],[-121.68441,37.53665],[-121.72863,37.52601],[-121.7927,37.51057],[-121.82692,37.50243],[-121.87538,37.49208],[-121.90159,37.49168],[-121.95097,37.49279],[-121.98797,37.49557],[-122.03065,37.50838],[-122.04854,37.51422],[-122.08711,37.52692],[-122.10819,37.53385],[-122.12733,37.54],[-122.16499,37.55222],[-122.18218,37.55769],[-122.20988,37.56675],[-122.23805,37.57572],[-122.27118,37.58611],[-122.28984,37.59158],[-122.30734,37.59673],[-122.31476,37.59896],[-122.34338,37.60785],[-122.35647,37.61314]],"type":"LineString"}
}
