{
  "id": 2014686365,
  "type": "Feature",
  "properties": {
    "geom:area": 0,
    "geom:bbox": "-123.306690,37.631240,-122.404630,38.479030",
    "geom:latitude": 38.015457674502336,
    "geom:longitude": -122.88757435149485,
    "src:alt_label": "swim-takeoff",
    "src:geom": "swim",
    "swim:elevations": [
      291,
      638,
      1143,
      1174,
      1533,
      1660,
      2080,
      2277,
      2783,
      3091,
      3188,
      3316,
      3506,
      3857,
      4260,
      4381,
      4715,
      5075,
      5338,
      5409,
      5847,
      6001,
      6203,
      6307
    ],
    "swim:geom": "takeoff",
    "swim:timestamps": [
      1769862143,
      1769862175,
      1769862238,
      1769862246,
      1769862297,
      1769862316,
      1769862358,
      1769862379,
      1769862418,
      1769862442,
      1769862457,
      1769862485,
      1769862522,
      1769862558,
      1769862597,
      1769862609,
      1769862644,
      1769862682,
      1769862710,
      1769862723,
      1769862777,
      1769862798,
      1769862827,
      1769862843
    ],
    "wof:geomhash": "d243a238f0a14e896fb707f7848b106a",
    "wof:id": 2014686365,
    "wof:repo": "sfomuseum-data-flights-2026-01"
  },
  "bbox": [
    -123.30669,
    37.63124,
    -122.40463,
    38.47903
  ],
  "geometry": {"coordinates":[[-122.40463,37.63124],[-122.43831,37.64643],[-122.50736,37.67737],[-122.51586,37.68224],[-122.57633,37.71776],[-122.60016,37.73172],[-122.65893,37.76659],[-122.68852,37.78394],[-122.74619,37.81905],[-122.77413,37.84556],[-122.78929,37.86396],[-122.81944,37.9],[-122.86503,37.95427],[-122.90951,38.00774],[-122.9602,38.06873],[-122.97628,38.08789],[-123.02303,38.14359],[-123.07523,38.20591],[-123.11297,38.25102],[-123.13135,38.27299],[-123.20903,38.36519],[-123.23987,38.40094],[-123.28259,38.45085],[-123.30669,38.47903]],"type":"LineString"}
}
