{
  "id": 2014680731,
  "type": "Feature",
  "properties": {
    "geom:area": 0,
    "geom:bbox": "-122.361810,37.491890,-121.245440,37.615690",
    "geom:latitude": 37.54718224191594,
    "geom:longitude": -121.80866955417608,
    "src:alt_label": "swim-approach",
    "src:geom": "swim",
    "swim:elevations": [
      5072,
      4922,
      4636,
      4154,
      3741,
      3568,
      3497,
      3278,
      3107,
      2937,
      2647,
      2606,
      2498,
      2403,
      2169,
      2163,
      2096,
      1860,
      1749,
      1675,
      1524,
      1331,
      1076,
      992,
      878,
      680,
      549,
      385,
      283,
      232,
      0,
      0
    ],
    "swim:geom": "approach",
    "swim:timestamps": [
      1769893738,
      1769893751,
      1769893778,
      1769893822,
      1769893858,
      1769893876,
      1769893882,
      1769893902,
      1769893948,
      1769893972,
      1769894008,
      1769894014,
      1769894033,
      1769894061,
      1769894098,
      1769894104,
      1769894141,
      1769894186,
      1769894213,
      1769894228,
      1769894250,
      1769894291,
      1769894337,
      1769894358,
      1769894381,
      1769894416,
      1769894444,
      1769894480,
      1769894505,
      1769894520,
      1769894578,
      1769894581
    ],
    "wof:geomhash": "f82df247b40e81c8ccc7cc566afc4e08",
    "wof:id": 2014680731,
    "wof:repo": "sfomuseum-data-flights-2026-01"
  },
  "bbox": [
    -122.36181,
    37.49189,
    -121.24544,
    37.61569
  ],
  "geometry": {"coordinates":[[-121.24544,37.59509],[-121.2703,37.5917],[-121.32167,37.58595],[-121.40388,37.57665],[-121.47141,37.56873],[-121.50278,37.56518],[-121.51384,37.56389],[-121.55127,37.55943],[-121.63082,37.54926],[-121.66787,37.54054],[-121.72392,37.52713],[-121.73338,37.52489],[-121.76333,37.51775],[-121.80396,37.50802],[-121.85811,37.49479],[-121.86657,37.49298],[-121.91707,37.49189],[-121.97505,37.49354],[-122.00683,37.50078],[-122.02292,37.50605],[-122.04886,37.51442],[-122.09401,37.5292],[-122.14301,37.54489],[-122.16463,37.55205],[-122.1887,37.55983],[-122.22518,37.57154],[-122.25409,37.58078],[-122.28744,37.59066],[-122.30751,37.59658],[-122.31915,37.6001],[-122.36007,37.61483],[-122.36181,37.61569]],"type":"LineString"}
}
