{
  "id": 2014685997,
  "type": "Feature",
  "properties": {
    "geom:area": 0,
    "geom:bbox": "-123.476290,37.043060,-122.399820,37.663270",
    "geom:latitude": 37.38405754159532,
    "geom:longitude": -122.94519953135116,
    "src:alt_label": "swim-takeoff",
    "src:geom": "swim",
    "swim:elevations": [
      223,
      684,
      751,
      893,
      1082,
      1385,
      1649,
      2204,
      2601,
      2731,
      3266,
      3412,
      3590,
      3725,
      4019,
      4322,
      4785,
      5125,
      5521,
      5833,
      6079,
      6324,
      6524,
      6730,
      6869,
      7140,
      7287
    ],
    "swim:geom": "takeoff",
    "swim:timestamps": [
      1769903088,
      1769903128,
      1769903137,
      1769903149,
      1769903170,
      1769903217,
      1769903242,
      1769903277,
      1769903304,
      1769903313,
      1769903361,
      1769903394,
      1769903423,
      1769903441,
      1769903465,
      1769903490,
      1769903532,
      1769903562,
      1769903607,
      1769903637,
      1769903664,
      1769903694,
      1769903719,
      1769903746,
      1769903764,
      1769903803,
      1769903827
    ],
    "wof:geomhash": "36df0c96be908c5b2d9bbe42f42eacd7",
    "wof:id": 2014685997,
    "wof:repo": "sfomuseum-data-flights-2026-01"
  },
  "bbox": [
    -123.47629,
    37.04306,
    -122.39982,
    37.66327
  ],
  "geometry": {"coordinates":[[-122.39982,37.62923],[-122.4363,37.64507],[-122.44499,37.64906],[-122.4567,37.65427],[-122.47782,37.66327],[-122.53597,37.65518],[-122.56481,37.63534],[-122.60657,37.60867],[-122.63874,37.58792],[-122.64934,37.58109],[-122.70681,37.54384],[-122.75136,37.51459],[-122.79516,37.48724],[-122.82353,37.46879],[-122.8622,37.44402],[-122.90239,37.41847],[-122.97077,37.3739],[-123.01994,37.34172],[-123.09476,37.29313],[-123.14523,37.26029],[-123.19099,37.23063],[-123.24228,37.19699],[-123.28512,37.16896],[-123.33252,37.13801],[-123.36426,37.11703],[-123.43349,37.07151],[-123.47629,37.04306]],"type":"LineString"}
}
