{
  "id": 2014680743,
  "type": "Feature",
  "properties": {
    "geom:area": 0,
    "geom:bbox": "-123.490350,36.972510,-122.106130,37.610730",
    "geom:latitude": 37.29258461249933,
    "geom:longitude": -122.7020392906874,
    "src:alt_label": "swim-approach",
    "src:geom": "swim",
    "swim:elevations": [
      6410,
      5936,
      5628,
      5293,
      5040,
      4862,
      4501,
      4183,
      3679,
      3315,
      3174,
      3047,
      3048,
      3048,
      3048,
      3048,
      3048,
      3048,
      2720,
      2467,
      2438,
      2438,
      2067,
      1991,
      1833,
      1673,
      1490,
      1271,
      1054,
      1003,
      925,
      736,
      668,
      554,
      364,
      277,
      152,
      77,
      30
    ],
    "swim:geom": "approach",
    "swim:timestamps": [
      1769895104,
      1769895139,
      1769895174,
      1769895207,
      1769895228,
      1769895243,
      1769895273,
      1769895301,
      1769895348,
      1769895378,
      1769895390,
      1769895407,
      1769895438,
      1769895473,
      1769895508,
      1769895535,
      1769895567,
      1769895593,
      1769895628,
      1769895658,
      1769895688,
      1769895700,
      1769895748,
      1769895772,
      1769895804,
      1769895835,
      1769895863,
      1769895892,
      1769895927,
      1769895943,
      1769895976,
      1769896015,
      1769896033,
      1769896054,
      1769896093,
      1769896114,
      1769896147,
      1769896168,
      1769896178
    ],
    "wof:geomhash": "421006cf69d54ad2303013ff12410552",
    "wof:id": 2014680743,
    "wof:repo": "sfomuseum-data-flights-2026-01"
  },
  "bbox": [
    -123.49035,
    36.97251,
    -122.10613,
    37.61073
  ],
  "geometry": {"coordinates":[[-123.49035,36.97251],[-123.4159,37.00849],[-123.34205,37.04079],[-123.27219,37.07255],[-123.22731,37.09291],[-123.19554,37.10738],[-123.1321,37.13602],[-123.07316,37.16284],[-122.97745,37.20637],[-122.91711,37.23348],[-122.89359,37.24408],[-122.85953,37.25721],[-122.79887,37.27278],[-122.73038,37.28886],[-122.66252,37.30465],[-122.61183,37.31645],[-122.55771,37.32908],[-122.51593,37.33855],[-122.45764,37.35184],[-122.40789,37.36329],[-122.35916,37.37469],[-122.33974,37.37915],[-122.26216,37.39684],[-122.22445,37.40548],[-122.17748,37.41632],[-122.13439,37.42612],[-122.10613,37.44557],[-122.10671,37.47513],[-122.13151,37.50514],[-122.14309,37.51816],[-122.17437,37.53424],[-122.21341,37.55074],[-122.23104,37.55818],[-122.25113,37.56664],[-122.28814,37.582],[-122.30603,37.58969],[-122.33151,37.60029],[-122.34798,37.60739],[-122.35587,37.61073]],"type":"LineString"}
}
