{
  "id": 2014686349,
  "type": "Feature",
  "properties": {
    "geom:area": 0,
    "geom:bbox": "-123.358720,37.630280,-122.402310,38.506470",
    "geom:latitude": 38.019922887704375,
    "geom:longitude": -122.92166754326416,
    "src:alt_label": "swim-takeoff",
    "src:geom": "swim",
    "swim:elevations": [
      213,
      254,
      418,
      823,
      902,
      1275,
      2142,
      2257,
      2900,
      3229,
      3396,
      3569,
      3619,
      3831,
      4161,
      4301,
      4895,
      4946,
      5195,
      5438,
      5650,
      6037,
      6244,
      6331,
      6675,
      6858,
      7010
    ],
    "swim:geom": "takeoff",
    "swim:timestamps": [
      1769858098,
      1769858101,
      1769858113,
      1769858153,
      1769858161,
      1769858212,
      1769858276,
      1769858286,
      1769858333,
      1769858360,
      1769858392,
      1769858426,
      1769858430,
      1769858452,
      1769858482,
      1769858494,
      1769858558,
      1769858565,
      1769858584,
      1769858614,
      1769858645,
      1769858693,
      1769858722,
      1769858735,
      1769858776,
      1769858797,
      1769858821
    ],
    "wof:geomhash": "4f701045631fca95399df5705dfe1386",
    "wof:id": 2014686349,
    "wof:repo": "sfomuseum-data-flights-2026-01"
  },
  "bbox": [
    -123.35872,
    37.63028,
    -122.40231,
    38.50647
  ],
  "geometry": {"coordinates":[[-122.40231,37.63028],[-122.40502,37.63142],[-122.41787,37.63688],[-122.45964,37.65518],[-122.46988,37.65964],[-122.53043,37.68988],[-122.6153,37.74059],[-122.62788,37.74815],[-122.69256,37.78754],[-122.72785,37.81065],[-122.77286,37.84191],[-122.8252,37.87764],[-122.83205,37.88229],[-122.8691,37.90743],[-122.91604,37.94447],[-122.93229,37.96127],[-123.01041,38.06118],[-123.01893,38.07213],[-123.04372,38.10413],[-123.08039,38.15139],[-123.12098,38.2035],[-123.18316,38.28324],[-123.2227,38.33379],[-123.2397,38.35551],[-123.29564,38.42711],[-123.32547,38.46397],[-123.35872,38.50647]],"type":"LineString"}
}
