{
  "id": 2014686339,
  "type": "Feature",
  "properties": {
    "geom:area": 0,
    "geom:bbox": "-123.506830,37.626310,-122.393250,38.497960",
    "geom:latitude": 37.97194904740222,
    "geom:longitude": -122.91931178839123,
    "src:alt_label": "swim-takeoff",
    "src:geom": "swim",
    "swim:elevations": [
      91,
      257,
      622,
      973,
      1167,
      1347,
      1579,
      1932,
      2279,
      2775,
      3120,
      3247,
      3594,
      3718,
      3951,
      4022,
      4483,
      4671,
      4964,
      5349,
      5538,
      5623,
      6126,
      6248,
      6401,
      180,
      496,
      873,
      1085,
      1296,
      1399,
      1814,
      2242,
      2669,
      3032,
      3182,
      3432,
      3691,
      4006,
      4259,
      4421,
      4844,
      5273,
      5381,
      5467,
      5637,
      5794,
      5882,
      6287,
      6545,
      6846
    ],
    "swim:geom": "takeoff",
    "swim:timestamps": [
      1769847518,
      1769847530,
      1769847562,
      1769847593,
      1769847622,
      1769847653,
      1769847670,
      1769847703,
      1769847731,
      1769847769,
      1769847797,
      1769847812,
      1769847866,
      1769847890,
      1769847928,
      1769847942,
      1769847986,
      1769848008,
      1769848035,
      1769848074,
      1769848101,
      1769848110,
      1769848167,
      1769848191,
      1769848203,
      1769904568,
      1769904590,
      1769904628,
      1769904649,
      1769904688,
      1769904700,
      1769904735,
      1769904765,
      1769904798,
      1769904831,
      1769904855,
      1769904891,
      1769904924,
      1769904955,
      1769904976,
      1769905000,
      1769905036,
      1769905075,
      1769905090,
      1769905105,
      1769905117,
      1769905132,
      1769905147,
      1769905189,
      1769905216,
      1769905249
    ],
    "wof:geomhash": "eea8b0a39cc72e3772c3ab6db58bf2b4",
    "wof:id": 2014686339,
    "wof:repo": "sfomuseum-data-flights-2026-01"
  },
  "bbox": [
    -123.50683,
    37.62631,
    -122.39325,
    38.49796
  ],
  "geometry": {"coordinates":[[-122.39325,37.62631],[-122.40414,37.63101],[-122.43724,37.64554],[-122.46963,37.65987],[-122.50105,37.67397],[-122.53691,37.69461],[-122.55799,37.70721],[-122.60129,37.73255],[-122.63755,37.75422],[-122.6903,37.78698],[-122.72849,37.8106],[-122.74977,37.82377],[-122.83465,37.87581],[-122.87585,37.90096],[-122.94381,37.94251],[-122.97043,37.95891],[-123.05711,38.01175],[-123.10231,38.03903],[-123.15648,38.07174],[-123.23561,38.12014],[-123.29194,38.15409],[-123.31075,38.16537],[-123.42972,38.23725],[-123.48061,38.26797],[-123.50683,38.28372],[-122.39933,37.62885],[-122.42021,37.63801],[-122.45693,37.65434],[-122.47842,37.66359],[-122.52324,37.68627],[-122.53731,37.69507],[-122.58291,37.72187],[-122.62283,37.74528],[-122.66782,37.77176],[-122.7141,37.79877],[-122.74861,37.82005],[-122.79146,37.865],[-122.82376,37.9159],[-122.85595,37.96576],[-122.87854,38.0004],[-122.90488,38.04073],[-122.9454,38.10362],[-122.9902,38.17245],[-123.00766,38.19926],[-123.02538,38.22664],[-123.03969,38.24843],[-123.05762,38.27554],[-123.07599,38.30309],[-123.12853,38.3838],[-123.16179,38.43403],[-123.20377,38.49796]],"type":"LineString"}
}
