{
  "id": 2014685767,
  "type": "Feature",
  "properties": {
    "geom:area": 0,
    "geom:bbox": "-123.361920,37.630640,-122.363420,38.516030",
    "geom:latitude": 38.02032410652836,
    "geom:longitude": -122.88855475791753,
    "src:alt_label": "swim-takeoff",
    "src:geom": "swim",
    "swim:elevations": [
      183,
      685,
      879,
      1064,
      1488,
      1786,
      2383,
      2855,
      3044,
      3132,
      3200,
      3552,
      3767,
      4529,
      4896,
      5200,
      5504,
      5626,
      6044,
      6180,
      6824,
      7147,
      7379,
      7516,
      7866,
      8077
    ],
    "swim:geom": "takeoff",
    "swim:timestamps": [
      1769878464,
      1769878497,
      1769878510,
      1769878532,
      1769878581,
      1769878599,
      1769878635,
      1769878669,
      1769878696,
      1769878735,
      1769878745,
      1769878788,
      1769878804,
      1769878855,
      1769878880,
      1769878909,
      1769878944,
      1769878957,
      1769878997,
      1769879010,
      1769879063,
      1769879095,
      1769879120,
      1769879138,
      1769879180,
      1769879200
    ],
    "wof:geomhash": "bb6b0dff871320907863e79aec596ea0",
    "wof:id": 2014685767,
    "wof:repo": "sfomuseum-data-flights-2026-01"
  },
  "bbox": [
    -123.36192,
    37.63064,
    -122.36342,
    38.51603
  ],
  "geometry": {"coordinates":[[-122.36511,37.63064],[-122.36344,37.65709],[-122.36528,37.66818],[-122.36342,37.6873],[-122.41292,37.72248],[-122.43892,37.7324],[-122.49207,37.75229],[-122.54416,37.7723],[-122.58612,37.78876],[-122.64919,37.80755],[-122.66561,37.81143],[-122.74925,37.83099],[-122.78374,37.8392],[-122.87199,37.89408],[-122.90349,37.93439],[-122.94047,37.98197],[-122.98711,38.04206],[-123.00443,38.06434],[-123.0611,38.13672],[-123.07848,38.15898],[-123.15487,38.2554],[-123.20271,38.31586],[-123.23968,38.36227],[-123.26652,38.39541],[-123.33162,38.47728],[-123.36192,38.51603]],"type":"LineString"}
}
