{
  "id": 2014681017,
  "type": "Feature",
  "properties": {
    "geom:area": 0,
    "geom:bbox": "-122.860890,37.454140,-122.164530,38.515530",
    "geom:latitude": 37.863459437089425,
    "geom:longitude": -122.53423241609197,
    "src:alt_label": "swim-approach",
    "src:geom": "swim",
    "swim:elevations": [
      7620,
      7394,
      7116,
      6785,
      6497,
      6221,
      5899,
      5746,
      5430,
      5239,
      5128,
      4706,
      4688,
      4286,
      4071,
      4031,
      3859,
      3686,
      3425,
      3399,
      3353,
      3353,
      3353,
      3251,
      2871,
      2724,
      2367,
      2198,
      1953,
      1700,
      1610,
      1380,
      1250,
      1220,
      1092,
      910,
      609,
      610,
      521,
      365,
      273,
      209,
      87,
      55
    ],
    "swim:geom": "approach",
    "swim:timestamps": [
      1769851885,
      1769851908,
      1769851937,
      1769851971,
      1769852000,
      1769852024,
      1769852054,
      1769852071,
      1769852104,
      1769852133,
      1769852143,
      1769852187,
      1769852190,
      1769852247,
      1769852273,
      1769852280,
      1769852299,
      1769852318,
      1769852367,
      1769852376,
      1769852426,
      1769852452,
      1769852474,
      1769852510,
      1769852548,
      1769852565,
      1769852600,
      1769852632,
      1769852662,
      1769852692,
      1769852704,
      1769852740,
      1769852773,
      1769852791,
      1769852815,
      1769852833,
      1769852876,
      1769852891,
      1769852921,
      1769852958,
      1769852982,
      1769852995,
      1769853025,
      1769853033
    ],
    "wof:geomhash": "d5170cc759817340fe4f539dec77c735",
    "wof:id": 2014681017,
    "wof:repo": "sfomuseum-data-flights-2026-01"
  },
  "bbox": [
    -122.86089,
    37.45414,
    -122.16453,
    38.51553
  ],
  "geometry": {"coordinates":[[-122.86089,38.51553],[-122.84751,38.47346],[-122.83221,38.42415],[-122.81435,38.36526],[-122.79921,38.31572],[-122.787,38.27497],[-122.77154,38.22392],[-122.76291,38.19593],[-122.74628,38.14107],[-122.73138,38.09236],[-122.72607,38.07493],[-122.70399,38.00205],[-122.70254,37.99725],[-122.67339,37.9081],[-122.6466,37.87377],[-122.63799,37.86563],[-122.61281,37.84167],[-122.58901,37.81945],[-122.52734,37.76199],[-122.51673,37.75198],[-122.46117,37.69955],[-122.43413,37.67412],[-122.41266,37.65394],[-122.37794,37.6209],[-122.35129,37.58304],[-122.34248,37.56544],[-122.323,37.53074],[-122.3038,37.50048],[-122.27971,37.47821],[-122.24493,37.46713],[-122.23155,37.46279],[-122.19102,37.45414],[-122.16835,37.47675],[-122.16453,37.49286],[-122.17104,37.51307],[-122.18383,37.52634],[-122.21767,37.55457],[-122.23205,37.56081],[-122.26038,37.57284],[-122.29076,37.58562],[-122.31041,37.59371],[-122.3213,37.59853],[-122.34484,37.60834],[-122.35156,37.61122]],"type":"LineString"}
}
