{
  "id": 2014682815,
  "type": "Feature",
  "properties": {
    "geom:area": 0,
    "geom:bbox": "-123.464070,37.261290,-122.164840,37.608580",
    "geom:latitude": 37.39660250156613,
    "geom:longitude": -122.72425618694282,
    "src:alt_label": "swim-approach",
    "src:geom": "swim",
    "swim:elevations": [
      5833,
      5554,
      5200,
      5000,
      4520,
      4169,
      3946,
      3597,
      3556,
      3128,
      3048,
      3048,
      3048,
      3048,
      3028,
      2984,
      2864,
      2714,
      2474,
      2405,
      2140,
      2035,
      1827,
      1829,
      1629,
      1523,
      1390,
      1181,
      1129,
      835,
      687,
      589,
      365,
      299,
      66,
      59
    ],
    "swim:geom": "approach",
    "swim:timestamps": [
      1769856880,
      1769856903,
      1769856939,
      1769856960,
      1769857007,
      1769857048,
      1769857072,
      1769857108,
      1769857116,
      1769857161,
      1769857198,
      1769857210,
      1769857219,
      1769857237,
      1769857281,
      1769857293,
      1769857329,
      1769857362,
      1769857401,
      1769857417,
      1769857468,
      1769857484,
      1769857522,
      1769857558,
      1769857609,
      1769857629,
      1769857656,
      1769857707,
      1769857721,
      1769857768,
      1769857792,
      1769857811,
      1769857843,
      1769857861,
      1769857916,
      1769857920
    ],
    "wof:geomhash": "a06dd5df5696aa3b3da189ee5aca82e1",
    "wof:id": 2014682815,
    "wof:repo": "sfomuseum-data-flights-2026-01"
  },
  "bbox": [
    -123.46407,
    37.26129,
    -122.16484,
    37.60858
  ],
  "geometry": {"coordinates":[[-123.46407,37.53253],[-123.41735,37.51159],[-123.34284,37.4777],[-123.30073,37.45851],[-123.2045,37.41474],[-123.12543,37.37828],[-123.08076,37.35764],[-123.01154,37.32566],[-122.99704,37.31902],[-122.91548,37.28162],[-122.84602,37.26129],[-122.82327,37.26531],[-122.80626,37.2693],[-122.77411,37.27762],[-122.70006,37.29627],[-122.67922,37.3012],[-122.61824,37.31516],[-122.56422,37.32742],[-122.50077,37.34202],[-122.47473,37.34804],[-122.39375,37.36662],[-122.36927,37.37223],[-122.31143,37.38555],[-122.25909,37.39753],[-122.19667,37.41411],[-122.18213,37.4313],[-122.16938,37.45676],[-122.16484,37.50627],[-122.17451,37.5165],[-122.21162,37.54953],[-122.23612,37.56069],[-122.25508,37.56822],[-122.28605,37.58131],[-122.30125,37.58775],[-122.34774,37.60726],[-122.35086,37.60858]],"type":"LineString"}
}
