{
  "id": 2014685831,
  "type": "Feature",
  "properties": {
    "geom:area": 0,
    "geom:bbox": "-122.435770,36.721860,-121.271880,37.701440",
    "geom:latitude": 37.21863445510073,
    "geom:longitude": -121.93110038982788,
    "src:alt_label": "swim-takeoff",
    "src:geom": "swim",
    "swim:elevations": [
      327,
      776,
      1048,
      1190,
      1619,
      2175,
      2779,
      3256,
      3853,
      4144,
      4815,
      5005,
      5547,
      5785,
      5834,
      5984,
      6458,
      6597,
      7150,
      7652,
      7908,
      8006,
      8198,
      8487,
      8701,
      8882,
      9142,
      9322,
      9529,
      9797,
      9984,
      10002,
      10266,
      10396
    ],
    "swim:geom": "takeoff",
    "swim:timestamps": [
      1769894782,
      1769894815,
      1769894836,
      1769894854,
      1769894895,
      1769894923,
      1769894950,
      1769894974,
      1769895026,
      1769895041,
      1769895084,
      1769895096,
      1769895133,
      1769895177,
      1769895204,
      1769895222,
      1769895258,
      1769895270,
      1769895319,
      1769895358,
      1769895381,
      1769895390,
      1769895407,
      1769895448,
      1769895478,
      1769895505,
      1769895538,
      1769895567,
      1769895597,
      1769895628,
      1769895658,
      1769895661,
      1769895706,
      1769895724
    ],
    "wof:geomhash": "90932a6ce7521b3247fa4446d4417263",
    "wof:id": 2014685831,
    "wof:repo": "sfomuseum-data-flights-2026-01"
  },
  "bbox": [
    -122.43577,
    36.72186,
    -121.27188,
    37.70144
  ],
  "geometry": {"coordinates":[[-122.36465,37.63745],[-122.36336,37.66276],[-122.36212,37.67933],[-122.36615,37.69469],[-122.41462,37.70144],[-122.43577,37.67245],[-122.4316,37.63912],[-122.4271,37.61007],[-122.40622,37.54272],[-122.38538,37.52619],[-122.32427,37.483],[-122.30727,37.47134],[-122.25367,37.43304],[-122.18906,37.38735],[-122.14963,37.35938],[-122.12294,37.3403],[-122.06884,37.30203],[-122.05071,37.28907],[-121.97587,37.23495],[-121.91419,37.19069],[-121.87762,37.16422],[-121.86316,37.15386],[-121.83554,37.13409],[-121.76966,37.0865],[-121.71721,37.04943],[-121.67036,37.01568],[-121.61235,36.9736],[-121.56091,36.9362],[-121.50726,36.89675],[-121.44947,36.85507],[-121.39401,36.81404],[-121.38847,36.80993],[-121.30602,36.74702],[-121.27188,36.72186]],"type":"LineString"}
}
