{
  "id": 2014684213,
  "type": "Feature",
  "properties": {
    "geom:area": 0,
    "geom:bbox": "-122.370050,37.636240,-122.236100,38.496390",
    "geom:latitude": 38.03999507399315,
    "geom:longitude": -122.29996687172302,
    "src:alt_label": "swim-takeoff",
    "src:geom": "swim",
    "swim:elevations": [
      381,
      460,
      665,
      1238,
      1443,
      1938,
      2251,
      2769,
      2896,
      3327,
      3803,
      4321,
      4594,
      4879,
      5674,
      5996,
      6119,
      6570,
      7103,
      7396,
      7615,
      7841
    ],
    "swim:geom": "takeoff",
    "swim:timestamps": [
      1769847054,
      1769847060,
      1769847095,
      1769847139,
      1769847151,
      1769847183,
      1769847200,
      1769847232,
      1769847245,
      1769847279,
      1769847315,
      1769847356,
      1769847375,
      1769847393,
      1769847446,
      1769847473,
      1769847485,
      1769847526,
      1769847568,
      1769847593,
      1769847613,
      1769847634
    ],
    "wof:geomhash": "e843d300238be6c0a5619a47d6b91057",
    "wof:id": 2014684213,
    "wof:repo": "sfomuseum-data-flights-2026-01"
  },
  "bbox": [
    -122.37005,
    37.63624,
    -122.2361,
    38.49639
  ],
  "geometry": {"coordinates":[[-122.36002,37.63624],[-122.35567,37.63912],[-122.32219,37.65746],[-122.2727,37.6891],[-122.26433,37.70258],[-122.27152,37.74225],[-122.28341,37.76254],[-122.30631,37.80088],[-122.31618,37.81735],[-122.34212,37.86199],[-122.37005,37.91344],[-122.36572,37.98104],[-122.35407,38.01333],[-122.34298,38.04442],[-122.31067,38.13427],[-122.29348,38.18192],[-122.28551,38.20386],[-122.25743,38.28126],[-122.2361,38.36322],[-122.23829,38.41256],[-122.24218,38.45167],[-122.24709,38.49639]],"type":"LineString"}
}
