{
  "id": 2014681175,
  "type": "Feature",
  "properties": {
    "geom:area": 0,
    "geom:bbox": "-122.358790,37.492320,-121.249340,37.613910",
    "geom:latitude": 37.54689718848408,
    "geom:longitude": -121.80892354046607,
    "src:alt_label": "swim-approach",
    "src:geom": "swim",
    "swim:elevations": [
      4984,
      4890,
      4502,
      4079,
      3765,
      3431,
      3295,
      3229,
      3084,
      2900,
      2686,
      2541,
      2411,
      2325,
      2055,
      1859,
      1767,
      1515,
      1332,
      1037,
      914,
      793,
      740,
      547,
      518,
      401,
      367,
      217,
      61,
      0
    ],
    "swim:geom": "approach",
    "swim:timestamps": [
      1769891002,
      1769891011,
      1769891048,
      1769891089,
      1769891119,
      1769891155,
      1769891185,
      1769891200,
      1769891218,
      1769891240,
      1769891270,
      1769891303,
      1769891327,
      1769891351,
      1769891390,
      1769891428,
      1769891447,
      1769891479,
      1769891503,
      1769891545,
      1769891560,
      1769891582,
      1769891600,
      1769891633,
      1769891651,
      1769891698,
      1769891707,
      1769891748,
      1769891788,
      1769891800
    ],
    "wof:geomhash": "1a1be8b5bd80273d25f8f7736cfdb944",
    "wof:id": 2014681175,
    "wof:repo": "sfomuseum-data-flights-2026-01"
  },
  "bbox": [
    -122.35879,
    37.49232,
    -121.24934,
    37.61391
  ],
  "geometry": {"coordinates":[[-121.24934,37.59469],[-121.2669,37.59232],[-121.33883,37.58395],[-121.41716,37.57512],[-121.47464,37.56849],[-121.54308,37.56052],[-121.59788,37.5541],[-121.62412,37.55066],[-121.65352,37.54394],[-121.68899,37.53532],[-121.73732,37.52391],[-121.78952,37.51143],[-121.8275,37.50226],[-121.86382,37.49357],[-121.92172,37.49232],[-121.97499,37.49371],[-122.00209,37.49956],[-122.04313,37.51283],[-122.07219,37.52221],[-122.12131,37.53807],[-122.13926,37.54385],[-122.16462,37.55205],[-122.18564,37.55881],[-122.22328,37.57097],[-122.24128,37.57684],[-122.28132,37.58892],[-122.28831,37.59095],[-122.32001,37.60019],[-122.35053,37.61069],[-122.35879,37.61391]],"type":"LineString"}
}
