{
  "id": 2014682441,
  "type": "Feature",
  "properties": {
    "geom:area": 0,
    "geom:bbox": "-122.356520,37.491520,-121.243890,37.613330",
    "geom:latitude": 37.54688878436951,
    "geom:longitude": -121.80511392794644,
    "src:alt_label": "swim-approach",
    "src:geom": "swim",
    "swim:elevations": [
      4840,
      4760,
      4668,
      4616,
      4550,
      4460,
      4161,
      3762,
      3575,
      3257,
      3170,
      3034,
      3009,
      2697,
      2625,
      2549,
      2538,
      2417,
      2220,
      2070,
      1931,
      1914,
      1765,
      1534,
      1493,
      1408,
      1232,
      1062,
      946,
      795,
      621,
      396,
      269,
      149,
      89,
      40
    ],
    "swim:geom": "approach",
    "swim:timestamps": [
      1769849847,
      1769849859,
      1769849871,
      1769849883,
      1769849897,
      1769849918,
      1769849955,
      1769849990,
      1769850007,
      1769850053,
      1769850076,
      1769850114,
      1769850121,
      1769850172,
      1769850182,
      1769850201,
      1769850212,
      1769850229,
      1769850260,
      1769850290,
      1769850326,
      1769850332,
      1769850364,
      1769850407,
      1769850413,
      1769850429,
      1769850462,
      1769850497,
      1769850519,
      1769850545,
      1769850578,
      1769850624,
      1769850654,
      1769850683,
      1769850695,
      1769850709
    ],
    "wof:geomhash": "935c150bdd23d8092e98fee40a358517",
    "wof:id": 2014682441,
    "wof:repo": "sfomuseum-data-flights-2026-01"
  },
  "bbox": [
    -122.35652,
    37.49152,
    -121.24389,
    37.61333
  ],
  "geometry": {"coordinates":[[-121.24389,37.59537],[-121.26773,37.5921],[-121.29074,37.58926],[-121.31367,37.5869],[-121.33908,37.58411],[-121.37358,37.58013],[-121.43219,37.5732],[-121.48588,37.56683],[-121.51065,37.56395],[-121.58,37.55608],[-121.61422,37.55192],[-121.66611,37.54096],[-121.67506,37.53888],[-121.74252,37.52269],[-121.75538,37.51959],[-121.78137,37.5133],[-121.79648,37.50972],[-121.8191,37.5043],[-121.86018,37.49458],[-121.90091,37.49152],[-121.95006,37.49281],[-121.95834,37.49305],[-121.99994,37.49842],[-122.04819,37.51413],[-122.05478,37.51631],[-122.07193,37.52193],[-122.10957,37.53408],[-122.14811,37.5466],[-122.17179,37.55429],[-122.20038,37.56361],[-122.23669,37.57531],[-122.28358,37.58946],[-122.31086,37.5976],[-122.33502,37.60479],[-122.34492,37.60839],[-122.35652,37.61333]],"type":"LineString"}
}
