{
  "id": 2014685953,
  "type": "Feature",
  "properties": {
    "geom:area": 0,
    "geom:bbox": "-122.386900,37.638330,-121.245190,38.428410",
    "geom:latitude": 38.094553976452765,
    "geom:longitude": -121.92536122253335,
    "src:alt_label": "swim-takeoff",
    "src:geom": "swim",
    "swim:elevations": [
      274,
      657,
      775,
      1057,
      1196,
      1425,
      1963,
      2251,
      2430,
      2624,
      2849,
      3143,
      3342,
      3530,
      3674,
      3809,
      4062,
      4129,
      4299,
      4495,
      4783,
      4876,
      5133,
      5343,
      5450,
      5543,
      5644,
      5844,
      6092,
      6267,
      6428,
      6522
    ],
    "swim:geom": "takeoff",
    "swim:timestamps": [
      1769900924,
      1769900957,
      1769900977,
      1769901007,
      1769901046,
      1769901080,
      1769901118,
      1769901145,
      1769901160,
      1769901182,
      1769901203,
      1769901230,
      1769901259,
      1769901291,
      1769901324,
      1769901348,
      1769901383,
      1769901392,
      1769901413,
      1769901440,
      1769901474,
      1769901486,
      1769901516,
      1769901543,
      1769901567,
      1769901579,
      1769901592,
      1769901617,
      1769901653,
      1769901684,
      1769901711,
      1769901726
    ],
    "wof:geomhash": "a586883991ed682218a41a4e5f7c43f2",
    "wof:id": 2014685953,
    "wof:repo": "sfomuseum-data-flights-2026-01"
  },
  "bbox": [
    -122.3869,
    37.63833,
    -121.24519,
    38.42841
  ],
  "geometry": {"coordinates":[[-122.36244,37.63833],[-122.33927,37.65813],[-122.32526,37.67138],[-122.31382,37.6956],[-122.3293,37.73187],[-122.34917,37.76911],[-122.37187,37.81437],[-122.38547,37.84824],[-122.3869,37.86869],[-122.38425,37.89929],[-122.37634,37.92895],[-122.34303,37.95768],[-122.29357,37.97767],[-122.23469,38.00052],[-122.16978,38.02642],[-122.12002,38.04663],[-122.04512,38.07701],[-122.02532,38.08493],[-121.97873,38.10343],[-121.91875,38.12735],[-121.84094,38.15969],[-121.81378,38.17186],[-121.74481,38.203],[-121.68388,38.23065],[-121.62818,38.25605],[-121.60006,38.26883],[-121.56829,38.28329],[-121.50983,38.30973],[-121.42403,38.34849],[-121.3487,38.38222],[-121.28239,38.41183],[-121.24519,38.42841]],"type":"LineString"}
}
