{
  "id": 2014681709,
  "type": "Feature",
  "properties": {
    "geom:area": 0,
    "geom:bbox": "-122.353330,37.490840,-121.269380,37.611840",
    "geom:latitude": 37.54537979857381,
    "geom:longitude": -121.81609639584983,
    "src:alt_label": "swim-approach",
    "src:geom": "swim",
    "swim:elevations": [
      4987,
      4715,
      4553,
      4153,
      4079,
      3787,
      3477,
      3053,
      2937,
      2613,
      2566,
      2439,
      2109,
      1993,
      1916,
      1827,
      1828,
      1639,
      1497,
      1389,
      1347,
      1201,
      990,
      803,
      528,
      366,
      245,
      121,
      60
    ],
    "swim:geom": "approach",
    "swim:timestamps": [
      1769853773,
      1769853800,
      1769853818,
      1769853864,
      1769853871,
      1769853904,
      1769853940,
      1769853987,
      1769854001,
      1769854043,
      1769854055,
      1769854081,
      1769854127,
      1769854152,
      1769854166,
      1769854189,
      1769854204,
      1769854245,
      1769854266,
      1769854285,
      1769854304,
      1769854331,
      1769854360,
      1769854382,
      1769854427,
      1769854466,
      1769854495,
      1769854523,
      1769854543
    ],
    "wof:geomhash": "22bd1efbd5586aeb95daca4b296d0c71",
    "wof:id": 2014681709,
    "wof:repo": "sfomuseum-data-flights-2026-01"
  },
  "bbox": [
    -122.35333,
    37.49084,
    -121.26938,
    37.61184
  ],
  "geometry": {"coordinates":[[-121.26938,37.5914],[-121.32583,37.58454],[-121.35993,37.58114],[-121.44827,37.57135],[-121.4614,37.5698],[-121.52258,37.56266],[-121.5885,37.55441],[-121.66706,37.54023],[-121.68952,37.5349],[-121.75575,37.51935],[-121.77436,37.51488],[-121.81339,37.50557],[-121.88125,37.49084],[-121.91884,37.4923],[-121.94017,37.4926],[-121.97247,37.49353],[-121.9931,37.49634],[-122.04619,37.51374],[-122.07198,37.52211],[-122.09605,37.52987],[-122.11904,37.5374],[-122.14894,37.54704],[-122.18082,37.55736],[-122.20489,37.56521],[-122.25269,37.58062],[-122.28906,37.59132],[-122.31434,37.59889],[-122.33808,37.60624],[-122.35333,37.61184]],"type":"LineString"}
}
