{
  "id": 2014686079,
  "type": "Feature",
  "properties": {
    "geom:area": 0,
    "geom:bbox": "-122.384280,37.640710,-121.244910,38.509460",
    "geom:latitude": 38.15567890340493,
    "geom:longitude": -121.93436902678262,
    "src:alt_label": "swim-takeoff",
    "src:geom": "swim",
    "swim:elevations": [
      396,
      806,
      1079,
      1118,
      1183,
      1394,
      1880,
      2456,
      2535,
      3148,
      3227,
      3333,
      3369,
      3688,
      4088,
      4420,
      4747,
      4942,
      5160,
      5192,
      5433,
      5532,
      5824,
      6249,
      6534,
      6598,
      6941,
      7048,
      7247,
      7500,
      7600,
      7870,
      7960
    ],
    "swim:geom": "takeoff",
    "swim:timestamps": [
      1769900542,
      1769900576,
      1769900606,
      1769900612,
      1769900621,
      1769900642,
      1769900680,
      1769900728,
      1769900734,
      1769900787,
      1769900799,
      1769900817,
      1769900823,
      1769900856,
      1769900894,
      1769900924,
      1769900957,
      1769900977,
      1769900998,
      1769901001,
      1769901028,
      1769901039,
      1769901067,
      1769901109,
      1769901142,
      1769901151,
      1769901191,
      1769901206,
      1769901230,
      1769901265,
      1769901279,
      1769901318,
      1769901330
    ],
    "wof:geomhash": "159d25eb6536a1c3fea40014f0b1eaba",
    "wof:id": 2014686079,
    "wof:repo": "sfomuseum-data-flights-2026-01"
  },
  "bbox": [
    -122.38428,
    37.64071,
    -121.24491,
    38.50946
  ],
  "geometry": {"coordinates":[[-122.356,37.64071],[-122.33046,37.66289],[-122.31284,37.68696],[-122.31202,37.69317],[-122.31328,37.70275],[-122.32522,37.72453],[-122.3484,37.76724],[-122.3776,37.82623],[-122.38131,37.83394],[-122.38428,37.91149],[-122.37976,37.93003],[-122.36076,37.95492],[-122.35142,37.96162],[-122.29393,37.9959],[-122.22458,38.03776],[-122.16966,38.07161],[-122.10622,38.11065],[-122.06696,38.13441],[-122.02559,38.15964],[-122.01952,38.1633],[-121.96407,38.19639],[-121.94058,38.21051],[-121.88163,38.24608],[-121.79339,38.2992],[-121.72234,38.34171],[-121.70196,38.35234],[-121.60186,38.38291],[-121.56321,38.39378],[-121.50098,38.41089],[-121.40829,38.4371],[-121.37142,38.44939],[-121.27477,38.49471],[-121.24491,38.50946]],"type":"LineString"}
}
