{
  "id": 2014684323,
  "type": "Feature",
  "properties": {
    "geom:area": 0,
    "geom:bbox": "-123.321790,37.191270,-122.389780,37.666680",
    "geom:latitude": 37.45445479267401,
    "geom:longitude": -122.85963472943841,
    "src:alt_label": "swim-takeoff",
    "src:geom": "swim",
    "swim:elevations": [
      122,
      476,
      632,
      717,
      1073,
      1192,
      1841,
      2254,
      2430,
      2901,
      3080,
      3227,
      3374,
      3476,
      3691,
      4002,
      4592,
      4680,
      4850,
      5035,
      5395,
      5619,
      5855,
      6403,
      6626
    ],
    "swim:geom": "takeoff",
    "swim:timestamps": [
      1769929911,
      1769929947,
      1769929965,
      1769929974,
      1769930007,
      1769930016,
      1769930067,
      1769930098,
      1769930110,
      1769930149,
      1769930166,
      1769930186,
      1769930216,
      1769930237,
      1769930263,
      1769930293,
      1769930336,
      1769930343,
      1769930358,
      1769930376,
      1769930413,
      1769930438,
      1769930462,
      1769930518,
      1769930544
    ],
    "wof:geomhash": "87db0a2a0f48bf21ffed46e26cfaab85",
    "wof:id": 2014684323,
    "wof:repo": "sfomuseum-data-flights-2026-01"
  },
  "bbox": [
    -123.32179,
    37.19127,
    -122.38978,
    37.66668
  ],
  "geometry": {"coordinates":[[-122.38978,37.62489],[-122.42258,37.63935],[-122.44087,37.6474],[-122.45038,37.65153],[-122.48859,37.66607],[-122.5007,37.66668],[-122.56342,37.63643],[-122.59972,37.61328],[-122.61397,37.60426],[-122.66107,37.57424],[-122.68207,37.56237],[-122.70959,37.5468],[-122.75345,37.52169],[-122.78647,37.50255],[-122.82962,37.47758],[-122.88087,37.44784],[-122.95287,37.40622],[-122.96414,37.39974],[-122.98956,37.38495],[-123.02048,37.36703],[-123.08663,37.32856],[-123.12927,37.30372],[-123.17299,37.2783],[-123.27443,37.21911],[-123.32179,37.19127]],"type":"LineString"}
}
