{
  "id": 2014685943,
  "type": "Feature",
  "properties": {
    "geom:area": 0,
    "geom:bbox": "-122.429350,36.721360,-121.497260,37.708120",
    "geom:latitude": 37.239569338139795,
    "geom:longitude": -122.01263534442829,
    "src:alt_label": "swim-takeoff",
    "src:geom": "swim",
    "swim:elevations": [
      183,
      631,
      806,
      1246,
      1380,
      2225,
      2723,
      3145,
      3306,
      3797,
      4120,
      4294,
      4708,
      5253,
      5354,
      5445,
      5626,
      5954,
      6440,
      6704,
      6991,
      7233,
      7442,
      7595,
      7894,
      8185,
      8312,
      8641
    ],
    "swim:geom": "takeoff",
    "swim:timestamps": [
      1769856787,
      1769856827,
      1769856840,
      1769856892,
      1769856906,
      1769856953,
      1769856984,
      1769857010,
      1769857028,
      1769857071,
      1769857108,
      1769857126,
      1769857161,
      1769857198,
      1769857207,
      1769857216,
      1769857237,
      1769857266,
      1769857316,
      1769857345,
      1769857371,
      1769857396,
      1769857421,
      1769857441,
      1769857484,
      1769857528,
      1769857552,
      1769857609
    ],
    "wof:geomhash": "998273a25dd917d0d2c3ede33b7bc3c7",
    "wof:id": 2014685943,
    "wof:repo": "sfomuseum-data-flights-2026-01"
  },
  "bbox": [
    -122.42935,
    36.72136,
    -121.49726,
    37.70812
  ],
  "geometry": {"coordinates":[[-122.36772,37.63081],[-122.36383,37.66119],[-122.36309,37.67163],[-122.39215,37.70812],[-122.41361,37.70366],[-122.42935,37.65221],[-122.40697,37.61777],[-122.3801,37.59109],[-122.36114,37.57321],[-122.30959,37.5222],[-122.26079,37.47543],[-122.23751,37.45234],[-122.18811,37.40362],[-122.1354,37.35197],[-122.12268,37.33949],[-122.1093,37.32655],[-122.07798,37.29647],[-122.0363,37.25537],[-121.96266,37.18271],[-121.91888,37.13984],[-121.87892,37.10045],[-121.83993,37.06205],[-121.80208,37.02461],[-121.77017,36.99281],[-121.70051,36.92549],[-121.63083,36.85619],[-121.59139,36.81709],[-121.49726,36.72136]],"type":"LineString"}
}
