{
  "id": 2014682055,
  "type": "Feature",
  "properties": {
    "geom:area": 0,
    "geom:bbox": "-122.349250,37.491570,-121.268170,37.610230",
    "geom:latitude": 37.54548664768139,
    "geom:longitude": -121.81332167267539,
    "src:alt_label": "swim-approach",
    "src:geom": "swim",
    "swim:elevations": [
      4882,
      4741,
      4666,
      4519,
      4306,
      3873,
      3484,
      3349,
      3159,
      3139,
      2925,
      2732,
      2549,
      2437,
      2162,
      2072,
      1955,
      1762,
      1640,
      1427,
      1315,
      1187,
      1017,
      817,
      623,
      506,
      435,
      350,
      190,
      91,
      68
    ],
    "swim:geom": "approach",
    "swim:timestamps": [
      1769851063,
      1769851080,
      1769851099,
      1769851128,
      1769851152,
      1769851188,
      1769851224,
      1769851239,
      1769851262,
      1769851269,
      1769851314,
      1769851340,
      1769851363,
      1769851396,
      1769851436,
      1769851458,
      1769851483,
      1769851527,
      1769851546,
      1769851581,
      1769851601,
      1769851624,
      1769851655,
      1769851696,
      1769851728,
      1769851754,
      1769851771,
      1769851786,
      1769851827,
      1769851853,
      1769851861
    ],
    "wof:geomhash": "4d194f64abad99c1f07cae1f7bc749e4",
    "wof:id": 2014682055,
    "wof:repo": "sfomuseum-data-flights-2026-01"
  },
  "bbox": [
    -122.34925,
    37.49157,
    -121.26817,
    37.61023
  ],
  "geometry": {"coordinates":[[-121.26817,37.59212],[-121.30161,37.58803],[-121.33994,37.58397],[-121.39219,37.57829],[-121.43187,37.57374],[-121.49234,37.56648],[-121.55082,37.55896],[-121.57557,37.55623],[-121.61419,37.5519],[-121.62533,37.55028],[-121.69121,37.53494],[-121.72961,37.52589],[-121.7624,37.51793],[-121.8094,37.5066],[-121.86708,37.49293],[-121.90048,37.49157],[-121.93736,37.49245],[-122.00236,37.49928],[-122.02698,37.50754],[-122.06998,37.52163],[-122.09337,37.52904],[-122.11894,37.53697],[-122.15432,37.54847],[-122.20069,37.56353],[-122.23526,37.57464],[-122.26156,37.5832],[-122.27826,37.58791],[-122.2927,37.59218],[-122.32541,37.60205],[-122.3442,37.608],[-122.34925,37.61023]],"type":"LineString"}
}
