{
  "id": 2014683729,
  "type": "Feature",
  "properties": {
    "geom:area": 0,
    "geom:bbox": "-123.340410,37.627500,-122.396250,38.518770",
    "geom:latitude": 38.03182982035052,
    "geom:longitude": -122.9014395889118,
    "src:alt_label": "swim-takeoff",
    "src:geom": "swim",
    "swim:elevations": [
      183,
      673,
      898,
      994,
      1283,
      1853,
      2166,
      2528,
      2880,
      3241,
      3371,
      3563,
      3945,
      4305,
      4577,
      4910,
      5035,
      5367,
      5721,
      6065,
      6305,
      6476,
      6856,
      7098,
      7234
    ],
    "swim:geom": "takeoff",
    "swim:timestamps": [
      1769905819,
      1769905849,
      1769905876,
      1769905894,
      1769905933,
      1769905978,
      1769905999,
      1769906029,
      1769906059,
      1769906098,
      1769906121,
      1769906149,
      1769906179,
      1769906211,
      1769906241,
      1769906268,
      1769906280,
      1769906312,
      1769906355,
      1769906388,
      1769906412,
      1769906430,
      1769906475,
      1769906505,
      1769906520
    ],
    "wof:geomhash": "6677f52142a7b79359d3b328afc3e947",
    "wof:id": 2014683729,
    "wof:repo": "sfomuseum-data-flights-2026-01"
  },
  "bbox": [
    -123.34041,
    37.6275,
    -122.39625,
    38.51877
  ],
  "geometry": {"coordinates":[[-122.39625,37.6275],[-122.42602,37.64077],[-122.45401,37.65307],[-122.47504,37.66206],[-122.52493,37.68733],[-122.5862,37.72347],[-122.61547,37.7408],[-122.65803,37.76595],[-122.7018,37.79161],[-122.75902,37.82845],[-122.78686,37.85932],[-122.82101,37.90066],[-122.85839,37.94649],[-122.89946,37.99587],[-122.93773,38.0417],[-122.97375,38.08483],[-122.98998,38.10417],[-123.03378,38.15648],[-123.09416,38.22864],[-123.14162,38.28523],[-123.17657,38.32673],[-123.20303,38.35808],[-123.27037,38.43706],[-123.31666,38.49134],[-123.34041,38.51877]],"type":"LineString"}
}
