{
  "id": 2014682357,
  "type": "Feature",
  "properties": {
    "geom:area": 0,
    "geom:bbox": "-122.359920,36.749290,-121.893660,37.612190",
    "geom:latitude": 37.22363980034336,
    "geom:longitude": -122.0758326441135,
    "src:alt_label": "swim-approach",
    "src:geom": "swim",
    "swim:elevations": [
      4963,
      4729,
      4572,
      4336,
      4192,
      3880,
      3613,
      3446,
      3212,
      3117,
      3026,
      2762,
      2633,
      2439,
      2261,
      1991,
      1880,
      1724,
      1656,
      1534,
      1240,
      995,
      852,
      754,
      626,
      484,
      479,
      268,
      143,
      7
    ],
    "swim:geom": "approach",
    "swim:timestamps": [
      1769893047,
      1769893075,
      1769893093,
      1769893117,
      1769893133,
      1769893167,
      1769893198,
      1769893214,
      1769893242,
      1769893276,
      1769893306,
      1769893345,
      1769893364,
      1769893392,
      1769893413,
      1769893451,
      1769893463,
      1769893493,
      1769893512,
      1769893537,
      1769893580,
      1769893612,
      1769893640,
      1769893657,
      1769893680,
      1769893707,
      1769893710,
      1769893760,
      1769893788,
      1769893817
    ],
    "wof:geomhash": "6de87efbf5cad155477580466f41ea77",
    "wof:id": 2014682357,
    "wof:repo": "sfomuseum-data-flights-2026-01"
  },
  "bbox": [
    -122.35992,
    36.74929,
    -121.89366,
    37.61219
  ],
  "geometry": {"coordinates":[[-121.89366,36.74929],[-121.90985,36.79784],[-121.91864,36.82895],[-121.92996,36.86945],[-121.93714,36.8952],[-121.95301,36.95147],[-121.97192,37.0004],[-121.98164,37.02502],[-121.99812,37.06751],[-122.01775,37.11779],[-122.03438,37.16033],[-122.05511,37.21327],[-122.06561,37.23993],[-122.07974,37.27614],[-122.09072,37.3038],[-122.10986,37.35242],[-122.11578,37.36723],[-122.12893,37.40431],[-122.13603,37.42501],[-122.14527,37.45174],[-122.16732,37.49442],[-122.18815,37.52334],[-122.20647,37.54623],[-122.22243,37.55393],[-122.24526,37.56383],[-122.27033,37.57469],[-122.27305,37.57587],[-122.31497,37.59328],[-122.33766,37.60284],[-122.35992,37.61219]],"type":"LineString"}
}
