{
  "id": 2014685885,
  "type": "Feature",
  "properties": {
    "geom:area": 0,
    "geom:bbox": "-122.363590,37.632780,-121.249150,37.964920",
    "geom:latitude": 37.83895102065674,
    "geom:longitude": -121.82053026126646,
    "src:alt_label": "swim-takeoff",
    "src:geom": "swim",
    "swim:elevations": [
      261,
      768,
      1101,
      1243,
      1713,
      2061,
      2490,
      2803,
      3193,
      3289,
      3622,
      3925,
      4470,
      4595,
      5143,
      5573,
      5741,
      6053,
      6275,
      6574,
      6889,
      7247
    ],
    "swim:geom": "takeoff",
    "swim:timestamps": [
      1769851304,
      1769851340,
      1769851376,
      1769851392,
      1769851436,
      1769851463,
      1769851492,
      1769851518,
      1769851551,
      1769851569,
      1769851601,
      1769851624,
      1769851674,
      1769851683,
      1769851723,
      1769851768,
      1769851786,
      1769851821,
      1769851849,
      1769851879,
      1769851906,
      1769851937
    ],
    "wof:geomhash": "a1b1b011aed45e0bb11735cf82e90955",
    "wof:id": 2014685885,
    "wof:repo": "sfomuseum-data-flights-2026-01"
  },
  "bbox": [
    -122.36359,
    37.63278,
    -121.24915,
    37.96492
  ],
  "geometry": {"coordinates":[[-122.36359,37.63278],[-122.33561,37.65047],[-122.30556,37.6679],[-122.28989,37.67719],[-122.23996,37.70442],[-122.20466,37.72292],[-122.16514,37.74338],[-122.12867,37.76222],[-122.07935,37.78764],[-122.05231,37.80175],[-121.99515,37.82678],[-121.95006,37.83651],[-121.84352,37.85632],[-121.82436,37.85991],[-121.73945,37.87541],[-121.64233,37.89334],[-121.60101,37.90109],[-121.52142,37.91562],[-121.45783,37.92713],[-121.38662,37.94007],[-121.32277,37.95163],[-121.24915,37.96492]],"type":"LineString"}
}
