{
  "id": 2014686323,
  "type": "Feature",
  "properties": {
    "geom:area": 0,
    "geom:bbox": "-122.462890,37.399250,-121.300330,37.706100",
    "geom:latitude": 37.46719561954894,
    "geom:longitude": -121.99480220227439,
    "src:alt_label": "swim-takeoff",
    "src:geom": "swim",
    "swim:elevations": [
      152,
      345,
      608,
      1090,
      1229,
      1311,
      1820,
      1919,
      2123,
      2549,
      3014,
      3167,
      3411,
      3809,
      3966,
      4557,
      4768,
      5306,
      5538,
      5908,
      6121,
      6432,
      6698,
      6960,
      7039,
      7271,
      7589,
      7731,
      8007,
      8242
    ],
    "swim:geom": "takeoff",
    "swim:timestamps": [
      1769878766,
      1769878781,
      1769878804,
      1769878855,
      1769878876,
      1769878890,
      1769878944,
      1769878953,
      1769878968,
      1769878997,
      1769879031,
      1769879044,
      1769879085,
      1769879120,
      1769879138,
      1769879185,
      1769879200,
      1769879242,
      1769879264,
      1769879302,
      1769879326,
      1769879363,
      1769879390,
      1769879421,
      1769879430,
      1769879461,
      1769879511,
      1769879528,
      1769879564,
      1769879590
    ],
    "wof:geomhash": "5048c4edee2cc42b5c64c946aa8fbfd4",
    "wof:id": 2014686323,
    "wof:repo": "sfomuseum-data-flights-2026-01"
  },
  "bbox": [
    -122.46289,
    37.39925,
    -121.30033,
    37.7061
  ],
  "geometry": {"coordinates":[[-122.36875,37.62961],[-122.36418,37.6404],[-122.36333,37.659],[-122.37034,37.69864],[-122.39182,37.7061],[-122.40819,37.70398],[-122.43471,37.65354],[-122.43683,37.64326],[-122.44077,37.62562],[-122.45037,37.59075],[-122.46041,37.5493],[-122.46289,37.53255],[-122.41805,37.49178],[-122.35069,37.47797],[-122.31568,37.47019],[-122.22038,37.44873],[-122.18919,37.44177],[-122.10425,37.42272],[-122.06041,37.41284],[-121.98022,37.39939],[-121.92741,37.39925],[-121.84398,37.40046],[-121.78182,37.40149],[-121.71023,37.4027],[-121.69076,37.40299],[-121.61541,37.40406],[-121.495,37.40544],[-121.45253,37.40593],[-121.3637,37.40688],[-121.30033,37.40734]],"type":"LineString"}
}
