{
  "id": 2014683217,
  "type": "Feature",
  "properties": {
    "geom:area": 0,
    "geom:bbox": "-122.385800,37.633100,-121.271070,38.472960",
    "geom:latitude": 38.140273092913155,
    "geom:longitude": -121.95201328363741,
    "src:alt_label": "swim-takeoff",
    "src:geom": "swim",
    "swim:elevations": [
      300,
      698,
      868,
      1021,
      1352,
      1843,
      2136,
      2418,
      2594,
      3018,
      3346,
      3476,
      3672,
      3714,
      4139,
      4396,
      4706,
      4977,
      5467,
      5780,
      6119,
      6301,
      6413,
      6443,
      6587,
      6706,
      6828,
      6909
    ],
    "swim:geom": "takeoff",
    "swim:timestamps": [
      1769898556,
      1769898596,
      1769898624,
      1769898658,
      1769898686,
      1769898716,
      1769898740,
      1769898767,
      1769898785,
      1769898824,
      1769898863,
      1769898887,
      1769898923,
      1769898930,
      1769898981,
      1769899010,
      1769899045,
      1769899063,
      1769899093,
      1769899117,
      1769899156,
      1769899195,
      1769899224,
      1769899232,
      1769899269,
      1769899296,
      1769899333,
      1769899354
    ],
    "wof:geomhash": "bc43184d6e3c9f4b3f490a4dfa457458",
    "wof:id": 2014683217,
    "wof:repo": "sfomuseum-data-flights-2026-01"
  },
  "bbox": [
    -122.3858,
    37.6331,
    -121.27107,
    38.47296
  ],
  "geometry": {"coordinates":[[-122.3623,37.6331],[-122.33494,37.65727],[-122.31301,37.67794],[-122.31603,37.71505],[-122.33491,37.74598],[-122.35387,37.78049],[-122.36805,37.80855],[-122.38387,37.84258],[-122.3858,37.86786],[-122.38177,37.92516],[-122.33538,37.97001],[-122.29607,37.99391],[-122.23278,38.03273],[-122.22077,38.0401],[-122.12265,38.09989],[-122.0649,38.13501],[-121.99243,38.17882],[-121.95526,38.20125],[-121.89558,38.23739],[-121.84914,38.26533],[-121.77263,38.31128],[-121.68487,38.34602],[-121.61521,38.36746],[-121.59509,38.37367],[-121.50108,38.40259],[-121.43019,38.42435],[-121.32892,38.45529],[-121.27107,38.47296]],"type":"LineString"}
}
