{
  "id": 2014686389,
  "type": "Feature",
  "properties": {
    "geom:area": 0,
    "geom:bbox": "-122.527830,37.626890,-122.040160,38.467170",
    "geom:latitude": 38.01506505045074,
    "geom:longitude": -122.29396272381221,
    "src:alt_label": "swim-takeoff",
    "src:geom": "swim",
    "swim:elevations": [
      152,
      604,
      801,
      913,
      1149,
      1262,
      1605,
      2092,
      2472,
      2830,
      2981,
      3222,
      3414,
      3566,
      3769,
      4052,
      4341,
      4600,
      4870,
      4992,
      5426,
      5418,
      5768,
      5785,
      5831
    ],
    "swim:geom": "takeoff",
    "swim:timestamps": [
      1769886417,
      1769886444,
      1769886462,
      1769886486,
      1769886526,
      1769886542,
      1769886573,
      1769886606,
      1769886640,
      1769886664,
      1769886677,
      1769886703,
      1769886741,
      1769886766,
      1769886805,
      1769886837,
      1769886865,
      1769886888,
      1769886922,
      1769886932,
      1769886985,
      1769886997,
      1769887039,
      1769887042,
      1769887053
    ],
    "wof:geomhash": "92e2cb6970ca87aae2c0ba2447a18fad",
    "wof:id": 2014686389,
    "wof:repo": "sfomuseum-data-flights-2026-01"
  },
  "bbox": [
    -122.52783,
    37.62689,
    -122.04016,
    38.46717
  ],
  "geometry": {"coordinates":[[-122.3945,37.62689],[-122.42241,37.63873],[-122.44121,37.64706],[-122.46934,37.65887],[-122.51865,37.68579],[-122.52623,37.70499],[-122.52783,37.7452],[-122.52566,37.78847],[-122.48637,37.82105],[-122.44915,37.83499],[-122.4325,37.84542],[-122.40701,37.87808],[-122.37501,37.92994],[-122.35069,37.96888],[-122.30877,38.03202],[-122.26247,38.08033],[-122.21983,38.12276],[-122.18279,38.15875],[-122.13073,38.21119],[-122.11502,38.22713],[-122.04557,38.32274],[-122.04016,38.34783],[-122.04409,38.43741],[-122.04386,38.44393],[-122.0416,38.46717]],"type":"LineString"}
}
