{
  "id": 2014679677,
  "type": "Feature",
  "properties": {
    "geom:area": 0,
    "geom:bbox": "-122.345930,37.491650,-121.279200,37.608670",
    "geom:latitude": 37.544820675301985,
    "geom:longitude": -121.8169943970455,
    "src:alt_label": "swim-approach",
    "src:geom": "swim",
    "swim:elevations": [
      4417,
      4356,
      3914,
      3689,
      3445,
      3198,
      3107,
      2842,
      2667,
      2438,
      2439,
      2299,
      2224,
      2163,
      2121,
      2000,
      1835,
      1403,
      1217,
      1054,
      834,
      698,
      573,
      549,
      378,
      287,
      238,
      93
    ],
    "swim:geom": "approach",
    "swim:timestamps": [
      1769877713,
      1769877721,
      1769877769,
      1769877793,
      1769877821,
      1769877856,
      1769877883,
      1769877923,
      1769877937,
      1769877988,
      1769878009,
      1769878041,
      1769878055,
      1769878073,
      1769878084,
      1769878113,
      1769878150,
      1769878192,
      1769878213,
      1769878241,
      1769878277,
      1769878307,
      1769878331,
      1769878356,
      1769878406,
      1769878428,
      1769878444,
      1769878479
    ],
    "wof:geomhash": "ebd7a0ffd3fb22f2b1ae96f5dcc790b0",
    "wof:id": 2014679677,
    "wof:repo": "sfomuseum-data-flights-2026-01"
  },
  "bbox": [
    -122.34593,
    37.49165,
    -121.2792,
    37.60867
  ],
  "geometry": {"coordinates":[[-121.2792,37.5907],[-121.29368,37.58891],[-121.38684,37.57857],[-121.432,37.57333],[-121.48423,37.56729],[-121.54781,37.55991],[-121.59461,37.5544],[-121.65723,37.54309],[-121.67975,37.53758],[-121.76045,37.51836],[-121.79171,37.5109],[-121.83779,37.49982],[-121.85819,37.49496],[-121.8849,37.49165],[-121.90188,37.49206],[-121.94515,37.49312],[-121.99612,37.49797],[-122.05285,37.516],[-122.08229,37.52558],[-122.11783,37.53713],[-122.161,37.5511],[-122.19243,37.56112],[-122.21661,37.56896],[-122.24094,37.57672],[-122.28486,37.58997],[-122.30362,37.59565],[-122.31745,37.59977],[-122.34593,37.60867]],"type":"LineString"}
}
