{
  "id": 2014685967,
  "type": "Feature",
  "properties": {
    "geom:area": 0,
    "geom:bbox": "-122.527880,37.631730,-122.066970,38.461100",
    "geom:latitude": 38.01533911478993,
    "geom:longitude": -122.31795194939289,
    "src:alt_label": "swim-takeoff",
    "src:geom": "swim",
    "swim:elevations": [
      335,
      422,
      823,
      976,
      1069,
      1293,
      1531,
      1824,
      2141,
      2582,
      2763,
      3212,
      3243,
      3349,
      3637,
      3811,
      4143,
      4576,
      4891,
      5056,
      5444,
      5718,
      5745
    ],
    "swim:geom": "takeoff",
    "swim:timestamps": [
      1769867338,
      1769867347,
      1769867385,
      1769867409,
      1769867436,
      1769867476,
      1769867500,
      1769867523,
      1769867555,
      1769867591,
      1769867610,
      1769867663,
      1769867671,
      1769867709,
      1769867748,
      1769867766,
      1769867796,
      1769867842,
      1769867874,
      1769867891,
      1769867939,
      1769867969,
      1769867972
    ],
    "wof:geomhash": "8245fd2a64a067151ea81e712d7aa845",
    "wof:id": 2014685967,
    "wof:repo": "sfomuseum-data-flights-2026-01"
  },
  "bbox": [
    -122.52788,
    37.63173,
    -122.06697,
    38.4611
  ],
  "geometry": {"coordinates":[[-122.40638,37.63173],[-122.41445,37.63506],[-122.45086,37.65123],[-122.47422,37.66137],[-122.50417,37.67432],[-122.52788,37.71429],[-122.52745,37.74524],[-122.52751,37.77511],[-122.50425,37.81159],[-122.45099,37.83264],[-122.42614,37.85034],[-122.38236,37.91761],[-122.37566,37.9282],[-122.33974,37.98435],[-122.29798,38.04965],[-122.27913,38.07888],[-122.24518,38.13161],[-122.1923,38.21306],[-122.15491,38.27076],[-122.13522,38.30121],[-122.09182,38.39301],[-122.06961,38.45384],[-122.06697,38.4611]],"type":"LineString"}
}
