{
  "id": 2014685935,
  "type": "Feature",
  "properties": {
    "geom:area": 0,
    "geom:bbox": "-123.501270,37.087190,-122.542490,37.649400",
    "geom:latitude": 37.367736705914915,
    "geom:longitude": -123.02151247564677,
    "src:alt_label": "swim-takeoff",
    "src:geom": "swim",
    "swim:elevations": [
      1473,
      1852,
      2324,
      2415,
      3008,
      3206,
      3309,
      3652,
      3898,
      4022,
      4173,
      4436,
      4711,
      4939,
      5150,
      5478,
      5773,
      5958,
      6083,
      6330,
      6433,
      6557
    ],
    "swim:geom": "takeoff",
    "swim:timestamps": [
      1769880619,
      1769880653,
      1769880688,
      1769880697,
      1769880743,
      1769880764,
      1769880784,
      1769880832,
      1769880864,
      1769880876,
      1769880895,
      1769880923,
      1769880952,
      1769880976,
      1769881001,
      1769881048,
      1769881077,
      1769881100,
      1769881117,
      1769881158,
      1769881182,
      1769881201
    ],
    "wof:geomhash": "69a58e32aba2298be0ca9079613fd26f",
    "wof:id": 2014685935,
    "wof:repo": "sfomuseum-data-flights-2026-01"
  },
  "bbox": [
    -123.50127,
    37.08719,
    -122.54249,
    37.6494
  ],
  "geometry": {"coordinates":[[-122.54249,37.6494],[-122.58238,37.62353],[-122.62511,37.59721],[-122.63712,37.59089],[-122.69881,37.55475],[-122.72762,37.53816],[-122.75636,37.52153],[-122.83192,37.47801],[-122.886,37.44666],[-122.90712,37.43437],[-122.93939,37.41577],[-122.98939,37.38674],[-123.03941,37.35775],[-123.08402,37.33196],[-123.12902,37.30574],[-123.21449,37.25588],[-123.26832,37.22438],[-123.31049,37.19967],[-123.34244,37.18085],[-123.41931,37.13576],[-123.45778,37.11311],[-123.50127,37.08719]],"type":"LineString"}
}
