{
  "id": 2014682415,
  "type": "Feature",
  "properties": {
    "geom:area": 0,
    "geom:bbox": "-122.360920,37.491410,-121.313790,37.615220",
    "geom:latitude": 37.54427517679275,
    "geom:longitude": -121.8421911277488,
    "src:alt_label": "swim-approach",
    "src:geom": "swim",
    "swim:elevations": [
      4327,
      4206,
      3764,
      3479,
      3369,
      3137,
      3079,
      2905,
      2818,
      2471,
      2447,
      2333,
      2075,
      1955,
      1785,
      1640,
      1491,
      1450,
      1115,
      983,
      856,
      737,
      516,
      285,
      104,
      57,
      0
    ],
    "swim:geom": "approach",
    "swim:timestamps": [
      1769858272,
      1769858286,
      1769858333,
      1769858364,
      1769858378,
      1769858426,
      1769858448,
      1769858482,
      1769858494,
      1769858558,
      1769858565,
      1769858584,
      1769858626,
      1769858656,
      1769858693,
      1769858722,
      1769858758,
      1769858770,
      1769858817,
      1769858841,
      1769858872,
      1769858893,
      1769858927,
      1769858964,
      1769858998,
      1769859008,
      1769859022
    ],
    "wof:geomhash": "247117c4cc3d8f60505182c3fd6fb8b6",
    "wof:id": 2014682415,
    "wof:repo": "sfomuseum-data-flights-2026-01"
  },
  "bbox": [
    -122.36092,
    37.49141,
    -121.31379,
    37.61522
  ],
  "geometry": {"coordinates":[[-121.31379,37.58647],[-121.33987,37.58368],[-121.43069,37.57353],[-121.48789,37.56696],[-121.51416,37.56379],[-121.59774,37.55392],[-121.63441,37.5481],[-121.68507,37.53648],[-121.70256,37.5323],[-121.79547,37.50997],[-121.8049,37.50772],[-121.83317,37.50087],[-121.89446,37.49141],[-121.93997,37.49235],[-121.99475,37.49728],[-122.03615,37.51005],[-122.08295,37.52556],[-122.09854,37.53072],[-122.15835,37.54974],[-122.18731,37.55906],[-122.22541,37.5712],[-122.24857,37.57843],[-122.28365,37.58889],[-122.3174,37.59726],[-122.34386,37.60792],[-122.35052,37.61084],[-122.36092,37.61522]],"type":"LineString"}
}
