{
  "id": 2014685143,
  "type": "Feature",
  "properties": {
    "geom:area": 0,
    "geom:bbox": "-123.319890,37.629050,-122.399950,38.495970",
    "geom:latitude": 38.021584136073336,
    "geom:longitude": -122.89275284022067,
    "src:alt_label": "swim-takeoff",
    "src:geom": "swim",
    "swim:elevations": [
      260,
      549,
      672,
      812,
      1212,
      1584,
      1918,
      2151,
      2384,
      2518,
      2940,
      3110,
      3324,
      3418,
      3548,
      3747,
      4051,
      4335,
      4679,
      4861,
      4971,
      5252,
      5368,
      5468,
      5639,
      6035,
      6126,
      6309
    ],
    "swim:geom": "takeoff",
    "swim:timestamps": [
      1769894987,
      1769895026,
      1769895054,
      1769895081,
      1769895117,
      1769895147,
      1769895177,
      1769895201,
      1769895225,
      1769895240,
      1769895283,
      1769895301,
      1769895345,
      1769895372,
      1769895393,
      1769895410,
      1769895444,
      1769895470,
      1769895505,
      1769895529,
      1769895541,
      1769895570,
      1769895587,
      1769895610,
      1769895631,
      1769895684,
      1769895697,
      1769895721
    ],
    "wof:geomhash": "04075e52a26f25508e455c3bb53dd54e",
    "wof:id": 2014685143,
    "wof:repo": "sfomuseum-data-flights-2026-01"
  },
  "bbox": [
    -123.31989,
    37.62905,
    -122.39995,
    38.49597
  ],
  "geometry": {"coordinates":[[-122.39995,37.62905],[-122.43504,37.64442],[-122.46566,37.65796],[-122.49917,37.67279],[-122.54307,37.69807],[-122.58024,37.72016],[-122.61808,37.74244],[-122.64899,37.76058],[-122.68107,37.77943],[-122.70139,37.79133],[-122.76018,37.82768],[-122.77975,37.84991],[-122.82556,37.90665],[-122.85731,37.94483],[-122.8834,37.97617],[-122.90499,38.00224],[-122.94844,38.05449],[-122.98167,38.09422],[-123.02718,38.14881],[-123.05873,38.18634],[-123.07456,38.20525],[-123.11248,38.25052],[-123.13424,38.27642],[-123.16559,38.31361],[-123.19497,38.34856],[-123.26942,38.43611],[-123.28636,38.45622],[-123.31989,38.49597]],"type":"LineString"}
}
