{
  "id": 2014682403,
  "type": "Feature",
  "properties": {
    "geom:area": 0,
    "geom:bbox": "-122.357730,37.491630,-121.247220,37.613940",
    "geom:latitude": 37.547000184146846,
    "geom:longitude": -121.80733513859828,
    "src:alt_label": "swim-approach",
    "src:geom": "swim",
    "swim:elevations": [
      5286,
      5177,
      4849,
      4545,
      4372,
      4009,
      3912,
      3432,
      3300,
      3022,
      2961,
      2804,
      2654,
      2439,
      2390,
      2160,
      2062,
      1815,
      1587,
      1422,
      1254,
      1123,
      963,
      811,
      499,
      286,
      190,
      0
    ],
    "swim:geom": "approach",
    "swim:timestamps": [
      1769859324,
      1769859337,
      1769859373,
      1769859413,
      1769859435,
      1769859477,
      1769859491,
      1769859537,
      1769859552,
      1769859590,
      1769859597,
      1769859618,
      1769859636,
      1769859676,
      1769859698,
      1769859734,
      1769859757,
      1769859825,
      1769859853,
      1769859880,
      1769859911,
      1769859937,
      1769859964,
      1769859990,
      1769860053,
      1769860101,
      1769860123,
      1769860165
    ],
    "wof:geomhash": "8df2e8d55e213145cd96e4f02967ab77",
    "wof:id": 2014682403,
    "wof:repo": "sfomuseum-data-flights-2026-01"
  },
  "bbox": [
    -122.35773,
    37.49163,
    -121.24722,
    37.61394
  ],
  "geometry": {"coordinates":[[-121.24722,37.59492],[-121.26924,37.59191],[-121.33029,37.58506],[-121.3933,37.57768],[-121.42741,37.57383],[-121.49175,37.56643],[-121.51226,37.56405],[-121.58199,37.55587],[-121.60457,37.55326],[-121.66042,37.54205],[-121.67079,37.53956],[-121.70056,37.5325],[-121.72705,37.52637],[-121.78615,37.51217],[-121.81883,37.50433],[-121.87044,37.4925],[-121.90527,37.49163],[-122.00464,37.50023],[-122.04004,37.51158],[-122.07341,37.52262],[-122.10821,37.53374],[-122.13684,37.54277],[-122.1664,37.55238],[-122.19553,37.5619],[-122.2619,37.58332],[-122.30448,37.59569],[-122.3233,37.60134],[-122.35773,37.61394]],"type":"LineString"}
}
