{
  "id": 2014680721,
  "type": "Feature",
  "properties": {
    "geom:area": 0,
    "geom:bbox": "-122.355950,37.491700,-121.842650,37.613050",
    "geom:latitude": 37.53764649130113,
    "geom:longitude": -122.10174135297038,
    "src:alt_label": "swim-approach",
    "src:geom": "swim",
    "swim:elevations": [
      2284,
      2045,
      1956,
      1773,
      1683,
      1646,
      1425,
      1306,
      1117,
      944,
      736,
      620,
      489,
      335,
      258,
      103,
      22
    ],
    "swim:geom": "approach",
    "swim:timestamps": [
      1769878571,
      1769878613,
      1769878635,
      1769878678,
      1769878690,
      1769878700,
      1769878735,
      1769878756,
      1769878788,
      1769878817,
      1769878855,
      1769878880,
      1769878909,
      1769878944,
      1769878957,
      1769878993,
      1769879010
    ],
    "wof:geomhash": "749dde1d2fa1ffa56ac16a5883ada082",
    "wof:id": 2014680721,
    "wof:repo": "sfomuseum-data-flights-2026-01"
  },
  "bbox": [
    -122.35595,
    37.4917,
    -121.84265,
    37.61305
  ],
  "geometry": {"coordinates":[[-121.84265,37.49859],[-121.90503,37.4917],[-121.9373,37.49244],[-121.99775,37.49789],[-122.01338,37.50295],[-122.0268,37.50731],[-122.07228,37.52197],[-122.09954,37.53074],[-122.13844,37.54345],[-122.17308,37.55464],[-122.21333,37.56763],[-122.23857,37.57582],[-122.26715,37.58498],[-122.3012,37.59451],[-122.31238,37.59785],[-122.34285,37.6075],[-122.35595,37.61305]],"type":"LineString"}
}
