{
  "id": 2014686065,
  "type": "Feature",
  "properties": {
    "geom:area": 0,
    "geom:bbox": "-122.387530,37.627690,-121.454310,38.502740",
    "geom:latitude": 38.11099900432378,
    "geom:longitude": -122.02497470445358,
    "src:alt_label": "swim-takeoff",
    "src:geom": "swim",
    "swim:elevations": [
      122,
      518,
      933,
      1263,
      1380,
      1470,
      1600,
      2018,
      2287,
      2692,
      3122,
      3400,
      3675,
      3823,
      4201,
      4517,
      4863,
      5095,
      5539,
      5671,
      6146,
      6395,
      6568,
      6911,
      7191,
      7317,
      7496,
      7677
    ],
    "swim:geom": "takeoff",
    "swim:timestamps": [
      1769904985,
      1769905008,
      1769905042,
      1769905072,
      1769905087,
      1769905099,
      1769905111,
      1769905138,
      1769905156,
      1769905183,
      1769905216,
      1769905249,
      1769905288,
      1769905308,
      1769905343,
      1769905367,
      1769905399,
      1769905419,
      1769905467,
      1769905480,
      1769905525,
      1769905549,
      1769905570,
      1769905604,
      1769905634,
      1769905652,
      1769905676,
      1769905700
    ],
    "wof:geomhash": "a6b139205289025521a64eb19b53b162",
    "wof:id": 2014686065,
    "wof:repo": "sfomuseum-data-flights-2026-01"
  },
  "bbox": [
    -122.38753,
    37.62769,
    -121.45431,
    38.50274
  ],
  "geometry": {"coordinates":[[-122.36667,37.62769],[-122.35316,37.64372],[-122.32759,37.66419],[-122.306,37.6868],[-122.30276,37.70265],[-122.30665,37.71618],[-122.31507,37.7292],[-122.33727,37.75868],[-122.35158,37.77907],[-122.37059,37.81289],[-122.38753,37.85625],[-122.38476,37.90674],[-122.34608,37.96424],[-122.30982,37.98714],[-122.24022,38.02831],[-122.1925,38.05683],[-122.12965,38.09495],[-122.08659,38.12117],[-121.98502,38.183],[-121.95845,38.19914],[-121.85967,38.25893],[-121.80608,38.2912],[-121.75847,38.31982],[-121.68042,38.36661],[-121.61083,38.40826],[-121.56859,38.4335],[-121.51152,38.46768],[-121.45431,38.50274]],"type":"LineString"}
}
