{
  "id": 2014682725,
  "type": "Feature",
  "properties": {
    "geom:area": 0,
    "geom:bbox": "-122.317960,37.491440,-121.260060,37.599980",
    "geom:latitude": 37.54398659217996,
    "geom:longitude": -121.79336808041762,
    "src:alt_label": "swim-approach",
    "src:geom": "swim",
    "swim:elevations": [
      4997,
      4912,
      4680,
      4319,
      4100,
      3667,
      3456,
      3353,
      3204,
      3154,
      3047,
      2967,
      2718,
      2593,
      2262,
      2124,
      2038,
      1959,
      1885,
      1721,
      1593,
      1465,
      1151,
      1000,
      944,
      783,
      602,
      448,
      321,
      213
    ],
    "swim:geom": "approach",
    "swim:timestamps": [
      1769929766,
      1769929775,
      1769929794,
      1769929827,
      1769929849,
      1769929888,
      1769929917,
      1769929932,
      1769929962,
      1769929977,
      1769930004,
      1769930016,
      1769930055,
      1769930073,
      1769930116,
      1769930149,
      1769930169,
      1769930186,
      1769930210,
      1769930237,
      1769930263,
      1769930282,
      1769930336,
      1769930367,
      1769930379,
      1769930410,
      1769930450,
      1769930485,
      1769930515,
      1769930540
    ],
    "wof:geomhash": "7ab4b62a26c51c9ece8f3f5941087a35",
    "wof:id": 2014682725,
    "wof:repo": "sfomuseum-data-flights-2026-01"
  },
  "bbox": [
    -122.31796,
    37.49144,
    -121.26006,
    37.59998
  ],
  "geometry": {"coordinates":[[-121.26006,37.59315],[-121.27847,37.59068],[-121.31583,37.5866],[-121.37982,37.57938],[-121.42068,37.57474],[-121.49638,37.56571],[-121.54783,37.55989],[-121.57299,37.55696],[-121.62127,37.55115],[-121.64352,37.54621],[-121.68187,37.53715],[-121.69843,37.53323],[-121.75207,37.52038],[-121.77659,37.51453],[-121.83575,37.50044],[-121.88292,37.49144],[-121.91095,37.49182],[-121.93581,37.49246],[-121.97032,37.49342],[-122.00765,37.50106],[-122.0413,37.51186],[-122.06443,37.51939],[-122.12699,37.53971],[-122.15982,37.55042],[-122.17223,37.55444],[-122.20443,37.56489],[-122.24219,37.57698],[-122.27355,37.5866],[-122.2981,37.594],[-122.31796,37.59998]],"type":"LineString"}
}
