{
  "id": 2014682295,
  "type": "Feature",
  "properties": {
    "geom:area": 0,
    "geom:bbox": "-122.348180,36.718680,-121.876200,37.607510",
    "geom:latitude": 37.202006323314464,
    "geom:longitude": -122.06608063611249,
    "src:alt_label": "swim-approach",
    "src:geom": "swim",
    "swim:elevations": [
      4731,
      4526,
      4247,
      4121,
      4016,
      3758,
      3411,
      3292,
      3194,
      3102,
      2817,
      2594,
      2436,
      2438,
      2438,
      2215,
      2053,
      1896,
      1794,
      1609,
      1521,
      1170,
      770,
      570,
      464,
      366,
      354,
      163,
      81
    ],
    "swim:geom": "approach",
    "swim:timestamps": [
      1769877988,
      1769878009,
      1769878041,
      1769878055,
      1769878065,
      1769878096,
      1769878135,
      1769878157,
      1769878184,
      1769878201,
      1769878241,
      1769878268,
      1769878301,
      1769878331,
      1769878366,
      1769878406,
      1769878428,
      1769878456,
      1769878479,
      1769878516,
      1769878535,
      1769878571,
      1769878613,
      1769878645,
      1769878665,
      1769878690,
      1769878696,
      1769878735,
      1769878753
    ],
    "wof:geomhash": "9e29104d0748b21932ebb21a8857c0be",
    "wof:id": 2014682295,
    "wof:repo": "sfomuseum-data-flights-2026-01"
  },
  "bbox": [
    -122.34818,
    36.71868,
    -121.8762,
    37.60751
  ],
  "geometry": {"coordinates":[[-121.8762,36.71868],[-121.89693,36.75187],[-121.91203,36.80466],[-121.91835,36.82757],[-121.92297,36.84426],[-121.93714,36.89477],[-121.95505,36.9564],[-121.96784,36.98929],[-121.98292,37.02811],[-121.99207,37.05169],[-122.01314,37.10566],[-122.02727,37.14185],[-122.04441,37.18579],[-122.05975,37.22476],[-122.07698,37.26863],[-122.09731,37.32056],[-122.10838,37.34923],[-122.12231,37.38511],[-122.13188,37.4137],[-122.14736,37.45658],[-122.15748,37.47842],[-122.18187,37.51474],[-122.21637,37.55129],[-122.252,37.56697],[-122.2741,37.57635],[-122.29861,37.58641],[-122.30425,37.58876],[-122.33532,37.60211],[-122.34818,37.60751]],"type":"LineString"}
}
