{
  "id": 2014685641,
  "type": "Feature",
  "properties": {
    "geom:area": 0,
    "geom:bbox": "-122.464810,36.731700,-121.313230,37.708250",
    "geom:latitude": 37.20680908283927,
    "geom:longitude": -121.98952256646017,
    "src:alt_label": "swim-takeoff",
    "src:geom": "swim",
    "swim:elevations": [
      407,
      524,
      706,
      1034,
      1378,
      1850,
      2351,
      3072,
      3242,
      3613,
      4116,
      4546,
      4916,
      5486,
      5609,
      6254,
      6451,
      6794,
      7193,
      7573,
      7769,
      8157,
      8348,
      8529,
      8800,
      8965,
      9229,
      9506,
      9882,
      10089,
      10268
    ],
    "swim:geom": "takeoff",
    "swim:timestamps": [
      1769864302,
      1769864322,
      1769864352,
      1769864381,
      1769864422,
      1769864455,
      1769864483,
      1769864517,
      1769864525,
      1769864562,
      1769864600,
      1769864629,
      1769864651,
      1769864692,
      1769864700,
      1769864750,
      1769864766,
      1769864801,
      1769864833,
      1769864866,
      1769864886,
      1769864928,
      1769864949,
      1769864977,
      1769865016,
      1769865034,
      1769865061,
      1769865095,
      1769865144,
      1769865171,
      1769865198
    ],
    "wof:geomhash": "ed880e5436aaecbe2f316287129ecc03",
    "wof:id": 2014685641,
    "wof:repo": "sfomuseum-data-flights-2026-01"
  },
  "bbox": [
    -122.46481,
    36.7317,
    -121.31323,
    37.70825
  ],
  "geometry": {"coordinates":[[-122.36256,37.64486],[-122.36279,37.66142],[-122.3641,37.69056],[-122.39466,37.70825],[-122.43306,37.67721],[-122.44073,37.63794],[-122.44856,37.60372],[-122.45842,37.56005],[-122.4607,37.55016],[-122.46481,37.502],[-122.42041,37.45511],[-122.37348,37.42476],[-122.33771,37.40162],[-122.26895,37.35748],[-122.2551,37.34853],[-122.1708,37.29416],[-122.14128,37.275],[-122.07993,37.23508],[-122.02064,37.19662],[-121.9604,37.15751],[-121.92349,37.13327],[-121.84443,37.08157],[-121.80509,37.05605],[-121.75108,37.02062],[-121.67567,36.97071],[-121.63875,36.94665],[-121.58496,36.91094],[-121.51956,36.86778],[-121.42115,36.80266],[-121.36772,36.76733],[-121.31323,36.7317]],"type":"LineString"}
}
