{
  "id": 2014686271,
  "type": "Feature",
  "properties": {
    "geom:area": 0,
    "geom:bbox": "-122.527350,37.626310,-122.116650,38.511070",
    "geom:latitude": 38.02883461317646,
    "geom:longitude": -122.31543654328522,
    "src:alt_label": "swim-takeoff",
    "src:geom": "swim",
    "swim:elevations": [
      91,
      458,
      615,
      955,
      1088,
      1371,
      1843,
      2044,
      2406,
      2759,
      2983,
      3250,
      3488,
      3637,
      3665,
      3813,
      4163,
      4444,
      4707,
      4973,
      5104,
      5434,
      5606
    ],
    "swim:geom": "takeoff",
    "swim:timestamps": [
      1769867574,
      1769867601,
      1769867615,
      1769867647,
      1769867671,
      1769867721,
      1769867756,
      1769867773,
      1769867804,
      1769867833,
      1769867856,
      1769867891,
      1769867938,
      1769867969,
      1769867972,
      1769868004,
      1769868048,
      1769868079,
      1769868108,
      1769868136,
      1769868150,
      1769868196,
      1769868214
    ],
    "wof:geomhash": "f7e590d8f1e8c0830b2499af633773eb",
    "wof:id": 2014686271,
    "wof:repo": "sfomuseum-data-flights-2026-01"
  },
  "bbox": [
    -122.52735,
    37.62631,
    -122.11665,
    38.51107
  ],
  "geometry": {"coordinates":[[-122.3935,37.62631],[-122.42028,37.6373],[-122.4339,37.64343],[-122.46647,37.65768],[-122.49235,37.66879],[-122.52656,37.71804],[-122.52735,37.7643],[-122.5262,37.78761],[-122.49327,37.81819],[-122.44903,37.83336],[-122.42074,37.85669],[-122.39165,37.90381],[-122.34705,37.97427],[-122.31532,38.02336],[-122.31147,38.02934],[-122.2753,38.08523],[-122.22252,38.16613],[-122.1841,38.22557],[-122.14873,38.28039],[-122.12177,38.33813],[-122.11665,38.36914],[-122.1223,38.47155],[-122.12491,38.51107]],"type":"LineString"}
}
