{
  "id": 2014686061,
  "type": "Feature",
  "properties": {
    "geom:area": 0,
    "geom:bbox": "-122.439610,37.294510,-121.244290,37.694030",
    "geom:latitude": 37.488915793185186,
    "geom:longitude": -121.91205869910905,
    "src:alt_label": "swim-takeoff",
    "src:geom": "swim",
    "swim:elevations": [
      152,
      564,
      1095,
      1223,
      1847,
      2167,
      2564,
      2882,
      3391,
      3601,
      3868,
      4276,
      4834,
      4882,
      5321,
      5357,
      5739,
      5791,
      5924,
      6348,
      6774,
      6862,
      7296,
      7579,
      7886,
      8529
    ],
    "swim:geom": "takeoff",
    "swim:timestamps": [
      1769902398,
      1769902427,
      1769902462,
      1769902474,
      1769902528,
      1769902540,
      1769902558,
      1769902573,
      1769902617,
      1769902647,
      1769902668,
      1769902698,
      1769902737,
      1769902740,
      1769902767,
      1769902770,
      1769902803,
      1769902830,
      1769902871,
      1769902906,
      1769902945,
      1769902954,
      1769902995,
      1769903022,
      1769903049,
      1769903098
    ],
    "wof:geomhash": "7ff169ab4dfd6ed24c1290d5b51d96c9",
    "wof:id": 2014686061,
    "wof:repo": "sfomuseum-data-flights-2026-01"
  },
  "bbox": [
    -122.43961,
    37.29451,
    -121.24429,
    37.69403
  ],
  "geometry": {"coordinates":[[-122.36725,37.63178],[-122.36256,37.65317],[-122.36209,37.68151],[-122.36497,37.69194],[-122.42786,37.69403],[-122.43564,37.68111],[-122.43961,37.65993],[-122.43398,37.64254],[-122.37612,37.60738],[-122.31632,37.59222],[-122.27148,37.58076],[-122.20737,37.5633],[-122.11806,37.53726],[-122.11123,37.53522],[-122.04951,37.51792],[-122.04259,37.51612],[-121.96538,37.49632],[-121.90191,37.4796],[-121.80665,37.45333],[-121.72526,37.43048],[-121.631,37.40395],[-121.60887,37.39772],[-121.50557,37.36855],[-121.43722,37.3492],[-121.36881,37.32967],[-121.24429,37.29451]],"type":"LineString"}
}
