{
  "id": 2014682401,
  "type": "Feature",
  "properties": {
    "geom:area": 0,
    "geom:bbox": "-122.359110,37.491910,-121.246730,37.614160",
    "geom:latitude": 37.546977622093614,
    "geom:longitude": -121.80789038324336,
    "src:alt_label": "swim-approach",
    "src:geom": "swim",
    "swim:elevations": [
      4432,
      4012,
      3931,
      3646,
      3491,
      3427,
      3143,
      3107,
      2997,
      2833,
      2638,
      2438,
      2419,
      2151,
      1918,
      1828,
      1770,
      1698,
      1567,
      1169,
      905,
      672,
      581,
      456,
      332,
      298,
      139,
      0
    ],
    "swim:geom": "approach",
    "swim:timestamps": [
      1769852015,
      1769852067,
      1769852075,
      1769852111,
      1769852133,
      1769852140,
      1769852187,
      1769852205,
      1769852233,
      1769852264,
      1769852284,
      1769852329,
      1769852347,
      1769852386,
      1769852419,
      1769852449,
      1769852471,
      1769852480,
      1769852498,
      1769852544,
      1769852565,
      1769852608,
      1769852624,
      1769852656,
      1769852692,
      1769852704,
      1769852745,
      1769852773
    ],
    "wof:geomhash": "1406bf815c6a5dfac978f6066069dff9",
    "wof:id": 2014682401,
    "wof:repo": "sfomuseum-data-flights-2026-01"
  },
  "bbox": [
    -122.35911,
    37.49191,
    -121.24673,
    37.61416
  ],
  "geometry": {"coordinates":[[-121.24673,37.59489],[-121.3461,37.58312],[-121.36064,37.5815],[-121.42754,37.57381],[-121.46741,37.56919],[-121.48066,37.56772],[-121.56662,37.55764],[-121.59687,37.55412],[-121.64089,37.5469],[-121.68845,37.53562],[-121.71968,37.52821],[-121.79019,37.51125],[-121.8189,37.50436],[-121.8804,37.49191],[-121.93393,37.49243],[-121.98366,37.49514],[-122.01741,37.50418],[-122.0303,37.50838],[-122.05826,37.51738],[-122.12405,37.5389],[-122.15291,37.54826],[-122.20664,37.5656],[-122.22647,37.57199],[-122.26148,37.58322],[-122.29452,37.59205],[-122.3049,37.59465],[-122.33774,37.6053],[-122.35911,37.61416]],"type":"LineString"}
}
