{
  "id": 2014682527,
  "type": "Feature",
  "properties": {
    "geom:area": 0,
    "geom:bbox": "-122.358860,37.509370,-121.245440,37.614020",
    "geom:latitude": 37.55128699859223,
    "geom:longitude": -121.80606524488486,
    "src:alt_label": "swim-approach",
    "src:geom": "swim",
    "swim:elevations": [
      4665,
      4390,
      4155,
      4046,
      3887,
      3584,
      3350,
      3200,
      3072,
      2910,
      2754,
      2689,
      2578,
      2476,
      2410,
      2208,
      2099,
      1929,
      1852,
      1662,
      1443,
      1166,
      1072,
      883,
      727,
      642,
      546,
      486,
      394,
      184,
      83,
      170
    ],
    "swim:geom": "approach",
    "swim:timestamps": [
      1769897631,
      1769897664,
      1769897688,
      1769897700,
      1769897718,
      1769897752,
      1769897779,
      1769897797,
      1769897830,
      1769897868,
      1769897892,
      1769897907,
      1769897937,
      1769897967,
      1769897988,
      1769898018,
      1769898036,
      1769898060,
      1769898078,
      1769898102,
      1769898129,
      1769898176,
      1769898192,
      1769898228,
      1769898264,
      1769898291,
      1769898312,
      1769898330,
      1769898363,
      1769898414,
      1769898446,
      1769898463
    ],
    "wof:geomhash": "04d0774761e8bb07734af1ff3208f1b0",
    "wof:id": 2014682527,
    "wof:repo": "sfomuseum-data-flights-2026-01"
  },
  "bbox": [
    -122.35886,
    37.50937,
    -121.24544,
    37.61402
  ],
  "geometry": {"coordinates":[[-121.24544,37.59505],[-121.3068,37.58738],[-121.35138,37.58249],[-121.37358,37.58],[-121.40669,37.57627],[-121.46855,37.56915],[-121.51737,37.56341],[-121.54979,37.55957],[-121.60695,37.55279],[-121.66921,37.5403],[-121.70743,37.53113],[-121.73109,37.52542],[-121.77603,37.51468],[-121.81987,37.50937],[-121.84958,37.51088],[-121.89064,37.51313],[-121.91467,37.51464],[-121.94581,37.51662],[-121.96876,37.51813],[-121.99901,37.52006],[-122.03312,37.52231],[-122.09397,37.52922],[-122.11334,37.53525],[-122.15517,37.54894],[-122.19284,37.56118],[-122.21893,37.56959],[-122.23904,37.57605],[-122.25634,37.58163],[-122.28468,37.59],[-122.32478,37.60156],[-122.34797,37.60975],[-122.35886,37.61402]],"type":"LineString"}
}
