{
  "id": 2014682719,
  "type": "Feature",
  "properties": {
    "date:inception_lower": "2026-01-31",
    "date:inception_upper": "2026-01-31",
    "edtf:cessation": "",
    "edtf:inception": "2026-01-31",
    "flysfo:actual_timestamp": -1,
    "flysfo:airline": "UA",
    "flysfo:date": "2026-01-31",
    "flysfo:estimated_timestamp": 1769889600,
    "flysfo:event": "A",
    "flysfo:flight_number": "UA6099",
    "flysfo:gate": "E3",
    "flysfo:journey": "PSP-SFO",
    "flysfo:scheduled_timestamp": 1769887800,
    "flysfo:timestamp": 1769889600,
    "geom:area": 0,
    "geom:bbox": "-122.370943,33.824619,-116.506042,37.617990",
    "geom:latitude": 35.7213045,
    "geom:longitude": -119.4384925,
    "iata:airline": "UA",
    "icao:airline": "UAL",
    "lbl:latitude": 37.618578,
    "lbl:longitude": -122.385434,
    "sfomuseum:airline_id": 1159285413,
    "sfomuseum:arrival_id": 102527513,
    "sfomuseum:departure_id": 102533591,
    "sfomuseum:flight_id": "20260131-A-UAL-6099",
    "sfomuseum:flight_number": [
      "UAL6099",
      "UA6099"
    ],
    "sfomuseum:placetype": "flight",
    "src:geom": "flysfo",
    "wof:belongsto": [
      1947304067,
      102527513,
      1947304451,
      102191575,
      85633793,
      102087579,
      85922583,
      554784711,
      85688637,
      1947304495,
      1947304447,
      102085387
    ],
    "wof:country": "US",
    "wof:created": 1769962098,
    "wof:geomhash": "a35a6e87f0ae0f1f716f88067ee31aa3",
    "wof:hierarchy": [
      {
        "building_id": 1947304067,
        "campus_id": 102527513,
        "concourse_id": 1947304451,
        "continent_id": 102191575,
        "country_id": 85633793,
        "county_id": 102087579,
        "custom_id": 2014682719,
        "flight_id": 2014682719,
        "locality_id": 85922583,
        "postalcode_id": 554784711,
        "region_id": 85688637,
        "venue_id": 1947304495,
        "wing_id": 1947304447
      },
      {
        "building_id": 1947304067,
        "campus_id": 102527513,
        "concourse_id": 1947304451,
        "continent_id": 102191575,
        "country_id": 85633793,
        "county_id": 102085387,
        "custom_id": 2014682719,
        "flight_id": 2014682719,
        "region_id": 85688637,
        "venue_id": 1947304495,
        "wing_id": 1947304447
      }
    ],
    "wof:id": 2014682719,
    "wof:involves": [
      102527513,
      102533591,
      1159285413,
      1947304495
    ],
    "wof:lastmodified": 1769962098,
    "wof:name": "UA6099 (PSP-SFO)",
    "wof:parent_id": 1947304495,
    "wof:placetype": "custom",
    "wof:placetype_alt": [
      "flight"
    ],
    "wof:repo": "sfomuseum-data-flights-2026-01",
    "wof:superseded_by": [],
    "wof:supersedes": []
  },
  "bbox": [
    -122.370943,
    33.824619,
    -116.506042,
    37.61799
  ],
  "geometry": {"coordinates":[[-116.506042,33.824619],[-122.370943,37.61799]],"type":"MultiPoint"}
}
