{
  "id": 2014682081,
  "type": "Feature",
  "properties": {
    "geom:area": 0,
    "geom:bbox": "-122.336200,36.731020,-121.884430,37.602410",
    "geom:latitude": 37.20732966330965,
    "geom:longitude": -122.06541058314504,
    "src:alt_label": "swim-approach",
    "src:geom": "swim",
    "swim:elevations": [
      5397,
      5148,
      4833,
      4541,
      4227,
      4008,
      3726,
      3574,
      3170,
      3099,
      3049,
      2778,
      2636,
      2441,
      2206,
      2055,
      1856,
      1791,
      1491,
      1242,
      1005,
      963,
      777,
      618,
      364,
      346,
      240,
      125
    ],
    "swim:geom": "approach",
    "swim:timestamps": [
      1769865137,
      1769865151,
      1769865182,
      1769865211,
      1769865242,
      1769865265,
      1769865294,
      1769865310,
      1769865358,
      1769865381,
      1769865405,
      1769865447,
      1769865466,
      1769865498,
      1769865528,
      1769865552,
      1769865592,
      1769865600,
      1769865647,
      1769865677,
      1769865717,
      1769865729,
      1769865752,
      1769865784,
      1769865837,
      1769865843,
      1769865873,
      1769865906
    ],
    "wof:geomhash": "fd124fb05a2e59275c6de9bbbdbd09f0",
    "wof:id": 2014682081,
    "wof:repo": "sfomuseum-data-flights-2026-01"
  },
  "bbox": [
    -122.3362,
    36.73102,
    -121.88443,
    37.60241
  ],
  "geometry": {"coordinates":[[-121.88443,36.73102],[-121.89704,36.75585],[-121.9129,36.81013],[-121.92682,36.85944],[-121.94162,36.91178],[-121.95221,36.94901],[-121.96987,36.99434],[-121.97934,37.01861],[-122.00819,37.09273],[-122.02079,37.12507],[-122.03353,37.15765],[-122.05479,37.2117],[-122.06408,37.23596],[-122.07972,37.27595],[-122.09372,37.31246],[-122.10506,37.34117],[-122.12321,37.38642],[-122.12646,37.39592],[-122.14348,37.44694],[-122.15462,37.4803],[-122.16973,37.52317],[-122.17688,37.53506],[-122.20269,37.54704],[-122.23789,37.5613],[-122.28582,37.58114],[-122.29099,37.58325],[-122.31302,37.59266],[-122.3362,37.60241]],"type":"LineString"}
}
