{
  "id": 2014685941,
  "type": "Feature",
  "properties": {
    "geom:area": 0,
    "geom:bbox": "-122.387220,37.631440,-121.456320,38.518640",
    "geom:latitude": 38.117999811559216,
    "geom:longitude": -122.0201887370954,
    "src:alt_label": "swim-takeoff",
    "src:geom": "swim",
    "swim:elevations": [
      213,
      680,
      1111,
      1266,
      1636,
      2225,
      2417,
      2746,
      3159,
      3331,
      3949,
      4393,
      4932,
      5135,
      5223,
      5553,
      6046,
      6262,
      6831,
      7415,
      7499,
      7622,
      7620,
      7620,
      7620,
      7620,
      7620,
      7620,
      7620,
      7620,
      7620,
      7620
    ],
    "swim:geom": "takeoff",
    "swim:timestamps": [
      1769900452,
      1769900482,
      1769900516,
      1769900530,
      1769900562,
      1769900603,
      1769900615,
      1769900636,
      1769900663,
      1769900676,
      1769900722,
      1769900753,
      1769900787,
      1769900802,
      1769900808,
      1769900838,
      1769900876,
      1769900888,
      1769900924,
      1769900966,
      1769900972,
      1769900992,
      1769901001,
      1769901022,
      1769901035,
      1769901061,
      1769901118,
      1769901148,
      1769901167,
      1769901185,
      1769901206,
      1769901212
    ],
    "wof:geomhash": "0e77f9188b4a7e398d44f6f20c7840a9",
    "wof:id": 2014685941,
    "wof:repo": "sfomuseum-data-flights-2026-01"
  },
  "bbox": [
    -122.38722,
    37.63144,
    -121.45632,
    38.51864
  ],
  "geometry": {"coordinates":[[-122.36414,37.63144],[-122.34497,37.65035],[-122.32048,37.6716],[-122.31296,37.68391],[-122.32144,37.71784],[-122.3476,37.7653],[-122.35515,37.78051],[-122.36876,37.80789],[-122.38478,37.84564],[-122.38722,37.86479],[-122.37391,37.93899],[-122.32487,37.97705],[-122.2638,38.01439],[-122.23665,38.03143],[-122.22562,38.03821],[-122.16894,38.07214],[-122.0949,38.11645],[-122.07141,38.13067],[-122.00235,38.17255],[-121.92167,38.22148],[-121.9102,38.22845],[-121.87275,38.25116],[-121.85517,38.26173],[-121.81439,38.28632],[-121.78895,38.30164],[-121.73799,38.33219],[-121.62722,38.3986],[-121.56899,38.4334],[-121.53486,38.45693],[-121.50336,38.4818],[-121.46677,38.51046],[-121.45632,38.51864]],"type":"LineString"}
}
