{
  "id": 2014685653,
  "type": "Feature",
  "properties": {
    "geom:area": 0,
    "geom:bbox": "-122.518560,36.721970,-122.090100,37.715490",
    "geom:latitude": 37.2332664569478,
    "geom:longitude": -122.38070334166736,
    "src:alt_label": "swim-takeoff",
    "src:geom": "swim",
    "swim:elevations": [
      353,
      441,
      629,
      1158,
      1405,
      2081,
      2480,
      3380,
      3807,
      3821,
      4006,
      4434,
      4724,
      5275,
      5631,
      6073,
      6369,
      6700,
      6946,
      7451,
      7615,
      8004,
      8261,
      8581,
      8699,
      9012,
      9104
    ],
    "swim:geom": "takeoff",
    "swim:timestamps": [
      1769867004,
      1769867014,
      1769867045,
      1769867093,
      1769867106,
      1769867141,
      1769867164,
      1769867212,
      1769867248,
      1769867254,
      1769867290,
      1769867330,
      1769867352,
      1769867392,
      1769867420,
      1769867449,
      1769867472,
      1769867500,
      1769867526,
      1769867574,
      1769867591,
      1769867632,
      1769867663,
      1769867695,
      1769867709,
      1769867752,
      1769867766
    ],
    "wof:geomhash": "f940b1527b00b39c095573dbe4daac85",
    "wof:id": 2014685653,
    "wof:repo": "sfomuseum-data-flights-2026-01"
  },
  "bbox": [
    -122.51856,
    36.72197,
    -122.0901,
    37.71549
  ],
  "geometry": {"coordinates":[[-122.36588,37.63953],[-122.3656,37.64714],[-122.36357,37.67402],[-122.38945,37.71408],[-122.40658,37.71549],[-122.44242,37.69577],[-122.44755,37.6727],[-122.45512,37.62274],[-122.46108,37.58295],[-122.46213,37.57612],[-122.46971,37.52535],[-122.47969,37.46011],[-122.48708,37.42227],[-122.50047,37.35265],[-122.50978,37.30225],[-122.51856,37.25072],[-122.50923,37.20949],[-122.47291,37.16367],[-122.43708,37.12284],[-122.36929,37.04509],[-122.34527,37.01744],[-122.2862,36.94839],[-122.24122,36.89669],[-122.19465,36.84262],[-122.17474,36.81976],[-122.11066,36.74572],[-122.0901,36.72197]],"type":"LineString"}
}
