{
  "id": 2014682521,
  "type": "Feature",
  "properties": {
    "geom:area": 0,
    "geom:bbox": "-123.506990,37.259300,-122.148120,37.609860",
    "geom:latitude": 37.35472134271574,
    "geom:longitude": -122.72113874010068,
    "src:alt_label": "swim-approach",
    "src:geom": "swim",
    "swim:elevations": [
      5147,
      4844,
      4549,
      4460,
      4216,
      3920,
      3879,
      3659,
      3576,
      3249,
      3222,
      3136,
      3052,
      3048,
      3048,
      3048,
      3021,
      2840,
      2809,
      2558,
      2402,
      2223,
      2061,
      2035,
      1830,
      1759,
      1611,
      1601,
      1497,
      1137,
      847,
      743,
      594,
      414,
      282,
      187,
      112,
      27
    ],
    "swim:geom": "approach",
    "swim:timestamps": [
      1769889886,
      1769889919,
      1769889949,
      1769889961,
      1769889986,
      1769890016,
      1769890022,
      1769890043,
      1769890052,
      1769890103,
      1769890112,
      1769890143,
      1769890174,
      1769890222,
      1769890232,
      1769890258,
      1769890285,
      1769890315,
      1769890324,
      1769890372,
      1769890402,
      1769890436,
      1769890466,
      1769890474,
      1769890528,
      1769890553,
      1769890588,
      1769890594,
      1769890627,
      1769890675,
      1769890708,
      1769890717,
      1769890761,
      1769890795,
      1769890828,
      1769890853,
      1769890872,
      1769890890
    ],
    "wof:geomhash": "516e4125b3774ed6942875c9dfcb2c42",
    "wof:id": 2014682521,
    "wof:repo": "sfomuseum-data-flights-2026-01"
  },
  "bbox": [
    -123.50699,
    37.2593,
    -122.14812,
    37.60986
  ],
  "geometry": {"coordinates":[[-123.50699,37.30572],[-123.42959,37.30014],[-123.35943,37.29503],[-123.33181,37.29291],[-123.2743,37.28864],[-123.2063,37.28374],[-123.1929,37.28275],[-123.14628,37.27923],[-123.12644,37.27766],[-123.01765,37.26965],[-122.99902,37.26821],[-122.93506,37.2633],[-122.874,37.2593],[-122.77634,37.27801],[-122.75704,37.28244],[-122.70541,37.29451],[-122.65605,37.30606],[-122.60389,37.31829],[-122.58891,37.32167],[-122.51031,37.33971],[-122.46205,37.35081],[-122.40809,37.36323],[-122.35857,37.37477],[-122.34559,37.37786],[-122.25927,37.39764],[-122.22577,37.41213],[-122.18312,37.43694],[-122.17597,37.44114],[-122.14812,37.46986],[-122.15568,37.51913],[-122.18913,37.53999],[-122.19899,37.54479],[-122.24332,37.56329],[-122.27609,37.57718],[-122.30386,37.58879],[-122.32366,37.59712],[-122.33902,37.60363],[-122.35396,37.60986]],"type":"LineString"}
}
