{
  "id": 2014685229,
  "type": "Feature",
  "properties": {
    "geom:area": 0,
    "geom:bbox": "-122.386470,37.630000,-121.446270,38.507770",
    "geom:latitude": 38.116231492109485,
    "geom:longitude": -122.01999499509955,
    "src:alt_label": "swim-takeoff",
    "src:geom": "swim",
    "swim:elevations": [
      183,
      626,
      869,
      987,
      1466,
      1672,
      2071,
      2566,
      2895,
      3042,
      3138,
      3256,
      3391,
      3534,
      3691,
      3780,
      4185,
      4378,
      4560,
      4948,
      5096,
      5353,
      5485,
      5860,
      5964,
      6220,
      6284,
      6366,
      6424
    ],
    "swim:geom": "takeoff",
    "swim:timestamps": [
      1769899506,
      1769899548,
      1769899587,
      1769899605,
      1769899643,
      1769899658,
      1769899688,
      1769899733,
      1769899766,
      1769899781,
      1769899793,
      1769899814,
      1769899838,
      1769899856,
      1769899876,
      1769899899,
      1769899947,
      1769899974,
      1769899995,
      1769900037,
      1769900055,
      1769900092,
      1769900114,
      1769900158,
      1769900176,
      1769900216,
      1769900227,
      1769900239,
      1769900250
    ],
    "wof:geomhash": "5ff2ff179bd6ea41b6a77d82046a3644",
    "wof:id": 2014685229,
    "wof:repo": "sfomuseum-data-flights-2026-01"
  },
  "bbox": [
    -122.38647,
    37.63,
    -121.44627,
    38.50777
  ],
  "geometry": {"coordinates":[[-122.365,37.63],[-122.33491,37.65734],[-122.30849,37.6907],[-122.31346,37.71106],[-122.33698,37.75436],[-122.3469,37.77117],[-122.36616,37.80662],[-122.38647,37.86504],[-122.38312,37.91291],[-122.37869,37.93512],[-122.36743,37.95079],[-122.33599,37.9714],[-122.29593,37.99416],[-122.2647,38.01226],[-122.2286,38.03389],[-122.18668,38.05876],[-122.09496,38.11456],[-122.04043,38.14863],[-121.99767,38.1751],[-121.91119,38.2276],[-121.87361,38.25032],[-121.79629,38.29672],[-121.74762,38.32593],[-121.65175,38.38344],[-121.61206,38.40731],[-121.5222,38.46119],[-121.49878,38.47544],[-121.47172,38.49206],[-121.44627,38.50777]],"type":"LineString"}
}
