{
  "id": 2014685905,
  "type": "Feature",
  "properties": {
    "geom:area": 0,
    "geom:bbox": "-122.431190,36.732720,-121.282570,37.704480",
    "geom:latitude": 37.223977507621086,
    "geom:longitude": -121.9378336778339,
    "src:alt_label": "swim-takeoff",
    "src:geom": "swim",
    "swim:elevations": [
      122,
      732,
      941,
      988,
      1082,
      1609,
      2039,
      2852,
      3082,
      3333,
      3398,
      4086,
      4666,
      5097,
      5472,
      5799,
      6040,
      6428,
      6973,
      7221,
      7334,
      7515,
      7798,
      8054,
      8491,
      8719,
      8773,
      9007,
      9293,
      9653,
      9842,
      9992
    ],
    "swim:geom": "takeoff",
    "swim:timestamps": [
      1769879824,
      1769879869,
      1769879889,
      1769879911,
      1769879923,
      1769879957,
      1769879980,
      1769880025,
      1769880049,
      1769880088,
      1769880093,
      1769880142,
      1769880178,
      1769880202,
      1769880228,
      1769880252,
      1769880270,
      1769880304,
      1769880358,
      1769880387,
      1769880398,
      1769880417,
      1769880447,
      1769880468,
      1769880501,
      1769880534,
      1769880544,
      1769880578,
      1769880616,
      1769880656,
      1769880679,
      1769880694
    ],
    "wof:geomhash": "a8e1fb199e6378c70aea3f8e9c14bbcb",
    "wof:id": 2014685905,
    "wof:repo": "sfomuseum-data-flights-2026-01"
  },
  "bbox": [
    -122.43119,
    36.73272,
    -121.28257,
    37.70448
  ],
  "geometry": {"coordinates":[[-122.36858,37.62942],[-122.36296,37.66267],[-122.36166,37.67832],[-122.36803,37.69721],[-122.38222,37.70448],[-122.42609,37.69036],[-122.43119,37.66335],[-122.42319,37.60988],[-122.41837,37.5786],[-122.38557,37.52494],[-122.37743,37.51854],[-122.29604,37.46114],[-122.23409,37.41813],[-122.19224,37.38868],[-122.1476,37.357],[-122.10775,37.32864],[-122.0757,37.30569],[-122.01608,37.26301],[-121.91861,37.19332],[-121.86596,37.15553],[-121.84417,37.13989],[-121.80801,37.11392],[-121.75096,37.07318],[-121.7112,37.0439],[-121.65057,36.99998],[-121.58861,36.95534],[-121.57054,36.94207],[-121.506,36.89526],[-121.43224,36.84162],[-121.35382,36.78525],[-121.31089,36.75367],[-121.28257,36.73272]],"type":"LineString"}
}
