{
  "id": 2014686041,
  "type": "Feature",
  "properties": {
    "geom:area": 0,
    "geom:bbox": "-122.352390,37.643150,-121.248090,38.424160",
    "geom:latitude": 38.058585043429524,
    "geom:longitude": -121.88121279235595,
    "src:alt_label": "swim-takeoff",
    "src:geom": "swim",
    "swim:elevations": [
      422,
      716,
      991,
      1191,
      1400,
      1697,
      2063,
      2271,
      2517,
      3050,
      3246,
      3376,
      3585,
      3611,
      4014,
      4151,
      4454,
      4591,
      4970,
      5160,
      5407,
      5601,
      5844,
      6172,
      6391,
      6565,
      6770,
      6925
    ],
    "swim:geom": "takeoff",
    "swim:timestamps": [
      1769895108,
      1769895133,
      1769895156,
      1769895177,
      1769895204,
      1769895234,
      1769895264,
      1769895283,
      1769895307,
      1769895348,
      1769895366,
      1769895390,
      1769895418,
      1769895422,
      1769895473,
      1769895490,
      1769895532,
      1769895551,
      1769895597,
      1769895619,
      1769895652,
      1769895673,
      1769895703,
      1769895748,
      1769895778,
      1769895804,
      1769895838,
      1769895860
    ],
    "wof:geomhash": "10bad0ba804e9d4748f8e7d21abda48c",
    "wof:id": 2014686041,
    "wof:repo": "sfomuseum-data-flights-2026-01"
  },
  "bbox": [
    -122.35239,
    37.64315,
    -121.24809,
    38.42416
  ],
  "geometry": {"coordinates":[[-122.35239,37.64315],[-122.32875,37.65566],[-122.30576,37.66792],[-122.28705,37.68236],[-122.28191,37.7099],[-122.30381,37.73958],[-122.32933,37.76968],[-122.345,37.78984],[-122.3489,37.82219],[-122.2995,37.86022],[-122.27223,37.87221],[-122.23398,37.89034],[-122.1873,37.91565],[-122.18048,37.91947],[-122.08672,37.97022],[-122.05449,37.98737],[-121.97107,38.03144],[-121.93204,38.05193],[-121.83533,38.10272],[-121.78729,38.12809],[-121.71497,38.16616],[-121.66882,38.19046],[-121.60227,38.22525],[-121.50083,38.27824],[-121.43195,38.31417],[-121.37296,38.34668],[-121.29705,38.39384],[-121.24809,38.42416]],"type":"LineString"}
}
