{
  "id": 2014680223,
  "type": "Feature",
  "properties": {
    "geom:area": 0,
    "geom:bbox": "-123.446550,37.537600,-122.094270,38.488120",
    "geom:latitude": 37.930412993794974,
    "geom:longitude": -122.69585984964056,
    "src:alt_label": "swim-approach",
    "src:geom": "swim",
    "swim:elevations": [
      7550,
      7445,
      7306,
      7144,
      6921,
      6599,
      6460,
      6341,
      6119,
      5767,
      5724,
      5425,
      5369,
      5073,
      4876,
      4804,
      4629,
      4514,
      4401,
      4304,
      4267,
      4203,
      3902,
      3720,
      3685,
      3595,
      3386,
      3353,
      3350,
      3236,
      2920,
      2516,
      2325,
      2261,
      1907,
      1829,
      1819,
      1746,
      1675,
      1503,
      1372,
      1332,
      1153,
      892,
      800,
      792,
      792,
      792,
      770,
      552,
      419,
      306,
      206,
      0
    ],
    "swim:geom": "approach",
    "swim:timestamps": [
      1769848793,
      1769848816,
      1769848831,
      1769848851,
      1769848878,
      1769848916,
      1769848935,
      1769848952,
      1769848980,
      1769849020,
      1769849027,
      1769849063,
      1769849083,
      1769849123,
      1769849154,
      1769849162,
      1769849189,
      1769849203,
      1769849215,
      1769849233,
      1769849261,
      1769849295,
      1769849336,
      1769849368,
      1769849376,
      1769849388,
      1769849423,
      1769849441,
      1769849480,
      1769849495,
      1769849521,
      1769849556,
      1769849576,
      1769849582,
      1769849631,
      1769849663,
      1769849680,
      1769849690,
      1769849704,
      1769849728,
      1769849756,
      1769849760,
      1769849792,
      1769849838,
      1769849856,
      1769849871,
      1769849893,
      1769849937,
      1769849946,
      1769849990,
      1769850024,
      1769850050,
      1769850071,
      1769850114
    ],
    "wof:geomhash": "2a583966ffc19adb7fea4bea0a6cd5cb",
    "wof:id": 2014680223,
    "wof:repo": "sfomuseum-data-flights-2026-01"
  },
  "bbox": [
    -123.44655,
    37.5376,
    -122.09427,
    38.48812
  ],
  "geometry": {"coordinates":[[-123.44655,38.48812],[-123.40735,38.45923],[-123.38171,38.43979],[-123.3493,38.41481],[-123.30215,38.3799],[-123.23934,38.33171],[-123.20764,38.3076],[-123.18102,38.28743],[-123.1348,38.25234],[-123.06971,38.203],[-123.05816,38.19418],[-122.99953,38.14956],[-122.96883,38.12611],[-122.90436,38.07689],[-122.85559,38.03955],[-122.84396,38.03069],[-122.80301,37.99931],[-122.78177,37.983],[-122.76247,37.96813],[-122.73573,37.9475],[-122.69487,37.91601],[-122.64744,37.87523],[-122.59716,37.8277],[-122.56165,37.79419],[-122.5535,37.78654],[-122.54125,37.77496],[-122.50886,37.74413],[-122.49253,37.72865],[-122.44461,37.70556],[-122.4214,37.70065],[-122.38468,37.69249],[-122.33695,37.68121],[-122.31103,37.67465],[-122.3032,37.67269],[-122.2421,37.65325],[-122.20439,37.64104],[-122.18663,37.63521],[-122.17601,37.63171],[-122.16137,37.62689],[-122.13701,37.61882],[-122.10872,37.60935],[-122.10434,37.60722],[-122.09427,37.58246],[-122.10603,37.54381],[-122.12451,37.5376],[-122.14161,37.53817],[-122.16609,37.54002],[-122.20815,37.55078],[-122.21637,37.55439],[-122.25648,37.57121],[-122.28576,37.58357],[-122.30604,37.59205],[-122.32221,37.59884],[-122.35725,37.61361]],"type":"LineString"}
}
