{
  "id": 2014682417,
  "type": "Feature",
  "properties": {
    "geom:area": 0,
    "geom:bbox": "-122.362330,37.491700,-121.646500,37.615860",
    "geom:latitude": 37.533955802899975,
    "geom:longitude": -122.00683554062529,
    "src:alt_label": "swim-approach",
    "src:geom": "swim",
    "swim:elevations": [
      3024,
      2799,
      2599,
      2451,
      2375,
      2265,
      2042,
      1860,
      1828,
      1664,
      1569,
      1515,
      1195,
      1134,
      879,
      762,
      546,
      517,
      335,
      234,
      47,
      0
    ],
    "swim:geom": "approach",
    "swim:timestamps": [
      1769879620,
      1769879654,
      1769879678,
      1769879726,
      1769879753,
      1769879777,
      1769879813,
      1769879848,
      1769879874,
      1769879898,
      1769879911,
      1769879926,
      1769879968,
      1769879976,
      1769880017,
      1769880045,
      1769880088,
      1769880093,
      1769880129,
      1769880154,
      1769880199,
      1769880213
    ],
    "wof:geomhash": "427c6a8f55af4db06c3d0daec4ff785b",
    "wof:id": 2014682417,
    "wof:repo": "sfomuseum-data-flights-2026-01"
  },
  "bbox": [
    -122.36233,
    37.4917,
    -121.6465,
    37.61586
  ],
  "geometry": {"coordinates":[[-121.6465,37.54554],[-121.69933,37.533],[-121.73627,37.52417],[-121.80948,37.50663],[-121.84614,37.49779],[-121.87879,37.4917],[-121.92656,37.49234],[-121.97405,37.4936],[-122.00609,37.50059],[-122.03547,37.51003],[-122.05091,37.51507],[-122.07077,37.5215],[-122.12276,37.53842],[-122.13247,37.54162],[-122.18119,37.55711],[-122.21202,37.56651],[-122.25447,37.58101],[-122.2598,37.58266],[-122.29385,37.5925],[-122.31555,37.59934],[-122.35237,37.61149],[-122.36233,37.61586]],"type":"LineString"}
}
