{
  "id": 2014680719,
  "type": "Feature",
  "properties": {
    "geom:area": 0,
    "geom:bbox": "-122.834250,37.563220,-122.131100,38.452310",
    "geom:latitude": 37.874668249232755,
    "geom:longitude": -122.51486131101355,
    "src:alt_label": "swim-approach",
    "src:geom": "swim",
    "swim:elevations": [
      7955,
      7763,
      7585,
      7289,
      6891,
      6567,
      6379,
      6128,
      5855,
      5506,
      5079,
      4936,
      4603,
      4223,
      3971,
      3688,
      3416,
      3383,
      3357,
      3296,
      3160,
      2887,
      2576,
      2428,
      2248,
      2026,
      1642,
      1562,
      1272,
      1081,
      702,
      552,
      488,
      333,
      236,
      75,
      0
    ],
    "swim:geom": "approach",
    "swim:timestamps": [
      1769866106,
      1769866125,
      1769866144,
      1769866173,
      1769866213,
      1769866249,
      1769866268,
      1769866294,
      1769866323,
      1769866362,
      1769866402,
      1769866416,
      1769866448,
      1769866487,
      1769866513,
      1769866541,
      1769866577,
      1769866590,
      1769866625,
      1769866666,
      1769866685,
      1769866726,
      1769866764,
      1769866781,
      1769866804,
      1769866836,
      1769866885,
      1769866893,
      1769866930,
      1769866951,
      1769867004,
      1769867035,
      1769867049,
      1769867083,
      1769867106,
      1769867146,
      1769867168
    ],
    "wof:geomhash": "ff71aadeceb487c39bb07ff00acd9f11",
    "wof:id": 2014680719,
    "wof:repo": "sfomuseum-data-flights-2026-01"
  },
  "bbox": [
    -122.83425,
    37.56322,
    -122.1311,
    38.45231
  ],
  "geometry": {"coordinates":[[-122.83425,38.45231],[-122.8252,38.42189],[-122.81649,38.39163],[-122.80303,38.34625],[-122.78515,38.28442],[-122.76908,38.23009],[-122.76067,38.20075],[-122.74891,38.16061],[-122.73597,38.11595],[-122.71884,38.05743],[-122.70122,37.99619],[-122.69516,37.97531],[-122.68124,37.9275],[-122.64659,37.87433],[-122.61502,37.84424],[-122.57983,37.81124],[-122.53682,37.77078],[-122.5218,37.75652],[-122.4814,37.7193],[-122.42236,37.69952],[-122.39626,37.69231],[-122.34125,37.67647],[-122.29106,37.66125],[-122.26914,37.65439],[-122.24069,37.64533],[-122.20191,37.63274],[-122.14258,37.61338],[-122.13439,37.60878],[-122.1311,37.5754],[-122.15328,37.56322],[-122.21933,37.57365],[-122.25319,37.58057],[-122.26628,37.58437],[-122.29562,37.59313],[-122.31457,37.59878],[-122.34557,37.60867],[-122.36319,37.61603]],"type":"LineString"}
}
