{
  "id": 2014682453,
  "type": "Feature",
  "properties": {
    "geom:area": 0,
    "geom:bbox": "-122.357300,37.491660,-121.247790,37.613710",
    "geom:latitude": 37.5468878683927,
    "geom:longitude": -121.80746014599508,
    "src:alt_label": "swim-approach",
    "src:geom": "swim",
    "swim:elevations": [
      4961,
      4626,
      4344,
      4154,
      3748,
      3533,
      3275,
      3134,
      2956,
      2830,
      2558,
      2346,
      2315,
      2072,
      1946,
      1772,
      1585,
      1487,
      1216,
      1012,
      807,
      671,
      583,
      374,
      246,
      218,
      89,
      0
    ],
    "swim:geom": "approach",
    "swim:timestamps": [
      1769898833,
      1769898863,
      1769898890,
      1769898908,
      1769898948,
      1769898969,
      1769898993,
      1769899036,
      1769899069,
      1769899087,
      1769899132,
      1769899168,
      1769899177,
      1769899219,
      1769899249,
      1769899287,
      1769899314,
      1769899330,
      1769899372,
      1769899406,
      1769899439,
      1769899464,
      1769899482,
      1769899524,
      1769899557,
      1769899565,
      1769899602,
      1769899620
    ],
    "wof:geomhash": "d967bca44cda0c4411582b60d8b37144",
    "wof:id": 2014682453,
    "wof:repo": "sfomuseum-data-flights-2026-01"
  },
  "bbox": [
    -122.3573,
    37.49166,
    -121.24779,
    37.61371
  ],
  "geometry": {"coordinates":[[-121.24779,37.59472],[-121.30562,37.5875],[-121.35712,37.58194],[-121.391,37.57821],[-121.46438,37.5697],[-121.50296,37.56517],[-121.54763,37.56],[-121.62624,37.55024],[-121.67828,37.53804],[-121.70592,37.53146],[-121.77471,37.5149],[-121.82724,37.50219],[-121.84032,37.49896],[-121.90261,37.49166],[-121.94722,37.49302],[-122.00091,37.49871],[-122.03762,37.51061],[-122.06026,37.51797],[-122.11671,37.53658],[-122.15896,37.55039],[-122.19826,37.56278],[-122.22665,37.57098],[-122.24591,37.57763],[-122.28609,37.5901],[-122.31207,37.59791],[-122.31787,37.5997],[-122.34491,37.60853],[-122.3573,37.61371]],"type":"LineString"}
}
