{
  "id": 2014682759,
  "type": "Feature",
  "properties": {
    "geom:area": 0,
    "geom:bbox": "-122.758930,37.562980,-122.109340,38.447750",
    "geom:latitude": 37.893827867750325,
    "geom:longitude": -122.4892873628232,
    "src:alt_label": "swim-approach",
    "src:geom": "swim",
    "swim:elevations": [
      8169,
      8018,
      7995,
      7784,
      7637,
      7348,
      6988,
      6927,
      6338,
      6070,
      5929,
      5723,
      5415,
      5005,
      4925,
      4493,
      4256,
      4082,
      4025,
      3704,
      3384,
      3365,
      3122,
      3047,
      2638,
      2318,
      1941,
      1645,
      1545,
      1282,
      1022,
      923,
      901,
      694,
      664,
      641,
      433,
      339,
      226,
      90,
      7
    ],
    "swim:geom": "approach",
    "swim:timestamps": [
      1769878682,
      1769878705,
      1769878714,
      1769878756,
      1769878781,
      1769878821,
      1769878855,
      1769878860,
      1769878913,
      1769878937,
      1769878950,
      1769878968,
      1769878997,
      1769879034,
      1769879041,
      1769879085,
      1769879123,
      1769879158,
      1769879170,
      1769879206,
      1769879248,
      1769879253,
      1769879302,
      1769879310,
      1769879352,
      1769879384,
      1769879417,
      1769879448,
      1769879461,
      1769879508,
      1769879548,
      1769879564,
      1769879597,
      1769879636,
      1769879663,
      1769879674,
      1769879726,
      1769879753,
      1769879777,
      1769879808,
      1769879824
    ],
    "wof:geomhash": "aeb8c4653ce64d5df73dfcb1444139f0",
    "wof:id": 2014682759,
    "wof:repo": "sfomuseum-data-flights-2026-01"
  },
  "bbox": [
    -122.75893,
    37.56298,
    -122.10934,
    38.44775
  ],
  "geometry": {"coordinates":[[-122.53408,38.44775],[-122.56617,38.41748],[-122.57757,38.40626],[-122.63583,38.35089],[-122.66795,38.32015],[-122.72116,38.26896],[-122.75713,38.22375],[-122.75893,38.21622],[-122.74124,38.1334],[-122.73034,38.09654],[-122.72455,38.07674],[-122.71662,38.04955],[-122.70398,38.00596],[-122.68818,37.95131],[-122.685,37.94059],[-122.65172,37.87935],[-122.60654,37.8364],[-122.56728,37.79961],[-122.55613,37.78914],[-122.52148,37.756],[-122.4808,37.72226],[-122.47392,37.71998],[-122.40582,37.70069],[-122.3955,37.69777],[-122.34002,37.68183],[-122.29955,37.66972],[-122.2586,37.6574],[-122.22066,37.64565],[-122.20343,37.64045],[-122.14736,37.62285],[-122.11035,37.59836],[-122.10934,37.58226],[-122.13721,37.56298],[-122.1823,37.56729],[-122.21274,37.57312],[-122.22384,37.57511],[-122.27398,37.58674],[-122.29786,37.59373],[-122.31821,37.59983],[-122.34324,37.60801],[-122.35571,37.6129]],"type":"LineString"}
}
