{
  "id": 2014684291,
  "type": "Feature",
  "properties": {
    "geom:area": 0,
    "geom:bbox": "-122.457120,36.724530,-121.315010,37.715660",
    "geom:latitude": 37.20315396430845,
    "geom:longitude": -122.00209341843923,
    "src:alt_label": "swim-takeoff",
    "src:geom": "swim",
    "swim:elevations": [
      456,
      536,
      629,
      777,
      1296,
      1548,
      2025,
      2522,
      2892,
      2945,
      3113,
      3219,
      3355,
      3708,
      4097,
      4494,
      4801,
      5126,
      5414,
      5467,
      5824,
      6076,
      6247,
      6415,
      6798,
      7047,
      7220,
      7446,
      7606,
      7771,
      7933,
      8073,
      8278,
      8414,
      8590,
      8670,
      8759
    ],
    "swim:geom": "takeoff",
    "swim:timestamps": [
      1769849666,
      1769849690,
      1769849704,
      1769849725,
      1769849756,
      1769849775,
      1769849807,
      1769849843,
      1769849868,
      1769849871,
      1769849883,
      1769849893,
      1769849918,
      1769849949,
      1769849981,
      1769850018,
      1769850047,
      1769850083,
      1769850111,
      1769850121,
      1769850156,
      1769850182,
      1769850201,
      1769850220,
      1769850260,
      1769850287,
      1769850311,
      1769850350,
      1769850373,
      1769850407,
      1769850432,
      1769850458,
      1769850497,
      1769850522,
      1769850557,
      1769850572,
      1769850594
    ],
    "wof:geomhash": "e94693454a5203e5097b844832310272",
    "wof:id": 2014684291,
    "wof:repo": "sfomuseum-data-flights-2026-01"
  },
  "bbox": [
    -122.45712,
    36.72453,
    -121.31501,
    37.71566
  ],
  "geometry": {"coordinates":[[-122.36348,37.65009],[-122.3627,37.67288],[-122.36276,37.68849],[-122.37792,37.71021],[-122.4245,37.71566],[-122.44855,37.70236],[-122.45712,37.66315],[-122.45082,37.61852],[-122.44559,37.58558],[-122.4449,37.58171],[-122.44201,37.56597],[-122.43947,37.55274],[-122.43276,37.51934],[-122.42358,37.47367],[-122.41194,37.4249],[-122.3617,37.38182],[-122.31473,37.3531],[-122.25472,37.31567],[-122.20584,37.28514],[-122.18908,37.27479],[-122.1299,37.238],[-122.08504,37.21006],[-122.05109,37.18887],[-122.018,37.16807],[-121.94725,37.12368],[-121.90006,37.0941],[-121.85784,37.0675],[-121.78674,37.0229],[-121.74438,36.99623],[-121.68108,36.95618],[-121.63331,36.92612],[-121.58407,36.89533],[-121.50673,36.84706],[-121.45969,36.81667],[-121.39046,36.77264],[-121.35964,36.75292],[-121.31501,36.72453]],"type":"LineString"}
}
