{
  "id": 2014683785,
  "type": "Feature",
  "properties": {
    "date:inception_lower": "2026-01-31",
    "date:inception_upper": "2026-01-31",
    "edtf:cessation": "",
    "edtf:inception": "2026-01-31",
    "flysfo:actual_timestamp": -1,
    "flysfo:airline": "NH",
    "flysfo:base_airline": "",
    "flysfo:base_flight_number": "7324",
    "flysfo:date": "2026-01-31",
    "flysfo:estimated_timestamp": 1769895360,
    "flysfo:event": "D",
    "flysfo:flight_number": "NH7346",
    "flysfo:gate": "E4",
    "flysfo:journey": "SFO-IAH",
    "flysfo:scheduled_timestamp": 1769895600,
    "flysfo:timestamp": 1769895600,
    "geom:area": 0,
    "geom:bbox": "-122.370943,29.977186,-95.338444,37.617990",
    "geom:latitude": 33.797588,
    "geom:longitude": -108.8546935,
    "iata:airline": "NH",
    "iata:base_airline": "",
    "icao:airline": "ANA",
    "icao:base_airline": "CCA",
    "lbl:latitude": 37.618161,
    "lbl:longitude": -122.384735,
    "sfomuseum:airline_id": 1159283875,
    "sfomuseum:arrival_id": 102534097,
    "sfomuseum:base_flight_id": "20260131-D-CCA-7324",
    "sfomuseum:departure_id": 102527513,
    "sfomuseum:flight_id": "20260131-D-ANA-7346",
    "sfomuseum:flight_number": [
      "ANA7346",
      "NH7346"
    ],
    "sfomuseum:placetype": "flight",
    "src:geom": "flysfo",
    "wof:belongsto": [
      1763588121,
      102527513,
      1763588335,
      102191575,
      85633793,
      102087579,
      85922583,
      554784711,
      85688637,
      1763588337,
      1763588269,
      102085387
    ],
    "wof:country": "US",
    "wof:created": 1769962221,
    "wof:geomhash": "4d8eca8dfd12d13a56951180b27dbf13",
    "wof:hierarchy": [
      {
        "building_id": 1763588121,
        "campus_id": 102527513,
        "concourse_id": 1763588335,
        "continent_id": 102191575,
        "country_id": 85633793,
        "county_id": 102087579,
        "custom_id": 2014683785,
        "flight_id": 2014683785,
        "locality_id": 85922583,
        "postalcode_id": 554784711,
        "region_id": 85688637,
        "venue_id": 1763588337,
        "wing_id": 1763588269
      },
      {
        "building_id": 1763588121,
        "campus_id": 102527513,
        "concourse_id": 1763588335,
        "continent_id": 102191575,
        "country_id": 85633793,
        "county_id": 102085387,
        "custom_id": 2014683785,
        "flight_id": 2014683785,
        "region_id": 85688637,
        "venue_id": 1763588337,
        "wing_id": 1763588269
      }
    ],
    "wof:id": 2014683785,
    "wof:involves": [
      102534097,
      102527513,
      1159283875,
      1763588337,
      1159283605
    ],
    "wof:lastmodified": 1769962221,
    "wof:name": "NH7346 (SFO-IAH)",
    "wof:parent_id": 1763588337,
    "wof:placetype": "custom",
    "wof:placetype_alt": [
      "flight"
    ],
    "wof:repo": "sfomuseum-data-flights-2026-01",
    "wof:superseded_by": [],
    "wof:supersedes": []
  },
  "bbox": [
    -122.370943,
    29.977186,
    -95.338444,
    37.61799
  ],
  "geometry": {"coordinates":[[-122.370943,37.61799],[-95.338444,29.977186]],"type":"MultiPoint"}
}
