{
  "id": 2014680697,
  "type": "Feature",
  "properties": {
    "geom:area": 0,
    "geom:bbox": "-122.360180,37.491070,-121.298160,37.614460",
    "geom:latitude": 37.54487733995908,
    "geom:longitude": -121.83390979116959,
    "src:alt_label": "swim-approach",
    "src:geom": "swim",
    "swim:elevations": [
      4593,
      4301,
      4067,
      3914,
      3570,
      3259,
      3184,
      3079,
      2921,
      2632,
      2528,
      2279,
      2099,
      1976,
      1857,
      1789,
      1529,
      1395,
      1210,
      1036,
      863,
      697,
      646,
      478,
      311,
      199,
      113,
      0
    ],
    "swim:geom": "approach",
    "swim:timestamps": [
      1769897937,
      1769897967,
      1769897991,
      1769898006,
      1769898039,
      1769898072,
      1769898096,
      1769898127,
      1769898158,
      1769898198,
      1769898216,
      1769898264,
      1769898294,
      1769898324,
      1769898351,
      1769898372,
      1769898418,
      1769898441,
      1769898475,
      1769898505,
      1769898536,
      1769898567,
      1769898577,
      1769898617,
      1769898655,
      1769898686,
      1769898707,
      1769898734
    ],
    "wof:geomhash": "3f3377cb501006aa72deebbbd803938b",
    "wof:id": 2014680697,
    "wof:repo": "sfomuseum-data-flights-2026-01"
  },
  "bbox": [
    -122.36018,
    37.49107,
    -121.29816,
    37.61446
  ],
  "geometry": {"coordinates":[[-121.29816,37.58834],[-121.35373,37.5824],[-121.39845,37.57736],[-121.42632,37.57414],[-121.48721,37.56701],[-121.54783,37.55997],[-121.59057,37.55487],[-121.64168,37.54678],[-121.6884,37.53562],[-121.74895,37.521],[-121.77615,37.51455],[-121.84556,37.49781],[-121.88906,37.49107],[-121.93198,37.49227],[-121.96796,37.49299],[-121.99423,37.49661],[-122.04857,37.51451],[-122.07584,37.5233],[-122.11644,37.5364],[-122.15222,37.54805],[-122.18803,37.55947],[-122.22086,37.571],[-122.2302,37.57385],[-122.26809,37.58509],[-122.30052,37.59456],[-122.32418,37.60164],[-122.34009,37.60647],[-122.36018,37.61446]],"type":"LineString"}
}
