{
  "id": 2014685385,
  "type": "Feature",
  "properties": {
    "geom:area": 0,
    "geom:bbox": "-123.337810,37.626830,-122.394000,38.516930",
    "geom:latitude": 38.029998053292196,
    "geom:longitude": -122.89949256842672,
    "src:alt_label": "swim-takeoff",
    "src:geom": "swim",
    "swim:elevations": [
      122,
      485,
      668,
      1054,
      1173,
      1340,
      1580,
      2167,
      2522,
      2768,
      3031,
      3317,
      3719,
      4174,
      4294,
      4540,
      4666,
      4854,
      5286,
      5466,
      5632,
      5815,
      6046,
      6268,
      6575,
      6640,
      6869,
      6960
    ],
    "swim:geom": "takeoff",
    "swim:timestamps": [
      1769899228,
      1769899249,
      1769899266,
      1769899314,
      1769899333,
      1769899354,
      1769899384,
      1769899436,
      1769899464,
      1769899485,
      1769899518,
      1769899548,
      1769899581,
      1769899617,
      1769899626,
      1769899651,
      1769899664,
      1769899682,
      1769899727,
      1769899754,
      1769899772,
      1769899790,
      1769899817,
      1769899841,
      1769899879,
      1769899891,
      1769899938,
      1769899950
    ],
    "wof:geomhash": "7c45a5bbb1ea193a4b33774700f81105",
    "wof:id": 2014685385,
    "wof:repo": "sfomuseum-data-flights-2026-01"
  },
  "bbox": [
    -123.33781,
    37.62683,
    -122.394,
    38.51693
  ],
  "geometry": {"coordinates":[[-122.394,37.62683],[-122.41508,37.63577],[-122.43139,37.64319],[-122.48223,37.66544],[-122.50535,37.67613],[-122.53044,37.69081],[-122.56918,37.7135],[-122.64224,37.75675],[-122.68355,37.78094],[-122.71524,37.79941],[-122.76451,37.83383],[-122.80046,37.87594],[-122.84027,37.92414],[-122.88395,37.97738],[-122.89449,37.99003],[-122.92554,38.02704],[-122.94216,38.04698],[-122.96526,38.07456],[-123.0239,38.14477],[-123.06016,38.18802],[-123.08459,38.21714],[-123.10914,38.24648],[-123.14648,38.29082],[-123.18003,38.33065],[-123.23477,38.39499],[-123.25235,38.4155],[-123.31907,38.49572],[-123.33781,38.51693]],"type":"LineString"}
}
