{
  "id": 2014681179,
  "type": "Feature",
  "properties": {
    "geom:area": 0,
    "geom:bbox": "-122.348370,37.492110,-121.284180,37.609790",
    "geom:latitude": 37.54476423597988,
    "geom:longitude": -121.8207869110649,
    "src:alt_label": "swim-approach",
    "src:geom": "swim",
    "swim:elevations": [
      4649,
      4419,
      4268,
      3853,
      3623,
      3416,
      3322,
      3167,
      2901,
      2651,
      2576,
      2357,
      2212,
      2028,
      1968,
      1829,
      1679,
      1612,
      1477,
      1027,
      814,
      708,
      550,
      518,
      340,
      295,
      138,
      60
    ],
    "swim:geom": "approach",
    "swim:timestamps": [
      1769858728,
      1769858754,
      1769858770,
      1769858813,
      1769858841,
      1769858872,
      1769858893,
      1769858927,
      1769858964,
      1769858998,
      1769859022,
      1769859056,
      1769859076,
      1769859106,
      1769859120,
      1769859150,
      1769859172,
      1769859185,
      1769859212,
      1769859266,
      1769859292,
      1769859312,
      1769859337,
      1769859373,
      1769859417,
      1769859432,
      1769859473,
      1769859491
    ],
    "wof:geomhash": "aa2d3edede296ed060d7d573c6ad6ff6",
    "wof:id": 2014681179,
    "wof:repo": "sfomuseum-data-flights-2026-01"
  },
  "bbox": [
    -122.34837,
    37.49211,
    -121.28418,
    37.60979
  ],
  "geometry": {"coordinates":[[-121.28418,37.59007],[-121.3334,37.5845],[-121.36476,37.58107],[-121.44656,37.57177],[-121.49653,37.56582],[-121.55399,37.55924],[-121.58964,37.55507],[-121.64351,37.54642],[-121.69989,37.53284],[-121.75181,37.52058],[-121.78677,37.51224],[-121.83437,37.50026],[-121.86225,37.49381],[-121.90835,37.49211],[-121.92867,37.49271],[-121.97376,37.49368],[-122.00641,37.50103],[-122.02406,37.50682],[-122.06008,37.51837],[-122.1289,37.54063],[-122.16104,37.55087],[-122.18596,37.55913],[-122.21516,37.56837],[-122.25212,37.58036],[-122.28916,37.59135],[-122.30109,37.59487],[-122.33461,37.60478],[-122.34837,37.60979]],"type":"LineString"}
}
