{
  "id": 2014686037,
  "type": "Feature",
  "properties": {
    "geom:area": 0,
    "geom:bbox": "-122.541250,36.728960,-121.305770,37.667170",
    "geom:latitude": 37.220007857493556,
    "geom:longitude": -121.99079489407298,
    "src:alt_label": "swim-takeoff",
    "src:geom": "swim",
    "swim:elevations": [
      122,
      441,
      660,
      851,
      1010,
      1259,
      1508,
      1829,
      2187,
      2518,
      2991,
      3265,
      3561,
      3758,
      4131,
      4264,
      4679,
      4746,
      5045,
      5397,
      5464,
      5947,
      6074,
      6257,
      6460,
      6857,
      7082,
      7172,
      7423,
      7602,
      7928,
      7959,
      8224,
      8311,
      8332
    ],
    "swim:geom": "takeoff",
    "swim:timestamps": [
      1769905587,
      1769905613,
      1769905634,
      1769905655,
      1769905670,
      1769905706,
      1769905733,
      1769905766,
      1769905797,
      1769905825,
      1769905858,
      1769905885,
      1769905918,
      1769905939,
      1769905975,
      1769905990,
      1769906038,
      1769906047,
      1769906077,
      1769906116,
      1769906131,
      1769906185,
      1769906199,
      1769906226,
      1769906250,
      1769906299,
      1769906330,
      1769906343,
      1769906379,
      1769906409,
      1769906454,
      1769906463,
      1769906514,
      1769906547,
      1769906554
    ],
    "wof:geomhash": "2a26e310866466bdb67f32ca40bb7e48",
    "wof:id": 2014686037,
    "wof:repo": "sfomuseum-data-flights-2026-01"
  },
  "bbox": [
    -122.54125,
    36.72896,
    -121.30577,
    37.66717
  ],
  "geometry": {"coordinates":[[-122.39233,37.62575],[-122.41642,37.63573],[-122.43568,37.64427],[-122.4563,37.65341],[-122.47141,37.66001],[-122.51367,37.66717],[-122.54125,37.64889],[-122.53722,37.61221],[-122.50261,37.58464],[-122.46863,37.55912],[-122.42989,37.52855],[-122.39822,37.50339],[-122.35644,37.47059],[-122.32867,37.44886],[-122.27995,37.41051],[-122.25918,37.3941],[-122.18939,37.3401],[-122.17513,37.3303],[-122.12624,37.2976],[-122.06285,37.25425],[-122.0384,37.23743],[-121.94884,37.17569],[-121.9252,37.15938],[-121.88095,37.12889],[-121.83987,37.10053],[-121.75574,37.04227],[-121.7023,37.00521],[-121.6798,36.98954],[-121.61731,36.94594],[-121.56489,36.90961],[-121.48545,36.85444],[-121.46937,36.84352],[-121.37825,36.77997],[-121.31863,36.73805],[-121.30577,36.72896]],"type":"LineString"}
}
