{
  "id": 2014684781,
  "type": "Feature",
  "properties": {
    "geom:area": 0,
    "geom:bbox": "-122.368080,37.625720,-121.256930,38.395210",
    "geom:latitude": 38.0286917957055,
    "geom:longitude": -121.82597378224487,
    "src:alt_label": "swim-takeoff",
    "src:geom": "swim",
    "swim:elevations": [
      122,
      571,
      654,
      1031,
      1213,
      1716,
      2242,
      2815,
      3171,
      3514,
      3906,
      4203,
      4368,
      4689,
      5012,
      5365,
      5446,
      6052,
      6212,
      6406,
      6810,
      7077,
      7306,
      7369,
      7604,
      7819
    ],
    "swim:geom": "takeoff",
    "swim:timestamps": [
      1769866161,
      1769866197,
      1769866208,
      1769866249,
      1769866264,
      1769866294,
      1769866326,
      1769866362,
      1769866388,
      1769866425,
      1769866461,
      1769866487,
      1769866501,
      1769866525,
      1769866548,
      1769866577,
      1769866590,
      1769866648,
      1769866666,
      1769866689,
      1769866735,
      1769866764,
      1769866791,
      1769866800,
      1769866836,
      1769866869
    ],
    "wof:geomhash": "193bbe23ff16234ad0b3db38cd80d034",
    "wof:id": 2014684781,
    "wof:repo": "sfomuseum-data-flights-2026-01"
  },
  "bbox": [
    -122.36808,
    37.62572,
    -121.25693,
    38.39521
  ],
  "geometry": {"coordinates":[[-122.36808,37.62572],[-122.34679,37.64401],[-122.3376,37.64946],[-122.29551,37.67349],[-122.27688,37.68418],[-122.23774,37.70554],[-122.19993,37.73406],[-122.16499,37.77321],[-122.13714,37.80287],[-122.0956,37.84797],[-122.04621,37.89383],[-122.00164,37.92441],[-121.9781,37.94022],[-121.93563,37.96887],[-121.89537,37.99651],[-121.84556,38.03037],[-121.8223,38.04612],[-121.71519,38.11836],[-121.68023,38.14188],[-121.63636,38.17133],[-121.54549,38.23219],[-121.48783,38.27071],[-121.43364,38.30684],[-121.4166,38.31724],[-121.33544,38.35762],[-121.25693,38.39521]],"type":"LineString"}
}
