{
  "id": 2014686373,
  "type": "Feature",
  "properties": {
    "geom:area": 0,
    "geom:bbox": "-123.317470,37.628220,-122.398540,38.493360",
    "geom:latitude": 38.01986166653459,
    "geom:longitude": -122.89092742934004,
    "src:alt_label": "swim-takeoff",
    "src:geom": "swim",
    "swim:elevations": [
      234,
      319,
      821,
      932,
      1073,
      1280,
      1482,
      1758,
      2100,
      2216,
      2635,
      2802,
      2932,
      3433,
      3776,
      3909,
      4392,
      4528,
      4939,
      5053,
      5396,
      5587,
      5899,
      6167,
      6370,
      6492
    ],
    "swim:geom": "takeoff",
    "swim:timestamps": [
      1769903364,
      1769903370,
      1769903423,
      1769903447,
      1769903465,
      1769903496,
      1769903523,
      1769903547,
      1769903571,
      1769903580,
      1769903637,
      1769903658,
      1769903673,
      1769903722,
      1769903749,
      1769903761,
      1769903812,
      1769903827,
      1769903871,
      1769903883,
      1769903924,
      1769903952,
      1769903988,
      1769904021,
      1769904048,
      1769904064
    ],
    "wof:geomhash": "d9bfafac0419cd682641ebeed538bceb",
    "wof:id": 2014686373,
    "wof:repo": "sfomuseum-data-flights-2026-01"
  },
  "bbox": [
    -123.31747,
    37.62822,
    -122.39854,
    38.49336
  ],
  "geometry": {"coordinates":[[-122.39854,37.62822],[-122.40426,37.63048],[-122.45571,37.65407],[-122.48238,37.66546],[-122.50415,37.67492],[-122.54044,37.6965],[-122.57588,37.71778],[-122.60883,37.73723],[-122.64232,37.75709],[-122.6548,37.76451],[-122.73908,37.81399],[-122.7692,37.83802],[-122.78742,37.85898],[-122.84628,37.93216],[-122.8801,37.97275],[-122.89515,37.99086],[-122.96084,38.0689],[-122.98085,38.09247],[-123.03942,38.16299],[-123.05555,38.18269],[-123.11325,38.25191],[-123.15319,38.29922],[-123.20531,38.36065],[-123.25393,38.41757],[-123.2935,38.46483],[-123.31747,38.49336]],"type":"LineString"}
}
