{
  "id": 2014683213,
  "type": "Feature",
  "properties": {
    "geom:area": 0,
    "geom:bbox": "-122.386010,37.633940,-121.244720,38.425390",
    "geom:latitude": 38.089548123968484,
    "geom:longitude": -121.92155466822283,
    "src:alt_label": "swim-takeoff",
    "src:geom": "swim",
    "swim:elevations": [
      280,
      583,
      621,
      1366,
      1905,
      2178,
      2620,
      3226,
      3338,
      3817,
      3998,
      4619,
      5008,
      5253,
      5361,
      5434,
      5605,
      5812,
      5973,
      6305,
      6534,
      6898,
      7067,
      7399,
      7676,
      7821,
      8082,
      8232
    ],
    "swim:geom": "takeoff",
    "swim:timestamps": [
      1769925854,
      1769925890,
      1769925900,
      1769925953,
      1769925983,
      1769926001,
      1769926026,
      1769926075,
      1769926099,
      1769926135,
      1769926147,
      1769926195,
      1769926228,
      1769926248,
      1769926256,
      1769926265,
      1769926291,
      1769926318,
      1769926333,
      1769926368,
      1769926393,
      1769926437,
      1769926456,
      1769926495,
      1769926528,
      1769926544,
      1769926582,
      1769926604
    ],
    "wof:geomhash": "5b825ef0cdd6b74c50a5321fbb3bd5a7",
    "wof:id": 2014683213,
    "wof:repo": "sfomuseum-data-flights-2026-01"
  },
  "bbox": [
    -122.38601,
    37.63394,
    -121.24472,
    38.42539
  ],
  "geometry": {"coordinates":[[-122.36262,37.63394],[-122.33605,37.65713],[-122.32658,37.66438],[-122.32252,37.72043],[-122.34136,37.7548],[-122.35124,37.77594],[-122.36488,37.80559],[-122.38601,37.8689],[-122.38421,37.9045],[-122.34537,37.95435],[-122.32262,37.96467],[-122.2248,38.00453],[-122.15578,38.03241],[-122.11309,38.04955],[-122.09639,38.05626],[-122.07687,38.0641],[-122.01946,38.08696],[-121.95664,38.11194],[-121.92118,38.12605],[-121.83727,38.1594],[-121.77575,38.18383],[-121.66702,38.22682],[-121.61685,38.24661],[-121.51683,38.286],[-121.42862,38.32073],[-121.38875,38.33874],[-121.29789,38.39248],[-121.24472,38.42539]],"type":"LineString"}
}
