{
  "id": 2014684719,
  "type": "Feature",
  "properties": {
    "geom:area": 0,
    "geom:bbox": "-122.386630,37.641310,-121.361780,38.516070",
    "geom:latitude": 38.140128832869856,
    "geom:longitude": -121.98213771463017,
    "src:alt_label": "swim-takeoff",
    "src:geom": "swim",
    "swim:elevations": [
      392,
      510,
      625,
      861,
      1359,
      1555,
      2300,
      2819,
      2992,
      3254,
      3554,
      3952,
      4289,
      4584,
      4765,
      5142,
      5323,
      5430,
      5990,
      6283,
      6533,
      6631,
      6899,
      6985,
      7307,
      7545,
      7650,
      7857,
      8113
    ],
    "swim:geom": "takeoff",
    "swim:timestamps": [
      1769926850,
      1769926862,
      1769926883,
      1769926914,
      1769926948,
      1769926960,
      1769927005,
      1769927038,
      1769927053,
      1769927090,
      1769927126,
      1769927151,
      1769927185,
      1769927210,
      1769927228,
      1769927261,
      1769927276,
      1769927288,
      1769927337,
      1769927365,
      1769927397,
      1769927406,
      1769927433,
      1769927445,
      1769927485,
      1769927518,
      1769927532,
      1769927563,
      1769927596
    ],
    "wof:geomhash": "78004fdb6f73fedc3e64da8a3ce7ef9e",
    "wof:id": 2014684719,
    "wof:repo": "sfomuseum-data-flights-2026-01"
  },
  "bbox": [
    -122.38663,
    37.64131,
    -121.36178,
    38.51607
  ],
  "geometry": {"coordinates":[[-122.35566,37.64131],[-122.34741,37.64826],[-122.33125,37.66145],[-122.31221,37.6904],[-122.32795,37.72976],[-122.33525,37.74345],[-122.36257,37.79578],[-122.3815,37.83449],[-122.38663,37.85407],[-122.38526,37.90716],[-122.35258,37.95962],[-122.30974,37.98564],[-122.25001,38.02312],[-122.20309,38.05199],[-122.16879,38.07266],[-122.10425,38.11133],[-122.07445,38.1292],[-122.05079,38.1437],[-121.95306,38.20395],[-121.89788,38.23757],[-121.83052,38.27847],[-121.81128,38.28991],[-121.75317,38.32404],[-121.72702,38.33929],[-121.63469,38.38563],[-121.55402,38.42444],[-121.52075,38.44045],[-121.44399,38.47666],[-121.36178,38.51607]],"type":"LineString"}
}
