{
  "id": 2014682597,
  "type": "Feature",
  "properties": {
    "geom:area": 0,
    "geom:bbox": "-121.572280,37.557330,-121.261180,37.593000",
    "geom:latitude": 37.57498809172326,
    "geom:longitude": -121.4167092874166,
    "src:alt_label": "swim-approach",
    "src:geom": "swim",
    "swim:elevations": [
      4936,
      4630,
      4314,
      3965,
      3794,
      3451,
      3292
    ],
    "swim:geom": "approach",
    "swim:timestamps": [
      1769930364,
      1769930391,
      1769930422,
      1769930456,
      1769930471,
      1769930506,
      1769930531
    ],
    "wof:geomhash": "afe07a4711b616cec579d08a17da74f5",
    "wof:id": 2014682597,
    "wof:repo": "sfomuseum-data-flights-2026-01"
  },
  "bbox": [
    -121.57228,
    37.55733,
    -121.26118,
    37.593
  ],
  "geometry": {"coordinates":[[-121.26118,37.593],[-121.31322,37.58661],[-121.374,37.57995],[-121.43618,37.57296],[-121.46493,37.56936],[-121.52863,37.56209],[-121.57228,37.55733]],"type":"LineString"}
}
