{
  "id": 2014686371,
  "type": "Feature",
  "properties": {
    "geom:area": 0,
    "geom:bbox": "-123.304820,37.626250,-122.392830,38.476460",
    "geom:latitude": 38.01062043230584,
    "geom:longitude": -122.88151518612283,
    "src:alt_label": "swim-takeoff",
    "src:geom": "swim",
    "swim:elevations": [
      152,
      325,
      778,
      863,
      1019,
      1320,
      1505,
      2122,
      2568,
      2894,
      3065,
      3144,
      3194,
      3775,
      4094,
      4455,
      4665,
      4919,
      5155,
      5477,
      5808,
      5990,
      6123,
      6529,
      6577
    ],
    "swim:geom": "takeoff",
    "swim:timestamps": [
      1769855720,
      1769855736,
      1769855784,
      1769855798,
      1769855837,
      1769855870,
      1769855884,
      1769855927,
      1769855965,
      1769855991,
      1769856027,
      1769856055,
      1769856060,
      1769856111,
      1769856135,
      1769856171,
      1769856195,
      1769856223,
      1769856248,
      1769856288,
      1769856324,
      1769856351,
      1769856371,
      1769856417,
      1769856425
    ],
    "wof:geomhash": "91649b5a0727cfab495a786dba24ab07",
    "wof:id": 2014686371,
    "wof:repo": "sfomuseum-data-flights-2026-01"
  },
  "bbox": [
    -123.30482,
    37.62625,
    -122.39283,
    38.47646
  ],
  "geometry": {"coordinates":[[-122.39283,37.62625],[-122.40757,37.63248],[-122.45495,37.65244],[-122.46821,37.65844],[-122.51386,37.68135],[-122.5546,37.70596],[-122.57334,37.71713],[-122.632,37.75148],[-122.6831,37.78171],[-122.72003,37.80323],[-122.76663,37.83979],[-122.80139,37.8765],[-122.80814,37.88406],[-122.87072,37.96047],[-122.90045,37.99742],[-122.94584,38.05379],[-122.97794,38.09115],[-123.01635,38.1359],[-123.0504,38.17626],[-123.10605,38.24257],[-123.15663,38.30278],[-123.19509,38.34849],[-123.22463,38.3831],[-123.29177,38.46146],[-123.30482,38.47646]],"type":"LineString"}
}
