{
  "id": 2014683221,
  "type": "Feature",
  "properties": {
    "geom:area": 0,
    "geom:bbox": "-122.366670,37.628140,-121.276040,37.952280",
    "geom:latitude": 37.81725986043124,
    "geom:longitude": -121.8320247517982,
    "src:alt_label": "swim-takeoff",
    "src:geom": "swim",
    "swim:elevations": [
      152,
      558,
      1043,
      1502,
      1975,
      2161,
      2789,
      3075,
      3140,
      3468,
      3640,
      4126,
      4276,
      4701,
      5034,
      5399,
      5828,
      6214,
      6333,
      6708,
      7072
    ],
    "swim:geom": "takeoff",
    "swim:timestamps": [
      1769847301,
      1769847336,
      1769847387,
      1769847416,
      1769847446,
      1769847459,
      1769847497,
      1769847519,
      1769847533,
      1769847568,
      1769847587,
      1769847625,
      1769847637,
      1769847670,
      1769847694,
      1769847722,
      1769847766,
      1769847806,
      1769847818,
      1769847852,
      1769847887
    ],
    "wof:geomhash": "3ed0718a3b970a8c2c651f907e27a605",
    "wof:id": 2014683221,
    "wof:repo": "sfomuseum-data-flights-2026-01"
  },
  "bbox": [
    -122.36667,
    37.62814,
    -121.27604,
    37.95228
  ],
  "geometry": {"coordinates":[[-122.36667,37.62814],[-122.34054,37.64841],[-122.28633,37.67872],[-122.25034,37.69889],[-122.21026,37.71974],[-122.19213,37.72904],[-122.13704,37.75395],[-122.10233,37.76195],[-122.07694,37.76769],[-122.00986,37.78356],[-121.97173,37.7927],[-121.89043,37.81163],[-121.86416,37.81757],[-121.79086,37.83434],[-121.73657,37.84681],[-121.67492,37.8611],[-121.57119,37.88512],[-121.4766,37.9067],[-121.44732,37.91333],[-121.36328,37.93248],[-121.27604,37.95228]],"type":"LineString"}
}
