{
  "id": 2014685639,
  "type": "Feature",
  "properties": {
    "geom:area": 0,
    "geom:bbox": "-122.438040,36.762420,-121.292550,37.705460",
    "geom:latitude": 37.26112202222248,
    "geom:longitude": -121.91960629691016,
    "src:alt_label": "swim-takeoff",
    "src:geom": "swim",
    "swim:elevations": [
      183,
      244,
      713,
      1002,
      1443,
      1751,
      2305,
      2555,
      3381,
      3585,
      4270,
      4913,
      5393,
      5470,
      5801,
      6546,
      6882,
      7247,
      7717,
      7868,
      8262,
      8497,
      8826,
      9023,
      9251,
      9489,
      9930,
      10228,
      10415,
      10620
    ],
    "swim:geom": "takeoff",
    "swim:timestamps": [
      1769856656,
      1769856660,
      1769856713,
      1769856731,
      1769856771,
      1769856794,
      1769856828,
      1769856840,
      1769856897,
      1769856906,
      1769856949,
      1769856984,
      1769857010,
      1769857020,
      1769857052,
      1769857108,
      1769857131,
      1769857155,
      1769857198,
      1769857212,
      1769857249,
      1769857276,
      1769857316,
      1769857341,
      1769857371,
      1769857401,
      1769857436,
      1769857468,
      1769857491,
      1769857516
    ],
    "wof:geomhash": "af70483d54ba7889393ca161f00768f8",
    "wof:id": 2014685639,
    "wof:repo": "sfomuseum-data-flights-2026-01"
  },
  "bbox": [
    -122.43804,
    36.76242,
    -121.29255,
    37.70546
  ],
  "geometry": {"coordinates":[[-122.36725,37.63139],[-122.36569,37.63397],[-122.36153,37.67949],[-122.3678,37.69782],[-122.41844,37.70546],[-122.43804,37.68422],[-122.42471,37.64664],[-122.4103,37.63599],[-122.33902,37.58061],[-122.32662,37.57099],[-122.26427,37.52338],[-122.21193,37.48301],[-122.17232,37.45246],[-122.15831,37.44167],[-122.10834,37.40308],[-122.01903,37.33398],[-121.98224,37.30542],[-121.94257,37.27439],[-121.87257,37.22002],[-121.84924,37.20194],[-121.7843,37.15102],[-121.73862,37.11512],[-121.66648,37.05883],[-121.62099,37.02206],[-121.56487,36.97784],[-121.50818,36.9333],[-121.44098,36.88035],[-121.38075,36.83247],[-121.33903,36.79938],[-121.29255,36.76242]],"type":"LineString"}
}
