{
  "id": 2014680707,
  "type": "Feature",
  "properties": {
    "geom:area": 0,
    "geom:bbox": "-122.803920,37.552700,-122.121210,38.512010",
    "geom:latitude": 37.887746184974894,
    "geom:longitude": -122.51752263029617,
    "src:alt_label": "swim-approach",
    "src:geom": "swim",
    "swim:elevations": [
      8518,
      8205,
      7930,
      7770,
      7388,
      7230,
      6781,
      6507,
      6068,
      5882,
      5705,
      5404,
      5119,
      4822,
      4481,
      4313,
      4085,
      3985,
      3843,
      3678,
      3422,
      3353,
      3321,
      2966,
      2828,
      2658,
      2361,
      2138,
      1992,
      1556,
      1266,
      1192,
      1065,
      914,
      720,
      583,
      510,
      416,
      276,
      183,
      31,
      0
    ],
    "swim:geom": "approach",
    "swim:timestamps": [
      1769848788,
      1769848816,
      1769848840,
      1769848851,
      1769848887,
      1769848901,
      1769848938,
      1769848962,
      1769848999,
      1769849015,
      1769849031,
      1769849059,
      1769849087,
      1769849111,
      1769849139,
      1769849162,
      1769849185,
      1769849195,
      1769849207,
      1769849225,
      1769849258,
      1769849305,
      1769849331,
      1769849368,
      1769849384,
      1769849405,
      1769849444,
      1769849471,
      1769849495,
      1769849535,
      1769849556,
      1769849576,
      1769849589,
      1769849617,
      1769849663,
      1769849690,
      1769849704,
      1769849725,
      1769849756,
      1769849775,
      1769849811,
      1769849821
    ],
    "wof:geomhash": "7afa75664bd573faefc44883d21f2634",
    "wof:id": 2014680707,
    "wof:repo": "sfomuseum-data-flights-2026-01"
  },
  "bbox": [
    -122.80392,
    37.5527,
    -122.12121,
    38.51201
  ],
  "geometry": {"coordinates":[[-122.80392,38.51201],[-122.7971,38.45963],[-122.79158,38.41576],[-122.78919,38.39715],[-122.78122,38.33337],[-122.77811,38.30881],[-122.76994,38.24501],[-122.76194,38.2061],[-122.74426,38.14417],[-122.73726,38.11959],[-122.72942,38.09298],[-122.71638,38.04839],[-122.70332,38.00339],[-122.692,37.96406],[-122.67799,37.91747],[-122.65667,37.88487],[-122.62699,37.85599],[-122.61312,37.84266],[-122.59782,37.82802],[-122.57517,37.80624],[-122.53402,37.76764],[-122.48003,37.71714],[-122.44965,37.69221],[-122.39165,37.67221],[-122.36642,37.66416],[-122.33418,37.65613],[-122.27487,37.64061],[-122.23456,37.63009],[-122.19849,37.62089],[-122.14414,37.60672],[-122.12208,37.59164],[-122.12121,37.57116],[-122.13095,37.5602],[-122.16608,37.5527],[-122.2192,37.56927],[-122.24805,37.57896],[-122.26241,37.58352],[-122.2831,37.5893],[-122.31034,37.59752],[-122.32593,37.60201],[-122.35508,37.61267],[-122.36322,37.61599]],"type":"LineString"}
}
