{
  "id": 2014682029,
  "type": "Feature",
  "properties": {
    "geom:area": 0,
    "geom:bbox": "-123.274470,37.546820,-122.080940,38.479640",
    "geom:latitude": 37.94384880908367,
    "geom:longitude": -122.60715010497756,
    "src:alt_label": "swim-approach",
    "src:geom": "swim",
    "swim:elevations": [
      8961,
      8422,
      8185,
      8024,
      7584,
      7206,
      6943,
      6624,
      6351,
      6161,
      6105,
      5883,
      5529,
      5460,
      5009,
      4621,
      4363,
      4251,
      3832,
      3515,
      3391,
      3350,
      3354,
      3237,
      3184,
      3020,
      2551,
      2517,
      2239,
      2087,
      1751,
      1553,
      1494,
      1325,
      1191,
      1062,
      914,
      790,
      813,
      717,
      618,
      457,
      380,
      203,
      48,
      30
    ],
    "swim:geom": "approach",
    "swim:timestamps": [
      1769879611,
      1769879663,
      1769879685,
      1769879701,
      1769879745,
      1769879781,
      1769879808,
      1769879842,
      1769879874,
      1769879906,
      1769879911,
      1769879933,
      1769879968,
      1769879973,
      1769880017,
      1769880057,
      1769880088,
      1769880098,
      1769880138,
      1769880173,
      1769880199,
      1769880213,
      1769880258,
      1769880285,
      1769880301,
      1769880337,
      1769880387,
      1769880390,
      1769880417,
      1769880433,
      1769880464,
      1769880491,
      1769880518,
      1769880568,
      1769880593,
      1769880619,
      1769880653,
      1769880684,
      1769880708,
      1769880743,
      1769880761,
      1769880798,
      1769880815,
      1769880861,
      1769880895,
      1769880901
    ],
    "wof:geomhash": "64eb05be3e8799b62fb434f8d7e35a2e",
    "wof:id": 2014682029,
    "wof:repo": "sfomuseum-data-flights-2026-01"
  },
  "bbox": [
    -123.27447,
    37.54682,
    -122.08094,
    38.47964
  ],
  "geometry": {"coordinates":[[-123.27447,38.47964],[-123.16202,38.42353],[-123.11662,38.40074],[-123.08383,38.38408],[-122.995,38.33928],[-122.92169,38.30229],[-122.86891,38.27564],[-122.80359,38.24262],[-122.76059,38.20238],[-122.74768,38.15213],[-122.74582,38.14561],[-122.73592,38.11222],[-122.71975,38.05933],[-122.71761,38.0521],[-122.69826,37.98603],[-122.68114,37.92608],[-122.65746,37.88229],[-122.64383,37.86985],[-122.59254,37.82324],[-122.55136,37.78448],[-122.52326,37.75805],[-122.50994,37.74546],[-122.45646,37.71733],[-122.419,37.70706],[-122.39749,37.70115],[-122.34965,37.68811],[-122.28492,37.6698],[-122.28113,37.66873],[-122.24632,37.65849],[-122.22677,37.65283],[-122.18756,37.64121],[-122.15391,37.63103],[-122.12255,37.62157],[-122.08373,37.59416],[-122.08094,37.57321],[-122.09406,37.55455],[-122.131,37.54997],[-122.16401,37.54802],[-122.18955,37.54682],[-122.22604,37.55786],[-122.24327,37.56559],[-122.2761,37.57943],[-122.29014,37.58539],[-122.32668,37.60081],[-122.35089,37.61092],[-122.35506,37.61271]],"type":"LineString"}
}
