{
  "id": 2014686317,
  "type": "Feature",
  "properties": {
    "geom:area": 0,
    "geom:bbox": "-122.362860,37.638190,-121.252080,37.964690",
    "geom:latitude": 37.83911720103573,
    "geom:longitude": -121.82036105183279,
    "src:alt_label": "swim-takeoff",
    "src:geom": "swim",
    "swim:elevations": [
      335,
      670,
      856,
      1190,
      1506,
      1768,
      2113,
      2752,
      3159,
      3282,
      3951,
      4179,
      4566,
      4803,
      5384,
      5581,
      5839,
      5993,
      6332,
      6526
    ],
    "swim:geom": "takeoff",
    "swim:timestamps": [
      1769859712,
      1769859746,
      1769859769,
      1769859813,
      1769859861,
      1769859880,
      1769859901,
      1769859942,
      1769859977,
      1769859990,
      1769860074,
      1769860101,
      1769860134,
      1769860151,
      1769860196,
      1769860225,
      1769860256,
      1769860272,
      1769860315,
      1769860341
    ],
    "wof:geomhash": "6f3d4b80990623cb0269009f6c2d92b8",
    "wof:id": 2014686317,
    "wof:repo": "sfomuseum-data-flights-2026-01"
  },
  "bbox": [
    -122.36286,
    37.63819,
    -121.25208,
    37.96469
  ],
  "geometry": {"coordinates":[[-122.36286,37.63819],[-122.33929,37.65186],[-122.32151,37.66093],[-122.28453,37.68078],[-122.23084,37.71001],[-122.20587,37.72319],[-122.17853,37.73724],[-122.12046,37.76743],[-122.06953,37.79349],[-122.04863,37.8041],[-121.88263,37.84976],[-121.82333,37.86021],[-121.74717,37.87418],[-121.7077,37.88152],[-121.60391,37.90067],[-121.53654,37.91304],[-121.4633,37.92647],[-121.42353,37.93367],[-121.31705,37.95296],[-121.25208,37.96469]],"type":"LineString"}
}
