{
  "id": 2014681145,
  "type": "Feature",
  "properties": {
    "geom:area": 0,
    "geom:bbox": "-123.456330,37.287790,-122.162990,37.611870",
    "geom:latitude": 37.37662637340672,
    "geom:longitude": -122.70818933827606,
    "src:alt_label": "swim-approach",
    "src:geom": "swim",
    "swim:elevations": [
      4699,
      4440,
      4182,
      4104,
      3639,
      3513,
      3084,
      3048,
      3048,
      3048,
      3048,
      2976,
      2855,
      2811,
      2537,
      2468,
      2362,
      2191,
      1935,
      1830,
      1829,
      1829,
      1829,
      1765,
      1405,
      1176,
      1070,
      874,
      833,
      708,
      669,
      573,
      491,
      404,
      257,
      172,
      98,
      0
    ],
    "swim:geom": "approach",
    "swim:timestamps": [
      1769888695,
      1769888726,
      1769888751,
      1769888760,
      1769888810,
      1769888828,
      1769888877,
      1769888903,
      1769888927,
      1769888966,
      1769888987,
      1769889018,
      1769889056,
      1769889068,
      1769889118,
      1769889130,
      1769889151,
      1769889187,
      1769889236,
      1769889264,
      1769889285,
      1769889294,
      1769889300,
      1769889342,
      1769889387,
      1769889413,
      1769889425,
      1769889474,
      1769889484,
      1769889538,
      1769889562,
      1769889592,
      1769889611,
      1769889630,
      1769889664,
      1769889685,
      1769889706,
      1769889724
    ],
    "wof:geomhash": "8ff2a1b8a642dd75b7e1e182f67c6ade",
    "wof:id": 2014681145,
    "wof:repo": "sfomuseum-data-flights-2026-01"
  },
  "bbox": [
    -123.45633,
    37.28779,
    -122.16299,
    37.61187
  ],
  "geometry": {"coordinates":[[-123.45633,37.35627],[-123.38717,37.34495],[-123.33221,37.3358],[-123.31188,37.3325],[-123.20352,37.31455],[-123.16533,37.30818],[-123.06449,37.29153],[-123.00991,37.28779],[-122.95989,37.29262],[-122.87852,37.30449],[-122.8346,37.31103],[-122.77175,37.32038],[-122.70417,37.33044],[-122.68362,37.33345],[-122.5992,37.3459],[-122.57944,37.34878],[-122.5448,37.3538],[-122.48595,37.36261],[-122.40449,37.37465],[-122.3587,37.38126],[-122.32559,37.38611],[-122.31194,37.38809],[-122.3029,37.38939],[-122.24668,37.40573],[-122.19798,37.42626],[-122.1798,37.44492],[-122.17421,37.45456],[-122.16299,37.49737],[-122.16721,37.50598],[-122.19952,37.54476],[-122.22233,37.55444],[-122.25053,37.56641],[-122.26643,37.57308],[-122.28369,37.58034],[-122.31113,37.59188],[-122.32795,37.59896],[-122.34441,37.60585],[-122.35877,37.61187]],"type":"LineString"}
}
