{
  "id": 2014682435,
  "type": "Feature",
  "properties": {
    "geom:area": 0,
    "geom:bbox": "-122.357800,37.491470,-121.270620,37.614290",
    "geom:latitude": 37.54583254947684,
    "geom:longitude": -121.8191795967745,
    "src:alt_label": "swim-approach",
    "src:geom": "swim",
    "swim:elevations": [
      4888,
      4461,
      4282,
      4054,
      3887,
      3508,
      3407,
      3272,
      3200,
      3046,
      2855,
      2788,
      2685,
      2551,
      2490,
      2432,
      2299,
      2131,
      1945,
      1927,
      1834,
      1711,
      1560,
      1397,
      1105,
      1047,
      825,
      791,
      792,
      732,
      528,
      395,
      285,
      242,
      204,
      126,
      93,
      183
    ],
    "swim:geom": "approach",
    "swim:timestamps": [
      1769849384,
      1769849427,
      1769849448,
      1769849480,
      1769849503,
      1769849543,
      1769849556,
      1769849573,
      1769849588,
      1769849626,
      1769849660,
      1769849675,
      1769849690,
      1769849712,
      1769849725,
      1769849744,
      1769849766,
      1769849798,
      1769849847,
      1769849851,
      1769849871,
      1769849889,
      1769849906,
      1769849927,
      1769849966,
      1769849978,
      1769850024,
      1769850038,
      1769850056,
      1769850079,
      1769850111,
      1769850142,
      1769850167,
      1769850182,
      1769850201,
      1769850216,
      1769850233,
      1769850248
    ],
    "wof:geomhash": "a94c6cf49c1604e6ac238d1dcd19789a",
    "wof:id": 2014682435,
    "wof:repo": "sfomuseum-data-flights-2026-01"
  },
  "bbox": [
    -122.3578,
    37.49147,
    -121.27062,
    37.61429
  ],
  "geometry": {"coordinates":[[-121.27062,37.59162],[-121.3539,37.58205],[-121.39106,37.57804],[-121.44295,37.57218],[-121.4793,37.56792],[-121.53953,37.56078],[-121.55875,37.55855],[-121.58358,37.55566],[-121.60543,37.55309],[-121.65657,37.54332],[-121.69996,37.53288],[-121.71934,37.52821],[-121.73919,37.52341],[-121.76852,37.51637],[-121.78517,37.51236],[-121.80992,37.50646],[-121.83929,37.49944],[-121.88123,37.49147],[-121.94867,37.49272],[-121.95444,37.4929],[-121.98187,37.49454],[-122.00649,37.50047],[-122.02797,37.50735],[-122.05535,37.51626],[-122.10576,37.53301],[-122.12028,37.5378],[-122.1719,37.55457],[-122.18589,37.55915],[-122.20379,37.56484],[-122.22484,37.57165],[-122.25282,37.58041],[-122.27967,37.58853],[-122.29926,37.59401],[-122.31006,37.59715],[-122.32466,37.60114],[-122.33577,37.60486],[-122.34811,37.60975],[-122.3578,37.61429]],"type":"LineString"}
}
