{
  "id": 2014681415,
  "type": "Feature",
  "properties": {
    "geom:area": 0,
    "geom:bbox": "-122.360020,37.491610,-121.268420,37.614870",
    "geom:latitude": 37.546331237080906,
    "geom:longitude": -121.81909288967528,
    "src:alt_label": "swim-approach",
    "src:geom": "swim",
    "swim:elevations": [
      4908,
      4588,
      4362,
      4067,
      3755,
      3686,
      3475,
      3382,
      3272,
      3099,
      2847,
      2666,
      2589,
      2544,
      2264,
      2162,
      2030,
      1829,
      1700,
      1563,
      1473,
      1260,
      1246,
      1035,
      730,
      593,
      499,
      324,
      215,
      63,
      108
    ],
    "swim:geom": "approach",
    "swim:timestamps": [
      1769850944,
      1769850980,
      1769851005,
      1769851038,
      1769851072,
      1769851080,
      1769851107,
      1769851128,
      1769851158,
      1769851181,
      1769851215,
      1769851239,
      1769851262,
      1769851274,
      1769851314,
      1769851331,
      1769851351,
      1769851405,
      1769851435,
      1769851463,
      1769851492,
      1769851527,
      1769851532,
      1769851560,
      1769851601,
      1769851624,
      1769851659,
      1769851697,
      1769851732,
      1769851768,
      1769851782
    ],
    "wof:geomhash": "b04e136e6800a49751bd616e29f7be31",
    "wof:id": 2014681415,
    "wof:repo": "sfomuseum-data-flights-2026-01"
  },
  "bbox": [
    -122.36002,
    37.49161,
    -121.26842,
    37.61487
  ],
  "geometry": {"coordinates":[[-121.26842,37.59242],[-121.3315,37.58493],[-121.37498,37.58014],[-121.43214,37.57378],[-121.49043,37.56669],[-121.50414,37.56497],[-121.54876,37.5597],[-121.58213,37.556],[-121.62624,37.55076],[-121.66026,37.54278],[-121.7086,37.53101],[-121.74389,37.52267],[-121.77761,37.51452],[-121.79458,37.5104],[-121.85227,37.49652],[-121.87629,37.49161],[-121.90508,37.49181],[-121.97919,37.49423],[-122.01856,37.50448],[-122.05273,37.51595],[-122.08671,37.52726],[-122.12489,37.53927],[-122.12965,37.54077],[-122.15961,37.55054],[-122.20392,37.56513],[-122.22781,37.57263],[-122.26388,37.58422],[-122.29736,37.59382],[-122.32361,37.60214],[-122.35007,37.61056],[-122.36002,37.61487]],"type":"LineString"}
}
