{
  "id": 2014685827,
  "type": "Feature",
  "properties": {
    "geom:area": 0,
    "geom:bbox": "-122.365810,37.629580,-122.214400,38.466520",
    "geom:latitude": 38.01507699719163,
    "geom:longitude": -122.2381366783886,
    "src:alt_label": "swim-takeoff",
    "src:geom": "swim",
    "swim:elevations": [
      183,
      620,
      1054,
      1080,
      1235,
      1334,
      1954,
      2128,
      2712,
      3203,
      3621,
      4105,
      4524,
      5001,
      5361,
      5448,
      5774,
      5927,
      6054,
      6228,
      6759,
      7096,
      7300,
      7533
    ],
    "swim:geom": "takeoff",
    "swim:timestamps": [
      1769895893,
      1769895927,
      1769895957,
      1769895960,
      1769895979,
      1769895994,
      1769896036,
      1769896050,
      1769896090,
      1769896120,
      1769896150,
      1769896187,
      1769896217,
      1769896253,
      1769896281,
      1769896290,
      1769896317,
      1769896333,
      1769896344,
      1769896360,
      1769896405,
      1769896433,
      1769896449,
      1769896470
    ],
    "wof:geomhash": "afe6e26def607d55a5ed7b3df9db23b5",
    "wof:id": 2014685827,
    "wof:repo": "sfomuseum-data-flights-2026-01"
  },
  "bbox": [
    -122.36581,
    37.62958,
    -122.2144,
    38.46652
  ],
  "geometry": {"coordinates":[[-122.36581,37.62958],[-122.34153,37.64771],[-122.31553,37.66243],[-122.31288,37.66394],[-122.29481,37.67441],[-122.27827,37.68426],[-122.22571,37.71546],[-122.2144,37.73131],[-122.21609,37.78701],[-122.21839,37.83145],[-122.22086,37.87776],[-122.2216,37.93692],[-122.22222,37.98746],[-122.22368,38.05051],[-122.225,38.10177],[-122.22525,38.11817],[-122.22592,38.16811],[-122.22652,38.19713],[-122.22709,38.21796],[-122.22807,38.24975],[-122.23087,38.33819],[-122.23579,38.3934],[-122.23909,38.42483],[-122.24342,38.46652]],"type":"LineString"}
}
