{
  "id": 2014686105,
  "type": "Feature",
  "properties": {
    "geom:area": 0,
    "geom:bbox": "-123.331280,37.625750,-122.391780,38.509170",
    "geom:latitude": 38.02549338545562,
    "geom:longitude": -122.89516623870891,
    "src:alt_label": "swim-takeoff",
    "src:geom": "swim",
    "swim:elevations": [
      152,
      301,
      700,
      806,
      1189,
      1286,
      1573,
      2185,
      2278,
      2631,
      3049,
      3285,
      3378,
      3539,
      3830,
      4151,
      4249,
      4430,
      4725,
      5020,
      5223,
      5413,
      5724,
      5939,
      6120,
      6553,
      6767
    ],
    "swim:geom": "takeoff",
    "swim:timestamps": [
      1769858876,
      1769858893,
      1769858933,
      1769858945,
      1769858998,
      1769859008,
      1769859040,
      1769859087,
      1769859095,
      1769859120,
      1769859150,
      1769859176,
      1769859201,
      1769859228,
      1769859266,
      1769859296,
      1769859304,
      1769859324,
      1769859354,
      1769859384,
      1769859406,
      1769859435,
      1769859468,
      1769859491,
      1769859513,
      1769859568,
      1769859594
    ],
    "wof:geomhash": "7edaa58b137704ba6d0ce08a844b381b",
    "wof:id": 2014686105,
    "wof:repo": "sfomuseum-data-flights-2026-01"
  },
  "bbox": [
    -123.33128,
    37.62575,
    -122.39178,
    38.50917
  ],
  "geometry": {"coordinates":[[-122.39178,37.62575],[-122.40896,37.633],[-122.44978,37.65122],[-122.46331,37.6571],[-122.52626,37.68794],[-122.53749,37.69485],[-122.57904,37.71946],[-122.64338,37.75729],[-122.65447,37.76381],[-122.69054,37.78486],[-122.73278,37.80991],[-122.76739,37.83624],[-122.79394,37.86893],[-122.82512,37.90692],[-122.87301,37.96364],[-122.91071,38.00924],[-122.92171,38.02241],[-122.94713,38.05273],[-122.98713,38.10047],[-123.02875,38.15031],[-123.05833,38.18585],[-123.09897,38.23436],[-123.14513,38.28943],[-123.17849,38.32899],[-123.20983,38.36611],[-123.29114,38.46164],[-123.33128,38.50917]],"type":"LineString"}
}
