{
  "id": 2014686057,
  "type": "Feature",
  "properties": {
    "geom:area": 0,
    "geom:bbox": "-122.364310,37.631500,-121.262940,37.962420",
    "geom:latitude": 37.83649847497385,
    "geom:longitude": -121.82758747673542,
    "src:alt_label": "swim-takeoff",
    "src:geom": "swim",
    "swim:elevations": [
      244,
      595,
      801,
      1170,
      1365,
      1875,
      2487,
      2771,
      3078,
      3446,
      4071,
      4184,
      4509,
      5294,
      5631,
      5873,
      6139,
      6415,
      6881,
      7099,
      7498,
      7631
    ],
    "swim:geom": "takeoff",
    "swim:timestamps": [
      1769867448,
      1769867476,
      1769867496,
      1769867530,
      1769867555,
      1769867591,
      1769867627,
      1769867647,
      1769867671,
      1769867705,
      1769867756,
      1769867766,
      1769867790,
      1769867842,
      1769867870,
      1769867891,
      1769867921,
      1769867950,
      1769867997,
      1769868016,
      1769868055,
      1769868071
    ],
    "wof:geomhash": "59f7612e6d7fb4d063c2f712bf65595d",
    "wof:id": 2014686057,
    "wof:repo": "sfomuseum-data-flights-2026-01"
  },
  "bbox": [
    -122.36431,
    37.6315,
    -121.26294,
    37.96242
  ],
  "geometry": {"coordinates":[[-122.36431,37.6315],[-122.34449,37.64498],[-122.32726,37.65472],[-122.29705,37.67249],[-122.2693,37.68823],[-122.2221,37.71327],[-122.17215,37.73917],[-122.14459,37.75331],[-122.1095,37.77138],[-122.05659,37.79844],[-121.96077,37.83325],[-121.94103,37.83679],[-121.88994,37.84658],[-121.77997,37.86673],[-121.72223,37.87723],[-121.67728,37.88598],[-121.61195,37.89902],[-121.54597,37.91115],[-121.43724,37.93095],[-121.39347,37.93891],[-121.30046,37.95567],[-121.26294,37.96242]],"type":"LineString"}
}
