{
  "id": 2014685237,
  "type": "Feature",
  "properties": {
    "geom:area": 0,
    "geom:bbox": "-122.387790,37.626640,-121.269570,37.991130",
    "geom:latitude": 37.93352275284218,
    "geom:longitude": -121.95038715468027,
    "src:alt_label": "swim-takeoff",
    "src:geom": "swim",
    "swim:elevations": [
      152,
      674,
      853,
      932,
      1076,
      1704,
      1879,
      2441,
      2591,
      3096,
      3312,
      3496,
      3628,
      4042,
      4315,
      4391,
      4572,
      4701,
      5085,
      5325,
      5634,
      6048,
      6274,
      6433,
      6647,
      6922,
      7024
    ],
    "swim:geom": "takeoff",
    "swim:timestamps": [
      1769905209,
      1769905255,
      1769905288,
      1769905308,
      1769905324,
      1769905374,
      1769905385,
      1769905431,
      1769905443,
      1769905489,
      1769905528,
      1769905558,
      1769905573,
      1769905616,
      1769905643,
      1769905652,
      1769905670,
      1769905685,
      1769905721,
      1769905745,
      1769905785,
      1769905828,
      1769905855,
      1769905879,
      1769905909,
      1769905948,
      1769905963
    ],
    "wof:geomhash": "d903dea89249021cbfa035209221cd13",
    "wof:id": 2014685237,
    "wof:repo": "sfomuseum-data-flights-2026-01"
  },
  "bbox": [
    -122.38779,
    37.62664,
    -121.26957,
    37.99113
  ],
  "geometry": {"coordinates":[[-122.36736,37.62664],[-122.33981,37.65459],[-122.31425,37.67811],[-122.31057,37.69912],[-122.3197,37.71658],[-122.35248,37.7741],[-122.35906,37.78729],[-122.38589,37.84389],[-122.38779,37.86035],[-122.37674,37.92448],[-122.31551,37.95573],[-122.2546,37.96666],[-122.22279,37.97297],[-122.12792,37.98867],[-122.06616,37.98871],[-122.04522,37.98877],[-122.00297,37.98903],[-121.96728,37.98922],[-121.88072,37.98972],[-121.82254,37.99001],[-121.72436,37.99043],[-121.61643,37.99076],[-121.54885,37.99092],[-121.48798,37.991],[-121.41045,37.99113],[-121.30897,37.9911],[-121.26957,37.99105]],"type":"LineString"}
}
