{
  "id": 2014686049,
  "type": "Feature",
  "properties": {
    "geom:area": 0,
    "geom:bbox": "-122.365500,37.630060,-122.216230,38.498700",
    "geom:latitude": 38.031609907673385,
    "geom:longitude": -122.24276464282543,
    "src:alt_label": "swim-takeoff",
    "src:geom": "swim",
    "swim:elevations": [
      183,
      541,
      915,
      1243,
      1452,
      1822,
      2091,
      2982,
      3121,
      3506,
      3901,
      4208,
      4769,
      4875,
      5296,
      5690,
      6062,
      6354,
      6564,
      6767,
      7107,
      7231
    ],
    "swim:geom": "takeoff",
    "swim:timestamps": [
      1769856682,
      1769856705,
      1769856736,
      1769856771,
      1769856794,
      1769856821,
      1769856840,
      1769856897,
      1769856906,
      1769856950,
      1769856976,
      1769857002,
      1769857048,
      1769857057,
      1769857090,
      1769857131,
      1769857168,
      1769857198,
      1769857216,
      1769857237,
      1769857281,
      1769857293
    ],
    "wof:geomhash": "6dac3bacad9aa599b1fa548dbb2f31d4",
    "wof:id": 2014686049,
    "wof:repo": "sfomuseum-data-flights-2026-01"
  },
  "bbox": [
    -122.3655,
    37.63006,
    -122.21623,
    38.4987
  ],
  "geometry": {"coordinates":[[-122.3655,37.63006],[-122.35044,37.64297],[-122.32398,37.65733],[-122.29026,37.6769],[-122.26463,37.69184],[-122.22986,37.71191],[-122.21623,37.73283],[-122.217,37.81024],[-122.21746,37.82262],[-122.21969,37.88682],[-122.22083,37.92882],[-122.22199,37.9714],[-122.22305,38.0488],[-122.22354,38.06371],[-122.22753,38.12155],[-122.23416,38.19339],[-122.23966,38.26064],[-122.24403,38.31547],[-122.24661,38.34949],[-122.24979,38.38987],[-122.2567,38.47464],[-122.25859,38.4987]],"type":"LineString"}
}
