{
  "id": 2014682313,
  "type": "Feature",
  "properties": {
    "geom:area": 0,
    "geom:bbox": "-122.766920,37.447090,-122.147630,38.495600",
    "geom:latitude": 37.84138055529929,
    "geom:longitude": -122.51035954687784,
    "src:alt_label": "swim-approach",
    "src:geom": "swim",
    "swim:elevations": [
      6172,
      5824,
      5792,
      5791,
      5791,
      5791,
      5710,
      5469,
      5392,
      5238,
      5205,
      5051,
      4736,
      4139,
      3478,
      3403,
      3353,
      3353,
      3353,
      3373,
      3353,
      3322,
      2862,
      2771,
      2297,
      2060,
      1699,
      1423,
      1237,
      1219,
      1014,
      811,
      682,
      587,
      409,
      230,
      31
    ],
    "swim:geom": "approach",
    "swim:timestamps": [
      1769857551,
      1769857617,
      1769857636,
      1769857676,
      1769857707,
      1769857712,
      1769857743,
      1769857792,
      1769857825,
      1769857852,
      1769857861,
      1769857890,
      1769857920,
      1769857971,
      1769858033,
      1769858049,
      1769858092,
      1769858101,
      1769858105,
      1769858143,
      1769858181,
      1769858216,
      1769858276,
      1769858286,
      1769858333,
      1769858360,
      1769858396,
      1769858418,
      1769858443,
      1769858482,
      1769858513,
      1769858558,
      1769858573,
      1769858584,
      1769858614,
      1769858645,
      1769858690
    ],
    "wof:geomhash": "abc1b2092446b7d40934278092e0187e",
    "wof:id": 2014682313,
    "wof:repo": "sfomuseum-data-flights-2026-01"
  },
  "bbox": [
    -122.76692,
    37.44709,
    -122.14763,
    38.4956
  ],
  "geometry": {"coordinates":[[-122.76079,38.4956],[-122.76328,38.39095],[-122.76404,38.36026],[-122.7657,38.2983],[-122.76692,38.24793],[-122.76678,38.24095],[-122.75793,38.1913],[-122.73565,38.11474],[-122.72089,38.06381],[-122.70862,38.02157],[-122.70472,38.0084],[-122.69198,37.96428],[-122.67868,37.91918],[-122.62315,37.85246],[-122.54591,37.77916],[-122.52596,37.76046],[-122.47678,37.71405],[-122.46719,37.7051],[-122.46185,37.70005],[-122.42157,37.66213],[-122.3802,37.62315],[-122.34892,37.58599],[-122.31657,37.52385],[-122.31104,37.5146],[-122.27417,37.47378],[-122.24116,37.46311],[-122.19774,37.44912],[-122.16948,37.44709],[-122.14763,37.46515],[-122.16389,37.50346],[-122.19376,37.52695],[-122.23713,37.55756],[-122.25174,37.56523],[-122.26421,37.57105],[-122.29285,37.58362],[-122.31996,37.59543],[-122.35472,37.61017]],"type":"LineString"}
}
