{
  "id": 2014686097,
  "type": "Feature",
  "properties": {
    "geom:area": 0,
    "geom:bbox": "-122.387130,37.630330,-121.427710,38.519240",
    "geom:latitude": 38.12348907403022,
    "geom:longitude": -122.01112282751814,
    "src:alt_label": "swim-takeoff",
    "src:geom": "swim",
    "swim:elevations": [
      183,
      649,
      733,
      952,
      1255,
      1496,
      1841,
      2248,
      2494,
      2799,
      3043,
      3364,
      3568,
      3650,
      3959,
      4373,
      4433,
      4658,
      5037,
      5303,
      5629,
      5954,
      6018,
      6291,
      6732,
      7067,
      7287,
      7503,
      7541
    ],
    "swim:geom": "takeoff",
    "swim:timestamps": [
      1769902904,
      1769902933,
      1769902945,
      1769902965,
      1769903004,
      1769903033,
      1769903064,
      1769903091,
      1769903110,
      1769903131,
      1769903155,
      1769903184,
      1769903214,
      1769903232,
      1769903274,
      1769903301,
      1769903310,
      1769903331,
      1769903364,
      1769903385,
      1769903423,
      1769903456,
      1769903462,
      1769903493,
      1769903541,
      1769903577,
      1769903607,
      1769903637,
      1769903640
    ],
    "wof:geomhash": "b47a0e643ea1e0283499efe73faf9d1b",
    "wof:id": 2014686097,
    "wof:repo": "sfomuseum-data-flights-2026-01"
  },
  "bbox": [
    -122.38713,
    37.63033,
    -121.42771,
    38.51924
  ],
  "geometry": {"coordinates":[[-122.36492,37.63033],[-122.34762,37.65017],[-122.33853,37.65768],[-122.32211,37.67046],[-122.31268,37.70463],[-122.32963,37.73423],[-122.34971,37.77095],[-122.36619,37.80397],[-122.3786,37.82863],[-122.38713,37.857],[-122.38664,37.89226],[-122.37739,37.93533],[-122.33691,37.97092],[-122.30522,37.98965],[-122.22616,38.03676],[-122.17347,38.06873],[-122.15577,38.0795],[-122.11346,38.10539],[-122.04646,38.14615],[-122.00279,38.17278],[-121.92161,38.2219],[-121.84943,38.26523],[-121.83623,38.27321],[-121.76812,38.31442],[-121.65921,38.37945],[-121.57578,38.42918],[-121.50576,38.47121],[-121.4349,38.51484],[-121.42771,38.51924]],"type":"LineString"}
}
