{
  "id": 2014682483,
  "type": "Feature",
  "properties": {
    "geom:area": 0,
    "geom:bbox": "-122.360890,37.492110,-121.249640,37.615020",
    "geom:latitude": 37.54697182789329,
    "geom:longitude": -121.81023752082103,
    "src:alt_label": "swim-approach",
    "src:geom": "swim",
    "swim:elevations": [
      4892,
      4710,
      4342,
      4300,
      3802,
      3454,
      3256,
      3168,
      3135,
      3057,
      2783,
      2661,
      2539,
      2380,
      2199,
      2008,
      1872,
      1736,
      1489,
      1395,
      1096,
      1036,
      1027,
      936,
      770,
      700,
      475,
      334,
      235,
      170,
      69,
      0
    ],
    "swim:geom": "approach",
    "swim:timestamps": [
      1769848083,
      1769848101,
      1769848139,
      1769848142,
      1769848190,
      1769848226,
      1769848247,
      1769848281,
      1769848290,
      1769848308,
      1769848347,
      1769848363,
      1769848382,
      1769848415,
      1769848445,
      1769848487,
      1769848521,
      1769848543,
      1769848584,
      1769848599,
      1769848642,
      1769848651,
      1769848656,
      1769848673,
      1769848703,
      1769848715,
      1769848761,
      1769848793,
      1769848816,
      1769848831,
      1769848853,
      1769848874
    ],
    "wof:geomhash": "08c6d731683459557b3531b6429b4bfa",
    "wof:id": 2014682483,
    "wof:repo": "sfomuseum-data-flights-2026-01"
  },
  "bbox": [
    -122.36089,
    37.49211,
    -121.24964,
    37.61502
  ],
  "geometry": {"coordinates":[[-121.24964,37.5946],[-121.28648,37.58987],[-121.35817,37.58185],[-121.36429,37.58119],[-121.45541,37.57048],[-121.5213,37.56294],[-121.55957,37.5584],[-121.61886,37.55144],[-121.63309,37.5488],[-121.66063,37.54225],[-121.71867,37.52841],[-121.7428,37.5226],[-121.76998,37.5161],[-121.81778,37.50464],[-121.86094,37.49427],[-121.92155,37.49211],[-121.97211,37.49348],[-122.00448,37.50001],[-122.06063,37.51828],[-122.08203,37.5252],[-122.13828,37.54351],[-122.14915,37.54708],[-122.15519,37.54905],[-122.17478,37.55521],[-122.20829,37.56604],[-122.22132,37.57025],[-122.26899,37.58526],[-122.29761,37.59369],[-122.3158,37.59872],[-122.32803,37.60244],[-122.3459,37.60885],[-122.36089,37.61502]],"type":"LineString"}
}
