{
  "id": 2014683193,
  "type": "Feature",
  "properties": {
    "geom:area": 0,
    "geom:bbox": "-122.362170,37.634360,-121.323540,37.951760",
    "geom:latitude": 37.83129545871502,
    "geom:longitude": -121.85640198050979,
    "src:alt_label": "swim-takeoff",
    "src:geom": "swim",
    "swim:elevations": [
      274,
      582,
      673,
      875,
      1190,
      1770,
      2081,
      2490,
      2652,
      3128,
      3184,
      3290,
      3373,
      3428,
      3749,
      3984,
      4295,
      4497,
      4792,
      5134,
      5439,
      5446
    ],
    "swim:geom": "takeoff",
    "swim:timestamps": [
      1769856139,
      1769856171,
      1769856189,
      1769856223,
      1769856248,
      1769856296,
      1769856324,
      1769856355,
      1769856371,
      1769856417,
      1769856429,
      1769856453,
      1769856468,
      1769856480,
      1769856530,
      1769856558,
      1769856596,
      1769856615,
      1769856641,
      1769856676,
      1769856713,
      1769856724
    ],
    "wof:geomhash": "9a70af1a1f9eaabda700804e5037d841",
    "wof:id": 2014683193,
    "wof:repo": "sfomuseum-data-flights-2026-01"
  },
  "bbox": [
    -122.36217,
    37.63436,
    -121.32354,
    37.95176
  ],
  "geometry": {"coordinates":[[-122.36217,37.63436],[-122.33615,37.65084],[-122.31874,37.66069],[-122.28028,37.68265],[-122.24939,37.69948],[-122.18618,37.73241],[-122.14782,37.75231],[-122.10491,37.77459],[-122.08199,37.78648],[-122.01579,37.8205],[-121.99569,37.82757],[-121.9508,37.83625],[-121.91958,37.8419],[-121.89623,37.84624],[-121.78565,37.86691],[-121.72092,37.87895],[-121.63269,37.89536],[-121.5851,37.90417],[-121.52301,37.91555],[-121.43936,37.93079],[-121.34863,37.9472],[-121.32354,37.95176]],"type":"LineString"}
}
