{
  "id": 2014683655,
  "type": "Feature",
  "properties": {
    "geom:area": 0,
    "geom:bbox": "-122.356680,37.638700,-121.252010,38.363630",
    "geom:latitude": 38.03607735331094,
    "geom:longitude": -121.83628517811714,
    "src:alt_label": "swim-takeoff",
    "src:geom": "swim",
    "swim:elevations": [
      448,
      582,
      1078,
      1171,
      1443,
      1844,
      2137,
      2759,
      2869,
      3127,
      3343,
      3409,
      3548,
      4015,
      4381,
      4700,
      5125,
      5423,
      5605,
      5793,
      6003,
      6120,
      6301,
      6575,
      6743,
      7116,
      7260
    ],
    "swim:geom": "takeoff",
    "swim:timestamps": [
      1769848434,
      1769848445,
      1769848493,
      1769848511,
      1769848551,
      1769848579,
      1769848599,
      1769848642,
      1769848651,
      1769848670,
      1769848706,
      1769848720,
      1769848740,
      1769848788,
      1769848821,
      1769848850,
      1769848887,
      1769848916,
      1769848946,
      1769848967,
      1769848993,
      1769849010,
      1769849035,
      1769849068,
      1769849087,
      1769849128,
      1769849142
    ],
    "wof:geomhash": "ad065656bc256e65bca541036394a060",
    "wof:id": 2014683655,
    "wof:repo": "sfomuseum-data-flights-2026-01"
  },
  "bbox": [
    -122.35668,
    37.6387,
    -121.25201,
    38.36363
  ],
  "geometry": {"coordinates":[[-122.35668,37.6387],[-122.34845,37.64344],[-122.30853,37.66578],[-122.29305,37.67595],[-122.27588,37.71977],[-122.26605,37.75401],[-122.25579,37.77962],[-122.20392,37.81882],[-122.19176,37.82639],[-122.1661,37.84278],[-122.11367,37.87655],[-122.09273,37.89002],[-122.0599,37.91116],[-121.97553,37.96497],[-121.91587,38.00306],[-121.86133,38.03784],[-121.79387,38.08072],[-121.7382,38.11596],[-121.68317,38.1509],[-121.64279,38.17665],[-121.58963,38.20884],[-121.55307,38.22611],[-121.49697,38.25175],[-121.42294,38.28563],[-121.38061,38.30505],[-121.28524,38.34851],[-121.25201,38.36363]],"type":"LineString"}
}
