{
  "id": 2014685651,
  "type": "Feature",
  "properties": {
    "geom:area": 0,
    "geom:bbox": "-122.460860,37.229820,-121.254100,37.706980",
    "geom:latitude": 37.424425705603845,
    "geom:longitude": -121.96582199024756,
    "src:alt_label": "swim-takeoff",
    "src:geom": "swim",
    "swim:elevations": [
      244,
      402,
      765,
      1232,
      1424,
      1625,
      2306,
      2681,
      3540,
      3972,
      4408,
      5642,
      6005,
      6333,
      6604,
      6772,
      7177,
      7469,
      8082,
      8905,
      9049,
      9342,
      9448,
      9449,
      9449,
      9451,
      9448
    ],
    "swim:geom": "takeoff",
    "swim:timestamps": [
      1769857678,
      1769857689,
      1769857736,
      1769857768,
      1769857792,
      1769857811,
      1769857843,
      1769857861,
      1769857912,
      1769857936,
      1769857963,
      1769858033,
      1769858056,
      1769858080,
      1769858101,
      1769858113,
      1769858139,
      1769858161,
      1769858207,
      1769858272,
      1769858286,
      1769858333,
      1769858360,
      1769858392,
      1769858410,
      1769858448,
      1769858467
    ],
    "wof:geomhash": "902868f68261ebea8d26505676d8dcea",
    "wof:id": 2014685651,
    "wof:repo": "sfomuseum-data-flights-2026-01"
  },
  "bbox": [
    -122.46086,
    37.22982,
    -121.2541,
    37.70698
  ],
  "geometry": {"coordinates":[[-122.36692,37.63153],[-122.36504,37.63888],[-122.36299,37.67992],[-122.38284,37.70698],[-122.41444,37.7036],[-122.43241,37.6868],[-122.45765,37.65303],[-122.46086,37.63056],[-122.45654,37.56379],[-122.43528,37.53327],[-122.40557,37.50005],[-122.26662,37.46393],[-122.21801,37.45291],[-122.16721,37.44144],[-122.12406,37.43166],[-122.09631,37.42537],[-122.03819,37.41207],[-121.98948,37.40098],[-121.88531,37.37669],[-121.73951,37.34343],[-121.70908,37.33656],[-121.5978,37.31076],[-121.53307,37.29567],[-121.4532,37.27662],[-121.40527,37.26547],[-121.30393,37.24146],[-121.2541,37.22982]],"type":"LineString"}
}
