{
  "id": 2014681445,
  "type": "Feature",
  "properties": {
    "geom:area": 0,
    "geom:bbox": "-122.852730,37.439690,-122.147040,38.513110",
    "geom:latitude": 37.84802472334208,
    "geom:longitude": -122.52043406286641,
    "src:alt_label": "swim-approach",
    "src:geom": "swim",
    "swim:elevations": [
      7933,
      7731,
      7479,
      7029,
      6971,
      6754,
      6705,
      6474,
      6198,
      6065,
      5777,
      5538,
      5273,
      5093,
      4929,
      4822,
      4385,
      4160,
      3887,
      3693,
      3534,
      3381,
      3352,
      3353,
      3353,
      3353,
      3353,
      3213,
      2998,
      2821,
      2626,
      2487,
      2181,
      1995,
      1931,
      1840,
      1614,
      1468,
      1306,
      1087,
      862,
      730,
      539,
      433,
      333,
      279,
      210,
      150,
      145,
      0
    ],
    "swim:geom": "approach",
    "swim:timestamps": [
      1769849059,
      1769849080,
      1769849106,
      1769849154,
      1769849162,
      1769849185,
      1769849192,
      1769849215,
      1769849246,
      1769849261,
      1769849295,
      1769849321,
      1769849358,
      1769849376,
      1769849394,
      1769849405,
      1769849453,
      1769849480,
      1769849513,
      1769849535,
      1769849556,
      1769849576,
      1769849585,
      1769849617,
      1769849645,
      1769849690,
      1769849704,
      1769849728,
      1769849756,
      1769849785,
      1769849807,
      1769849825,
      1769849856,
      1769849876,
      1769849883,
      1769849893,
      1769849922,
      1769849941,
      1769849975,
      1769850011,
      1769850050,
      1769850076,
      1769850117,
      1769850145,
      1769850167,
      1769850182,
      1769850201,
      1769850220,
      1769850223,
      1769850260
    ],
    "wof:geomhash": "6437369fb14be411e328de38c6880b8c",
    "wof:id": 2014681445,
    "wof:repo": "sfomuseum-data-flights-2026-01"
  },
  "bbox": [
    -122.85273,
    37.43969,
    -122.14704,
    38.51311
  ],
  "geometry": {"coordinates":[[-122.85273,38.51311],[-122.84184,38.47873],[-122.82876,38.43366],[-122.80505,38.35376],[-122.80145,38.3415],[-122.79073,38.30439],[-122.78742,38.29304],[-122.77614,38.25439],[-122.76203,38.20509],[-122.75515,38.18124],[-122.73886,38.12577],[-122.72671,38.08412],[-122.70972,38.02605],[-122.70127,37.99664],[-122.69292,37.96799],[-122.68842,37.95224],[-122.65459,37.88241],[-122.62108,37.85],[-122.58005,37.81145],[-122.55303,37.78585],[-122.52846,37.7631],[-122.50617,37.74193],[-122.49619,37.73235],[-122.46122,37.6994],[-122.43104,37.67105],[-122.38657,37.6294],[-122.37363,37.61712],[-122.35605,37.59439],[-122.34262,37.56526],[-122.32413,37.5358],[-122.31126,37.51445],[-122.30074,37.49725],[-122.27928,37.46958],[-122.25465,37.46011],[-122.24593,37.45733],[-122.23333,37.45313],[-122.19927,37.44163],[-122.17548,37.43969],[-122.14704,37.46482],[-122.15928,37.49763],[-122.19056,37.53005],[-122.21216,37.54949],[-122.25324,37.56744],[-122.27783,37.57781],[-122.29491,37.58511],[-122.30561,37.58954],[-122.31974,37.59549],[-122.33364,37.60136],[-122.33589,37.60233],[-122.36315,37.61406]],"type":"LineString"}
}
