{
  "id": 2014681191,
  "type": "Feature",
  "properties": {
    "geom:area": 0,
    "geom:bbox": "-122.363000,36.718570,-121.875550,37.615190",
    "geom:latitude": 37.21616050147616,
    "geom:longitude": -122.07075654706757,
    "src:alt_label": "swim-approach",
    "src:geom": "swim",
    "swim:elevations": [
      5022,
      4688,
      4349,
      4052,
      3903,
      3539,
      3314,
      3173,
      3107,
      2989,
      2809,
      2661,
      2569,
      2365,
      2133,
      1902,
      1767,
      1613,
      1478,
      1217,
      1061,
      925,
      896,
      783,
      697,
      590,
      395,
      296,
      170,
      0
    ],
    "swim:geom": "approach",
    "swim:timestamps": [
      1769896841,
      1769896876,
      1769896915,
      1769896948,
      1769896966,
      1769897008,
      1769897035,
      1769897061,
      1769897093,
      1769897123,
      1769897152,
      1769897174,
      1769897191,
      1769897228,
      1769897269,
      1769897302,
      1769897320,
      1769897356,
      1769897380,
      1769897425,
      1769897458,
      1769897482,
      1769897491,
      1769897512,
      1769897530,
      1769897557,
      1769897605,
      1769897628,
      1769897658,
      1769897697
    ],
    "wof:geomhash": "b28c6da2a263bff0d7e94aa9adfcbcdc",
    "wof:id": 2014681191,
    "wof:repo": "sfomuseum-data-flights-2026-01"
  },
  "bbox": [
    -122.363,
    36.71857,
    -121.87555,
    37.61519
  ],
  "geometry": {"coordinates":[[-121.87555,36.71857],[-121.90413,36.77827],[-121.92311,36.84531],[-121.93855,36.90052],[-121.94675,36.93003],[-121.9704,36.99609],[-121.98646,37.03727],[-122.001,37.07476],[-122.01861,37.12057],[-122.03486,37.162],[-122.05071,37.20135],[-122.0618,37.22988],[-122.07063,37.25304],[-122.08897,37.29916],[-122.10891,37.35023],[-122.12254,37.38664],[-122.1289,37.40576],[-122.14083,37.44049],[-122.14843,37.46173],[-122.16169,37.50245],[-122.1712,37.53156],[-122.17926,37.55176],[-122.1858,37.55752],[-122.20607,37.56509],[-122.22317,37.57085],[-122.24658,37.57841],[-122.2857,37.59008],[-122.30592,37.59604],[-122.33135,37.60364],[-122.363,37.61519]],"type":"LineString"}
}
