{
  "id": 2014684685,
  "type": "Feature",
  "properties": {
    "geom:area": 0,
    "geom:bbox": "-123.305720,37.625190,-122.390940,38.479310",
    "geom:latitude": 38.01062001165635,
    "geom:longitude": -122.88176955116896,
    "src:alt_label": "swim-takeoff",
    "src:geom": "swim",
    "swim:elevations": [
      183,
      822,
      855,
      918,
      1347,
      1492,
      1670,
      2097,
      2426,
      2575,
      2845,
      3259,
      3348,
      3478,
      3730,
      3916,
      4410,
      4654,
      4742,
      5110,
      5362,
      5406,
      5718,
      5801,
      6063,
      6216
    ],
    "swim:geom": "takeoff",
    "swim:timestamps": [
      1769897731,
      1769897788,
      1769897804,
      1769897822,
      1769897871,
      1769897883,
      1769897898,
      1769897937,
      1769897967,
      1769897985,
      1769898012,
      1769898051,
      1769898072,
      1769898111,
      1769898140,
      1769898161,
      1769898207,
      1769898237,
      1769898246,
      1769898291,
      1769898327,
      1769898345,
      1769898378,
      1769898393,
      1769898432,
      1769898452
    ],
    "wof:geomhash": "61ce7d3080a1fd3d957b8dc224889346",
    "wof:id": 2014684685,
    "wof:repo": "sfomuseum-data-flights-2026-01"
  },
  "bbox": [
    -123.30572,
    37.62519,
    -122.39094,
    38.47931
  ],
  "geometry": {"coordinates":[[-122.39094,37.62519],[-122.44182,37.64752],[-122.45804,37.65465],[-122.47861,37.66342],[-122.54054,37.69606],[-122.55534,37.7053],[-122.5743,37.71672],[-122.62478,37.74641],[-122.66422,37.7695],[-122.68913,37.78404],[-122.7273,37.80629],[-122.77671,37.84598],[-122.79885,37.87361],[-122.84426,37.92884],[-122.88082,37.97276],[-122.9072,38.00471],[-122.96693,38.07642],[-123.00607,38.12319],[-123.01797,38.13749],[-123.07816,38.20946],[-123.12735,38.26801],[-123.15251,38.2979],[-123.19911,38.35333],[-123.22058,38.37844],[-123.27682,38.44438],[-123.30572,38.47931]],"type":"LineString"}
}
