{
  "id": 2014685867,
  "type": "Feature",
  "properties": {
    "geom:area": 0,
    "geom:bbox": "-122.451770,36.718510,-121.418320,37.685960",
    "geom:latitude": 37.211531473926655,
    "geom:longitude": -122.01175850428811,
    "src:alt_label": "swim-takeoff",
    "src:geom": "swim",
    "swim:elevations": [
      122,
      677,
      847,
      938,
      1141,
      1640,
      1825,
      1997,
      2518,
      2887,
      3079,
      3300,
      3647,
      3928,
      4317,
      4996,
      5290,
      5544,
      5932,
      6501,
      6758,
      7011,
      7104,
      7109,
      7192,
      7251,
      7350,
      7581,
      7640,
      7926,
      8016,
      8132
    ],
    "swim:geom": "takeoff",
    "swim:timestamps": [
      1769857024,
      1769857064,
      1769857096,
      1769857131,
      1769857161,
      1769857192,
      1769857203,
      1769857216,
      1769857252,
      1769857281,
      1769857298,
      1769857326,
      1769857371,
      1769857396,
      1769857421,
      1769857468,
      1769857495,
      1769857528,
      1769857558,
      1769857613,
      1769857636,
      1769857672,
      1769857707,
      1769857712,
      1769857743,
      1769857781,
      1769857811,
      1769857852,
      1769857861,
      1769857916,
      1769857936,
      1769857954
    ],
    "wof:geomhash": "d51894f86088c4f3df9bff4cc56d0052",
    "wof:id": 2014685867,
    "wof:repo": "sfomuseum-data-flights-2026-01"
  },
  "bbox": [
    -122.45177,
    36.71851,
    -121.41832,
    37.68596
  ],
  "geometry": {"coordinates":[[-122.36939,37.62861],[-122.36174,37.65789],[-122.36944,37.68199],[-122.4111,37.68596],[-122.44703,37.66688],[-122.45177,37.62901],[-122.4501,37.61537],[-122.44808,37.59987],[-122.43278,37.55599],[-122.41103,37.52289],[-122.39788,37.50371],[-122.3701,37.47005],[-122.30745,37.42117],[-122.27021,37.39199],[-122.23429,37.36377],[-122.1671,37.31137],[-122.13004,37.28239],[-122.08369,37.24598],[-122.04024,37.21189],[-121.96471,37.15252],[-121.9322,37.12691],[-121.88452,37.08929],[-121.83296,37.04837],[-121.82639,37.04315],[-121.77816,37.00498],[-121.71707,36.95667],[-121.66786,36.91761],[-121.59697,36.86123],[-121.58216,36.84947],[-121.48535,36.77276],[-121.45047,36.74483],[-121.41832,36.71851]],"type":"LineString"}
}
