{
  "id": 2014682501,
  "type": "Feature",
  "properties": {
    "geom:area": 0,
    "geom:bbox": "-122.360500,37.491350,-121.245500,37.614440",
    "geom:latitude": 37.54710469791436,
    "geom:longitude": -121.80789839677783,
    "src:alt_label": "swim-approach",
    "src:geom": "swim",
    "swim:elevations": [
      4884,
      4615,
      4403,
      3966,
      3705,
      3366,
      3282,
      3107,
      3064,
      2791,
      2627,
      2378,
      2313,
      2075,
      1949,
      1857,
      1624,
      1537,
      1352,
      1124,
      1083,
      857,
      808,
      645,
      437,
      385,
      210,
      66,
      115
    ],
    "swim:geom": "approach",
    "swim:timestamps": [
      1769882875,
      1769882900,
      1769882922,
      1769882966,
      1769882992,
      1769883028,
      1769883042,
      1769883088,
      1769883100,
      1769883140,
      1769883164,
      1769883208,
      1769883217,
      1769883257,
      1769883292,
      1769883310,
      1769883355,
      1769883372,
      1769883402,
      1769883448,
      1769883454,
      1769883499,
      1769883512,
      1769883544,
      1769883592,
      1769883604,
      1769883644,
      1769883679,
      1769883694
    ],
    "wof:geomhash": "8c0aa412e26cdc591b3efc9405aa1551",
    "wof:id": 2014682501,
    "wof:repo": "sfomuseum-data-flights-2026-01"
  },
  "bbox": [
    -122.3605,
    37.49135,
    -121.2455,
    37.61444
  ],
  "geometry": {"coordinates":[[-121.2455,37.59495],[-121.29636,37.5885],[-121.33935,37.5841],[-121.42602,37.57414],[-121.47411,37.56837],[-121.5414,37.56052],[-121.56694,37.55754],[-121.64426,37.54611],[-121.66329,37.54157],[-121.72293,37.52739],[-121.76035,37.51842],[-121.82545,37.50279],[-121.83863,37.49959],[-121.89763,37.49135],[-121.95,37.49288],[-121.97524,37.49362],[-122.03093,37.50847],[-122.05007,37.51472],[-122.08426,37.52592],[-122.13534,37.54256],[-122.14173,37.54466],[-122.18819,37.55968],[-122.20151,37.56373],[-122.23274,37.57395],[-122.27654,37.58748],[-122.28694,37.59062],[-122.32082,37.60054],[-122.34858,37.60995],[-122.3605,37.61444]],"type":"LineString"}
}
