{
  "id": 2014682531,
  "type": "Feature",
  "properties": {
    "geom:area": 0,
    "geom:bbox": "-122.561510,36.729010,-121.882860,37.675720",
    "geom:latitude": 37.43413692045259,
    "geom:longitude": -122.2431710419404,
    "src:alt_label": "swim-approach",
    "src:geom": "swim",
    "swim:elevations": [
      5238,
      4985,
      4759,
      4573,
      4362,
      4243,
      4079,
      3833,
      3708,
      3482,
      3137,
      3113,
      3004,
      2956,
      2785,
      2554,
      2418,
      2284,
      2072,
      1892,
      1855,
      1707,
      1588,
      1309,
      1107,
      980,
      858,
      669,
      558,
      419,
      211,
      180,
      96,
      116,
      413,
      561,
      834,
      1252,
      1524,
      1524,
      1524,
      1524,
      1524,
      1524,
      1524,
      1524,
      1524,
      1524,
      1524,
      1463,
      1338,
      1256,
      1219,
      1143,
      989,
      940,
      811,
      742,
      521,
      503,
      293,
      265,
      170,
      61,
      250,
      665,
      902,
      885,
      915,
      1058,
      1517,
      1524,
      1524,
      1524,
      1524,
      1524,
      1524,
      1524,
      1524,
      1524,
      1524,
      1467,
      1351,
      1276,
      1219,
      1219,
      974,
      788,
      616,
      485,
      411,
      238,
      108,
      0
    ],
    "swim:geom": "approach",
    "swim:timestamps": [
      1769849093,
      1769849117,
      1769849142,
      1769849162,
      1769849185,
      1769849199,
      1769849215,
      1769849241,
      1769849258,
      1769849280,
      1769849331,
      1769849340,
      1769849376,
      1769849384,
      1769849414,
      1769849444,
      1769849467,
      1769849495,
      1769849535,
      1769849560,
      1769849566,
      1769849588,
      1769849617,
      1769849663,
      1769849690,
      1769849707,
      1769849725,
      1769849756,
      1769849775,
      1769849804,
      1769849847,
      1769849856,
      1769849876,
      1769849883,
      1769849903,
      1769849918,
      1769849946,
      1769849972,
      1769850011,
      1769850044,
      1769850050,
      1769850076,
      1769850102,
      1769850121,
      1769850172,
      1769850182,
      1769850204,
      1769850216,
      1769850233,
      1769850248,
      1769850282,
      1769850304,
      1769850356,
      1769850376,
      1769850402,
      1769850413,
      1769850439,
      1769850458,
      1769850507,
      1769850510,
      1769850563,
      1769850572,
      1769850594,
      1769850617,
      1769850638,
      1769850674,
      1769850699,
      1769850715,
      1769850727,
      1769850761,
      1769850804,
      1769850823,
      1769850858,
      1769850875,
      1769850903,
      1769850944,
      1769850972,
      1769851005,
      1769851032,
      1769851055,
      1769851087,
      1769851107,
      1769851128,
      1769851147,
      1769851181,
      1769851208,
      1769851243,
      1769851277,
      1769851309,
      1769851334,
      1769851351,
      1769851399,
      1769851431,
      1769851458
    ],
    "wof:geomhash": "dc30ca6f1bc6fe6837b092f1af3b1ada",
    "wof:id": 2014682531,
    "wof:repo": "sfomuseum-data-flights-2026-01"
  },
  "bbox": [
    -122.56151,
    36.72901,
    -121.88286,
    37.67572
  ],
  "geometry": {"coordinates":[[-121.88286,36.72901],[-121.90117,36.76778],[-121.91304,36.80947],[-121.92193,36.84095],[-121.93219,36.87765],[-121.93856,36.90008],[-121.94618,36.92715],[-121.95981,36.96868],[-121.97001,36.99486],[-121.98293,37.02865],[-122.01323,37.10598],[-122.01789,37.11795],[-122.03653,37.16558],[-122.04062,37.17598],[-122.05493,37.21259],[-122.06915,37.24896],[-122.07991,37.2768],[-122.09279,37.30928],[-122.10964,37.35197],[-122.12018,37.37832],[-122.1225,37.38467],[-122.13003,37.40781],[-122.14042,37.4379],[-122.16067,37.48458],[-122.17905,37.51042],[-122.1907,37.52716],[-122.20287,37.54353],[-122.23709,37.56081],[-122.25797,37.56941],[-122.2876,37.58178],[-122.3229,37.59678],[-122.32993,37.59975],[-122.3458,37.60638],[-122.35155,37.60882],[-122.36862,37.61579],[-122.38343,37.62117],[-122.41542,37.63465],[-122.44873,37.64868],[-122.4987,37.64006],[-122.50683,37.60655],[-122.50322,37.6008],[-122.47613,37.58256],[-122.44689,37.56637],[-122.42557,37.55488],[-122.36274,37.5315],[-122.35078,37.52711],[-122.32283,37.51694],[-122.30787,37.51146],[-122.28676,37.50375],[-122.26878,37.49717],[-122.22807,37.48217],[-122.20348,37.47293],[-122.15464,37.48395],[-122.15764,37.50182],[-122.17536,37.52093],[-122.18407,37.52842],[-122.20459,37.54596],[-122.22185,37.55394],[-122.26409,37.57205],[-122.26657,37.5731],[-122.30845,37.59068],[-122.31522,37.59352],[-122.33232,37.60073],[-122.34986,37.60808],[-122.36727,37.61562],[-122.40293,37.63052],[-122.43263,37.64328],[-122.45227,37.65183],[-122.46545,37.65783],[-122.50513,37.67572],[-122.55627,37.66326],[-122.56151,37.64423],[-122.5348,37.61778],[-122.51634,37.60778],[-122.4868,37.59165],[-122.44261,37.56721],[-122.41034,37.55324],[-122.37243,37.53942],[-122.33962,37.52734],[-122.31245,37.51749],[-122.27674,37.50152],[-122.25604,37.48997],[-122.23267,37.47704],[-122.21315,37.46606],[-122.17141,37.46728],[-122.1576,37.49207],[-122.17872,37.52419],[-122.20798,37.54953],[-122.24167,37.5627],[-122.26545,37.57264],[-122.28009,37.57879],[-122.3161,37.59394],[-122.34095,37.60448],[-122.36155,37.61377]],"type":"LineString"}
}
