{
  "id": 2014686275,
  "type": "Feature",
  "properties": {
    "geom:area": 0,
    "geom:bbox": "-122.557300,36.720700,-122.279070,37.683150",
    "geom:latitude": 37.19803813855913,
    "geom:longitude": -122.45984285737882,
    "src:alt_label": "swim-takeoff",
    "src:geom": "swim",
    "swim:elevations": [
      465,
      652,
      1136,
      1495,
      1872,
      2766,
      3148,
      3395,
      3534,
      3894,
      4510,
      4680,
      5560,
      6004,
      6116,
      6262,
      6822,
      7136,
      7322,
      7750,
      8130,
      8239,
      8372,
      8413,
      8652,
      8827,
      9174,
      9405
    ],
    "swim:geom": "takeoff",
    "swim:timestamps": [
      1769887588,
      1769887600,
      1769887640,
      1769887675,
      1769887694,
      1769887735,
      1769887753,
      1769887768,
      1769887783,
      1769887822,
      1769887858,
      1769887867,
      1769887918,
      1769887948,
      1769887955,
      1769887966,
      1769888007,
      1769888035,
      1769888053,
      1769888095,
      1769888128,
      1769888140,
      1769888155,
      1769888161,
      1769888197,
      1769888221,
      1769888260,
      1769888284
    ],
    "wof:geomhash": "1a9e40b831d00bd4549da464578f7f9e",
    "wof:id": 2014686275,
    "wof:repo": "sfomuseum-data-flights-2026-01"
  },
  "bbox": [
    -122.5573,
    36.7207,
    -122.27907,
    37.68315
  ],
  "geometry": {"coordinates":[[-122.36284,37.64724],[-122.36285,37.65655],[-122.37982,37.68315],[-122.41964,37.66976],[-122.42795,37.64783],[-122.43554,37.59772],[-122.44004,37.57556],[-122.44386,37.55697],[-122.44842,37.53675],[-122.46168,37.47927],[-122.47438,37.42067],[-122.47729,37.40521],[-122.49525,37.32218],[-122.50622,37.27292],[-122.50886,37.2611],[-122.51281,37.2431],[-122.52786,37.1737],[-122.53843,37.1256],[-122.54563,37.09341],[-122.5573,37.01752],[-122.52787,36.96188],[-122.50927,36.94398],[-122.48643,36.92157],[-122.4772,36.91252],[-122.42075,36.85784],[-122.38176,36.82045],[-122.31821,36.75874],[-122.27907,36.7207]],"type":"LineString"}
}
