{
  "id": 2014685841,
  "type": "Feature",
  "properties": {
    "geom:area": 0,
    "geom:bbox": "-122.541730,37.013070,-121.247120,37.669030",
    "geom:latitude": 37.30288803909744,
    "geom:longitude": -121.98546814474965,
    "src:alt_label": "swim-takeoff",
    "src:geom": "swim",
    "swim:elevations": [
      122,
      497,
      608,
      958,
      1041,
      1243,
      1620,
      2136,
      2509,
      3030,
      3279,
      3469,
      3601,
      4002,
      4161,
      4338,
      4626,
      4940,
      5229,
      5430,
      5820,
      6010,
      6298,
      6385,
      6661,
      6896,
      6938,
      7384,
      7546,
      7682,
      7921,
      8212
    ],
    "swim:geom": "takeoff",
    "swim:timestamps": [
      1769901363,
      1769901395,
      1769901407,
      1769901440,
      1769901453,
      1769901486,
      1769901525,
      1769901561,
      1769901592,
      1769901623,
      1769901653,
      1769901684,
      1769901704,
      1769901741,
      1769901759,
      1769901780,
      1769901804,
      1769901832,
      1769901859,
      1769901877,
      1769901925,
      1769901946,
      1769901988,
      1769902000,
      1769902038,
      1769902074,
      1769902080,
      1769902138,
      1769902158,
      1769902175,
      1769902211,
      1769902256
    ],
    "wof:geomhash": "5d5d36e4d936e03e32589fd5f62d4a09",
    "wof:id": 2014685841,
    "wof:repo": "sfomuseum-data-flights-2026-01"
  },
  "bbox": [
    -122.54173,
    37.01307,
    -121.24712,
    37.66903
  ],
  "geometry": {"coordinates":[[-122.39061,37.62544],[-122.41948,37.63826],[-122.43114,37.64324],[-122.46342,37.65664],[-122.47691,37.66235],[-122.51867,37.66903],[-122.54173,37.62993],[-122.50997,37.59453],[-122.47183,37.56709],[-122.43485,37.54076],[-122.3984,37.51485],[-122.35582,37.48591],[-122.32581,37.46555],[-122.27117,37.4273],[-122.24372,37.40786],[-122.21078,37.38491],[-122.17175,37.35789],[-122.12894,37.32829],[-122.08647,37.29853],[-122.05806,37.27867],[-121.98202,37.22525],[-121.94516,37.20209],[-121.85962,37.17382],[-121.83325,37.16704],[-121.74847,37.14489],[-121.66696,37.12382],[-121.65323,37.12025],[-121.51865,37.08497],[-121.47468,37.07339],[-121.43418,37.0628],[-121.35131,37.04087],[-121.24712,37.01307]],"type":"LineString"}
}
