{
  "id": 2014681657,
  "type": "Feature",
  "properties": {
    "geom:area": 0,
    "geom:bbox": "-123.239780,37.425440,-122.128710,38.458000",
    "geom:latitude": 37.890536264927746,
    "geom:longitude": -122.59686277672017,
    "src:alt_label": "swim-approach",
    "src:geom": "swim",
    "swim:elevations": [
      8321,
      8035,
      7937,
      7641,
      7550,
      6996,
      6714,
      6415,
      6278,
      6196,
      5874,
      5445,
      5313,
      5125,
      4876,
      4576,
      4438,
      4131,
      3737,
      3543,
      3429,
      3352,
      3353,
      3353,
      3353,
      3353,
      3145,
      2978,
      2624,
      2332,
      2034,
      1952,
      1816,
      1514,
      1424,
      1222,
      1049,
      922,
      883,
      735,
      486,
      368,
      273,
      146,
      67
    ],
    "swim:geom": "approach",
    "swim:timestamps": [
      1769852956,
      1769852985,
      1769852995,
      1769853025,
      1769853033,
      1769853088,
      1769853115,
      1769853143,
      1769853172,
      1769853189,
      1769853223,
      1769853268,
      1769853287,
      1769853301,
      1769853328,
      1769853357,
      1769853371,
      1769853405,
      1769853446,
      1769853469,
      1769853493,
      1769853537,
      1769853556,
      1769853588,
      1769853608,
      1769853640,
      1769853677,
      1769853701,
      1769853737,
      1769853766,
      1769853795,
      1769853813,
      1769853843,
      1769853883,
      1769853904,
      1769853940,
      1769853987,
      1769854014,
      1769854037,
      1769854055,
      1769854108,
      1769854135,
      1769854158,
      1769854194,
      1769854216
    ],
    "wof:geomhash": "8090d5d674e3ea8aaf1618c120cda32b",
    "wof:id": 2014681657,
    "wof:repo": "sfomuseum-data-flights-2026-01"
  },
  "bbox": [
    -123.23978,
    37.42544,
    -122.12871,
    38.458
  ],
  "geometry": {"coordinates":[[-123.23978,38.458],[-123.17342,38.42578],[-123.14942,38.41357],[-123.08545,38.38175],[-123.06734,38.37352],[-122.95297,38.31687],[-122.89755,38.28933],[-122.83924,38.2603],[-122.78532,38.22934],[-122.76544,38.2062],[-122.74662,38.1523],[-122.72588,38.08136],[-122.71691,38.05046],[-122.71042,38.02824],[-122.6979,37.98491],[-122.68471,37.93966],[-122.67803,37.91898],[-122.64446,37.87218],[-122.59171,37.82237],[-122.56212,37.79475],[-122.53371,37.76788],[-122.4875,37.72411],[-122.46901,37.70671],[-122.43753,37.67709],[-122.41848,37.65924],[-122.38757,37.63006],[-122.35556,37.59495],[-122.34114,37.57048],[-122.31873,37.53208],[-122.30191,37.50331],[-122.28409,37.47314],[-122.27147,37.4564],[-122.23477,37.44105],[-122.18514,37.42544],[-122.15701,37.42713],[-122.12871,37.45931],[-122.13809,37.50783],[-122.16396,37.5297],[-122.19111,37.54151],[-122.21172,37.5501],[-122.26492,37.57248],[-122.28779,37.5821],[-122.30649,37.58991],[-122.3344,37.6017],[-122.3518,37.609]],"type":"LineString"}
}
