{
  "id": 2014685853,
  "type": "Feature",
  "properties": {
    "geom:area": 0,
    "geom:bbox": "-122.373570,37.628280,-121.248770,38.423930",
    "geom:latitude": 38.06717532019696,
    "geom:longitude": -121.9014536517292,
    "src:alt_label": "swim-takeoff",
    "src:geom": "swim",
    "swim:elevations": [
      183,
      414,
      1012,
      1149,
      1373,
      1453,
      1854,
      2164,
      2324,
      2572,
      2993,
      3170,
      3553,
      3831,
      4025,
      4128,
      4362,
      4711,
      5013,
      5232,
      5340,
      5540,
      5733,
      5814,
      5951,
      6157,
      6445,
      6661,
      6813,
      6834
    ],
    "swim:geom": "takeoff",
    "swim:timestamps": [
      1769902164,
      1769902178,
      1769902226,
      1769902245,
      1769902288,
      1769902303,
      1769902336,
      1769902360,
      1769902372,
      1769902394,
      1769902433,
      1769902448,
      1769902489,
      1769902528,
      1769902558,
      1769902577,
      1769902605,
      1769902642,
      1769902672,
      1769902698,
      1769902710,
      1769902740,
      1769902761,
      1769902782,
      1769902815,
      1769902845,
      1769902886,
      1769902918,
      1769902948,
      1769902951
    ],
    "wof:geomhash": "197b17500ed9d313b8e1b0c74c4e464a",
    "wof:id": 2014685853,
    "wof:repo": "sfomuseum-data-flights-2026-01"
  },
  "bbox": [
    -122.37357,
    37.62828,
    -121.24877,
    38.42393
  ],
  "geometry": {"coordinates":[[-122.36644,37.62828],[-122.35724,37.63712],[-122.32393,37.66713],[-122.31137,37.68067],[-122.32326,37.72166],[-122.33227,37.73812],[-122.35307,37.77701],[-122.36741,37.80632],[-122.37357,37.8215],[-122.37196,37.85215],[-122.32414,37.88986],[-122.30038,37.90005],[-122.23354,37.93046],[-122.16619,37.96338],[-122.11096,37.99044],[-122.07295,38.00846],[-122.01763,38.03519],[-121.94085,38.07254],[-121.87978,38.10209],[-121.82454,38.1287],[-121.79876,38.14103],[-121.73201,38.17312],[-121.686,38.19519],[-121.63866,38.21784],[-121.56292,38.25407],[-121.49221,38.28784],[-121.39476,38.33494],[-121.32342,38.37784],[-121.2556,38.41973],[-121.24877,38.42393]],"type":"LineString"}
}
