{
  "id": 2014680723,
  "type": "Feature",
  "properties": {
    "geom:area": 0,
    "geom:bbox": "-122.352390,36.728330,-121.882070,37.609200",
    "geom:latitude": 37.20811836003172,
    "geom:longitude": -122.0693515172131,
    "src:alt_label": "swim-approach",
    "src:geom": "swim",
    "swim:elevations": [
      4976,
      4790,
      4636,
      4227,
      4070,
      3790,
      3707,
      3255,
      3142,
      3104,
      3047,
      2886,
      2573,
      2437,
      2285,
      2203,
      2000,
      1760,
      1602,
      1521,
      1464,
      1293,
      1209,
      963,
      832,
      425,
      392,
      125,
      47
    ],
    "swim:geom": "approach",
    "swim:timestamps": [
      1769892306,
      1769892327,
      1769892348,
      1769892388,
      1769892409,
      1769892442,
      1769892450,
      1769892505,
      1769892538,
      1769892556,
      1769892571,
      1769892604,
      1769892649,
      1769892676,
      1769892704,
      1769892722,
      1769892746,
      1769892775,
      1769892793,
      1769892819,
      1769892841,
      1769892886,
      1769892896,
      1769892919,
      1769892930,
      1769892985,
      1769892991,
      1769893034,
      1769893050
    ],
    "wof:geomhash": "0d6f679373821db6073517abf8c4118d",
    "wof:id": 2014680723,
    "wof:repo": "sfomuseum-data-flights-2026-01"
  },
  "bbox": [
    -122.35239,
    36.72833,
    -121.88207,
    37.6092
  ],
  "geometry": {"coordinates":[[-121.88207,36.72833],[-121.89895,36.76206],[-121.90962,36.79763],[-121.92873,36.86493],[-121.9384,36.89975],[-121.95346,36.95278],[-121.95842,36.96562],[-121.99115,37.04968],[-122.01009,37.09805],[-122.01991,37.1231],[-122.02768,37.14301],[-122.04442,37.18563],[-122.06715,37.24415],[-122.08159,37.28122],[-122.09622,37.31765],[-122.10524,37.34092],[-122.11729,37.37166],[-122.13033,37.40821],[-122.13795,37.43084],[-122.15001,37.46272],[-122.16397,37.48606],[-122.20042,37.52547],[-122.20843,37.53405],[-122.22587,37.55282],[-122.23649,37.55972],[-122.29615,37.58519],[-122.30194,37.58771],[-122.33962,37.60368],[-122.35239,37.6092]],"type":"LineString"}
}
