{
  "id": 2014680115,
  "type": "Feature",
  "properties": {
    "geom:area": 0,
    "geom:bbox": "-122.935780,37.516440,-122.074350,38.384830",
    "geom:latitude": 37.83561447974869,
    "geom:longitude": -122.48425463322701,
    "src:alt_label": "swim-approach",
    "src:geom": "swim",
    "swim:elevations": [
      7468,
      7318,
      6893,
      6679,
      6388,
      6187,
      5852,
      5427,
      5169,
      4641,
      4463,
      3995,
      3926,
      3579,
      3406,
      3353,
      3353,
      3353,
      3332,
      3145,
      2992,
      2578,
      2226,
      2007,
      1833,
      1743,
      1624,
      1287,
      1096,
      1067,
      1000,
      944,
      872,
      671,
      513,
      348,
      263,
      126,
      31
    ],
    "swim:geom": "approach",
    "swim:timestamps": [
      1769868859,
      1769868876,
      1769868922,
      1769868945,
      1769868974,
      1769868996,
      1769869033,
      1769869073,
      1769869098,
      1769869155,
      1769869173,
      1769869228,
      1769869234,
      1769869273,
      1769869315,
      1769869330,
      1769869366,
      1769869390,
      1769869420,
      1769869449,
      1769869470,
      1769869509,
      1769869545,
      1769869581,
      1769869617,
      1769869634,
      1769869655,
      1769869688,
      1769869713,
      1769869750,
      1769869794,
      1769869809,
      1769869832,
      1769869869,
      1769869901,
      1769869936,
      1769869958,
      1769869993,
      1769870011
    ],
    "wof:geomhash": "b1e75b8cd9156e446ee4850c7a381582",
    "wof:id": 2014680115,
    "wof:repo": "sfomuseum-data-flights-2026-01"
  },
  "bbox": [
    -122.93578,
    37.51644,
    -122.07435,
    38.38483
  ],
  "geometry": {"coordinates":[[-122.93578,38.38483],[-122.91285,38.36252],[-122.84845,38.30158],[-122.81736,38.27265],[-122.77884,38.23338],[-122.76101,38.19963],[-122.74381,38.14184],[-122.72561,38.07944],[-122.71434,38.04065],[-122.68907,37.95263],[-122.68133,37.92576],[-122.62626,37.85415],[-122.61882,37.84724],[-122.56952,37.80102],[-122.51971,37.75452],[-122.50354,37.73927],[-122.46803,37.70577],[-122.44489,37.68432],[-122.40271,37.67265],[-122.35713,37.66711],[-122.32462,37.66287],[-122.26844,37.65239],[-122.22059,37.63831],[-122.17305,37.62332],[-122.12622,37.60886],[-122.10447,37.60243],[-122.0823,37.59063],[-122.07435,37.55884],[-122.0775,37.53327],[-122.1116,37.51644],[-122.15911,37.53054],[-122.17423,37.53674],[-122.19797,37.54646],[-122.23575,37.56223],[-122.26738,37.57577],[-122.29565,37.58762],[-122.31324,37.59486],[-122.33965,37.606],[-122.35405,37.61214]],"type":"LineString"}
}
