{
  "id": 2014683653,
  "type": "Feature",
  "properties": {
    "geom:area": 0,
    "geom:bbox": "-122.366970,37.627220,-121.251260,38.436600",
    "geom:latitude": 38.06770135495819,
    "geom:longitude": -121.83457208103016,
    "src:alt_label": "swim-takeoff",
    "src:geom": "swim",
    "swim:elevations": [
      183,
      511,
      908,
      1086,
      1205,
      1488,
      1632,
      1739,
      2184,
      2672,
      2770,
      2812,
      3078,
      3266,
      3439,
      4009,
      4114,
      4353,
      4968,
      5101,
      5413,
      5541,
      5833,
      5999,
      6358,
      6535,
      6659,
      6828,
      7130
    ],
    "swim:geom": "takeoff",
    "swim:timestamps": [
      1769862294,
      1769862316,
      1769862358,
      1769862379,
      1769862392,
      1769862430,
      1769862448,
      1769862460,
      1769862496,
      1769862534,
      1769862542,
      1769862546,
      1769862570,
      1769862600,
      1769862633,
      1769862682,
      1769862696,
      1769862723,
      1769862777,
      1769862792,
      1769862821,
      1769862843,
      1769862881,
      1769862901,
      1769862957,
      1769862981,
      1769863000,
      1769863024,
      1769863066
    ],
    "wof:geomhash": "7ec32ff75369cfd8f6a3c5b66ba3a9af",
    "wof:id": 2014683653,
    "wof:repo": "sfomuseum-data-flights-2026-01"
  },
  "bbox": [
    -122.36697,
    37.62722,
    -121.25126,
    38.4366
  ],
  "geometry": {"coordinates":[[-122.36697,37.62722],[-122.35465,37.63869],[-122.32247,37.65788],[-122.30553,37.66782],[-122.29379,37.67472],[-122.25436,37.69718],[-122.2335,37.70774],[-122.21815,37.71701],[-122.18208,37.75372],[-122.14514,37.79471],[-122.13635,37.80441],[-122.13305,37.80805],[-122.10784,37.83601],[-122.07475,37.87259],[-122.03523,37.91607],[-121.97196,37.9858],[-121.9536,38.00594],[-121.91823,38.04481],[-121.84392,38.12613],[-121.82369,38.14829],[-121.77633,38.1852],[-121.73108,38.20752],[-121.65432,38.24436],[-121.61251,38.26443],[-121.49266,38.32182],[-121.44133,38.34627],[-121.3997,38.36614],[-121.34738,38.39101],[-121.25126,38.4366]],"type":"LineString"}
}
