{
  "id": 2014685629,
  "type": "Feature",
  "properties": {
    "geom:area": 0,
    "geom:bbox": "-122.366280,37.628420,-121.270650,38.115160",
    "geom:latitude": 37.88843383354784,
    "geom:longitude": -121.8265889144899,
    "src:alt_label": "swim-takeoff",
    "src:geom": "swim",
    "swim:elevations": [
      183,
      499,
      598,
      830,
      1185,
      1899,
      2117,
      2603,
      2901,
      3281,
      3488,
      3919,
      4278,
      4397,
      5051,
      5417,
      5542,
      5745,
      6008,
      6291,
      6786,
      7002,
      7396,
      7600
    ],
    "swim:geom": "takeoff",
    "swim:timestamps": [
      1769895556,
      1769895579,
      1769895592,
      1769895619,
      1769895646,
      1769895688,
      1769895700,
      1769895732,
      1769895748,
      1769895778,
      1769895797,
      1769895835,
      1769895866,
      1769895875,
      1769895927,
      1769895954,
      1769895967,
      1769895982,
      1769896003,
      1769896027,
      1769896078,
      1769896099,
      1769896138,
      1769896159
    ],
    "wof:geomhash": "78c1910e67bcaac937e61cb4c3597320",
    "wof:id": 2014685629,
    "wof:repo": "sfomuseum-data-flights-2026-01"
  },
  "bbox": [
    -122.36628,
    37.62842,
    -121.27065,
    38.11516
  ],
  "geometry": {"coordinates":[[-122.36628,37.62842],[-122.3517,37.64118],[-122.3398,37.64782],[-122.31219,37.66352],[-122.2804,37.68258],[-122.22526,37.71232],[-122.20873,37.72093],[-122.16388,37.74409],[-122.13959,37.75679],[-122.09388,37.78002],[-122.06355,37.79528],[-121.99601,37.82871],[-121.93534,37.85338],[-121.9177,37.86046],[-121.80673,37.90483],[-121.74781,37.9281],[-121.71937,37.93929],[-121.68637,37.95237],[-121.63952,37.97077],[-121.5852,37.99208],[-121.46689,38.03857],[-121.41672,38.0585],[-121.32225,38.09523],[-121.27065,38.11516]],"type":"LineString"}
}
