{
  "id": 2014680145,
  "type": "Feature",
  "properties": {
    "geom:area": 0,
    "geom:bbox": "-122.361050,36.724970,-121.880490,37.612410",
    "geom:latitude": 37.210500703704845,
    "geom:longitude": -122.07095710608804,
    "src:alt_label": "swim-approach",
    "src:geom": "swim",
    "swim:elevations": [
      5136,
      4614,
      4467,
      4106,
      3874,
      3764,
      3276,
      3180,
      3047,
      2879,
      2811,
      2448,
      2435,
      2175,
      1772,
      1603,
      1477,
      1250,
      1219,
      1173,
      947,
      697,
      243,
      144,
      0
    ],
    "swim:geom": "approach",
    "swim:timestamps": [
      1769857558,
      1769857617,
      1769857633,
      1769857675,
      1769857701,
      1769857712,
      1769857768,
      1769857781,
      1769857825,
      1769857852,
      1769857861,
      1769857916,
      1769857920,
      1769857963,
      1769858016,
      1769858049,
      1769858076,
      1769858101,
      1769858113,
      1769858143,
      1769858181,
      1769858207,
      1769858276,
      1769858302,
      1769858333
    ],
    "wof:geomhash": "f6f341444d351232ad3e975662ce4c40",
    "wof:id": 2014680145,
    "wof:repo": "sfomuseum-data-flights-2026-01"
  },
  "bbox": [
    -122.36105,
    36.72497,
    -121.88049,
    37.61241
  ],
  "geometry": {"coordinates":[[-121.88049,36.72497],[-121.91631,36.82216],[-121.92362,36.84867],[-121.94318,36.91724],[-121.95534,36.95772],[-121.96212,36.97471],[-121.99588,37.06132],[-122.00351,37.08106],[-122.02777,37.1436],[-122.04219,37.18005],[-122.04665,37.19139],[-122.07491,37.26375],[-122.07682,37.26861],[-122.09765,37.32138],[-122.12358,37.38785],[-122.1369,37.4278],[-122.14793,37.45926],[-122.16167,37.48536],[-122.172,37.49708],[-122.19452,37.52311],[-122.22531,37.55191],[-122.24964,37.5669],[-122.31446,37.59313],[-122.33591,37.60231],[-122.36105,37.61241]],"type":"LineString"}
}
