{
  "id": 2014686213,
  "type": "Feature",
  "properties": {
    "geom:area": 0,
    "geom:bbox": "-122.365940,37.628860,-121.425750,38.479380",
    "geom:latitude": 38.049207536614205,
    "geom:longitude": -121.89352445806931,
    "src:alt_label": "swim-takeoff",
    "src:geom": "swim",
    "swim:elevations": [
      183,
      681,
      822,
      1346,
      1524,
      1523,
      2250,
      2663,
      3026,
      3206,
      3445,
      3923,
      4038,
      4592,
      5050,
      5330,
      5447,
      5914,
      6143,
      6345,
      6793,
      6860,
      7345,
      7420
    ],
    "swim:geom": "takeoff",
    "swim:timestamps": [
      1769863186,
      1769863224,
      1769863235,
      1769863282,
      1769863317,
      1769863320,
      1769863375,
      1769863401,
      1769863427,
      1769863453,
      1769863489,
      1769863522,
      1769863532,
      1769863576,
      1769863613,
      1769863634,
      1769863653,
      1769863694,
      1769863717,
      1769863742,
      1769863796,
      1769863803,
      1769863858,
      1769863865
    ],
    "wof:geomhash": "9c3911413d6a103f1aaa05b4ee73131b",
    "wof:id": 2014686213,
    "wof:repo": "sfomuseum-data-flights-2026-01"
  },
  "bbox": [
    -122.36594,
    37.62886,
    -121.42575,
    38.47938
  ],
  "geometry": {"coordinates":[[-122.36594,37.62886],[-122.33929,37.64782],[-122.33013,37.65301],[-122.28722,37.67828],[-122.24518,37.70176],[-122.24123,37.70385],[-122.18114,37.75431],[-122.15503,37.78337],[-122.12859,37.81232],[-122.09864,37.84556],[-122.05426,37.89464],[-122.00868,37.9451],[-121.99554,37.95943],[-121.93311,38.02736],[-121.87324,38.08171],[-121.8369,38.11348],[-121.80547,38.14131],[-121.73621,38.20404],[-121.69678,38.23937],[-121.65225,38.27899],[-121.55494,38.36522],[-121.54289,38.37595],[-121.43903,38.46771],[-121.42575,38.47938]],"type":"LineString"}
}
