{
  "id": 2014682075,
  "type": "Feature",
  "properties": {
    "geom:area": 0,
    "geom:bbox": "-122.356980,37.491670,-121.249510,37.613630",
    "geom:latitude": 37.546739508323235,
    "geom:longitude": -121.80818678002082,
    "src:alt_label": "swim-approach",
    "src:geom": "swim",
    "swim:elevations": [
      4775,
      4423,
      4213,
      3921,
      3597,
      3536,
      3504,
      3210,
      2986,
      2805,
      2688,
      2439,
      2274,
      2186,
      2068,
      1885,
      1780,
      1706,
      1432,
      1378,
      1193,
      898,
      839,
      592,
      560,
      383,
      241,
      95,
      114
    ],
    "swim:geom": "approach",
    "swim:timestamps": [
      1769886199,
      1769886237,
      1769886260,
      1769886290,
      1769886326,
      1769886341,
      1769886367,
      1769886410,
      1769886441,
      1769886466,
      1769886484,
      1769886532,
      1769886556,
      1769886573,
      1769886602,
      1769886645,
      1769886664,
      1769886677,
      1769886718,
      1769886727,
      1769886754,
      1769886799,
      1769886812,
      1769886865,
      1769886873,
      1769886910,
      1769886947,
      1769886985,
      1769886997
    ],
    "wof:geomhash": "efbd96e18adf7810764d09aec610126f",
    "wof:id": 2014682075,
    "wof:repo": "sfomuseum-data-flights-2026-01"
  },
  "bbox": [
    -122.35698,
    37.49167,
    -121.24951,
    37.61363
  ],
  "geometry": {"coordinates":[[-121.24951,37.5945],[-121.32244,37.58568],[-121.3667,37.58103],[-121.424,37.57451],[-121.49084,37.56666],[-121.51734,37.56356],[-121.56021,37.55846],[-121.62463,37.55057],[-121.67053,37.5398],[-121.70812,37.531],[-121.73413,37.52473],[-121.80449,37.50793],[-121.83853,37.49963],[-121.86291,37.49386],[-121.90649,37.49167],[-121.96946,37.49326],[-121.99756,37.49773],[-122.01431,37.50335],[-122.07095,37.52159],[-122.08316,37.52558],[-122.11904,37.53717],[-122.17701,37.55605],[-122.19216,37.56091],[-122.24471,37.57784],[-122.2517,37.58019],[-122.28546,37.59011],[-122.31552,37.59887],[-122.34764,37.60947],[-122.35698,37.61363]],"type":"LineString"}
}
