{
  "id": 2014682511,
  "type": "Feature",
  "properties": {
    "geom:area": 0,
    "geom:bbox": "-122.319910,36.731240,-121.884210,37.595480",
    "geom:latitude": 37.19729615834971,
    "geom:longitude": -122.06065758588839,
    "src:alt_label": "swim-approach",
    "src:geom": "swim",
    "swim:elevations": [
      4848,
      4585,
      4312,
      4113,
      3870,
      3871,
      3536,
      3521,
      3378,
      3208,
      3076,
      2919,
      2770,
      2621,
      2515,
      2325,
      2234,
      1934,
      1801,
      1644,
      1518,
      1342,
      1307,
      1019,
      886,
      721,
      676,
      465,
      297,
      215
    ],
    "swim:geom": "approach",
    "swim:timestamps": [
      1769858933,
      1769858964,
      1769858998,
      1769859022,
      1769859056,
      1769859060,
      1769859116,
      1769859120,
      1769859150,
      1769859176,
      1769859201,
      1769859234,
      1769859266,
      1769859296,
      1769859324,
      1769859354,
      1769859365,
      1769859417,
      1769859444,
      1769859468,
      1769859491,
      1769859537,
      1769859544,
      1769859597,
      1769859622,
      1769859654,
      1769859661,
      1769859698,
      1769859734,
      1769859753
    ],
    "wof:geomhash": "d35ba29e3a3159eb05ceb9ba81f64d71",
    "wof:id": 2014682511,
    "wof:repo": "sfomuseum-data-flights-2026-01"
  },
  "bbox": [
    -122.31991,
    36.73124,
    -121.88421,
    37.59548
  ],
  "geometry": {"coordinates":[[-121.88421,36.73124],[-121.9052,36.78128],[-121.92087,36.83713],[-121.93181,36.87642],[-121.9468,36.93011],[-121.94864,36.93656],[-121.97836,37.01645],[-121.98042,37.02205],[-121.99595,37.06194],[-122.00955,37.09596],[-122.02128,37.12671],[-122.0364,37.16532],[-122.0503,37.20068],[-122.06282,37.2329],[-122.0749,37.2636],[-122.08731,37.29522],[-122.09213,37.30741],[-122.1118,37.3571],[-122.12164,37.38275],[-122.12886,37.40433],[-122.13611,37.42542],[-122.15184,37.46646],[-122.15455,37.47257],[-122.18374,37.51729],[-122.19811,37.53786],[-122.22782,37.55645],[-122.23452,37.55937],[-122.27282,37.57573],[-122.30444,37.58906],[-122.31991,37.59548]],"type":"LineString"}
}
