{
  "id": 2014682397,
  "type": "Feature",
  "properties": {
    "geom:area": 0,
    "geom:bbox": "-122.663050,37.535610,-122.089850,38.473780",
    "geom:latitude": 37.86547454908195,
    "geom:longitude": -122.43748582597122,
    "src:alt_label": "swim-approach",
    "src:geom": "swim",
    "swim:elevations": [
      8108,
      8028,
      7752,
      7634,
      7351,
      6931,
      6755,
      6178,
      6108,
      5644,
      5464,
      5072,
      4635,
      4305,
      4111,
      3770,
      3555,
      3440,
      3353,
      3353,
      3318,
      3102,
      2965,
      2484,
      2255,
      2029,
      1787,
      1555,
      1423,
      1342,
      1125,
      1004,
      793,
      596,
      551,
      549,
      493,
      451,
      321,
      131,
      0
    ],
    "swim:geom": "approach",
    "swim:timestamps": [
      1769928197,
      1769928212,
      1769928242,
      1769928254,
      1769928275,
      1769928314,
      1769928331,
      1769928385,
      1769928391,
      1769928438,
      1769928456,
      1769928495,
      1769928536,
      1769928567,
      1769928588,
      1769928624,
      1769928648,
      1769928669,
      1769928707,
      1769928720,
      1769928759,
      1769928803,
      1769928818,
      1769928866,
      1769928897,
      1769928924,
      1769928954,
      1769928987,
      1769929016,
      1769929028,
      1769929067,
      1769929091,
      1769929133,
      1769929166,
      1769929178,
      1769929205,
      1769929228,
      1769929237,
      1769929266,
      1769929308,
      1769929347
    ],
    "wof:geomhash": "52275d9543afe1e386aa41bcc6c9afe5",
    "wof:id": 2014682397,
    "wof:repo": "sfomuseum-data-flights-2026-01"
  },
  "bbox": [
    -122.66305,
    37.53561,
    -122.08985,
    38.47378
  ],
  "geometry": {"coordinates":[[-122.51097,38.47378],[-122.53013,38.45566],[-122.55469,38.41043],[-122.5594,38.39016],[-122.56728,38.35562],[-122.58243,38.29117],[-122.58897,38.26298],[-122.60907,38.17728],[-122.61125,38.16786],[-122.62779,38.09509],[-122.6343,38.0674],[-122.64844,38.00712],[-122.66305,37.9434],[-122.66168,37.89597],[-122.63983,37.86835],[-122.59365,37.82424],[-122.56347,37.79563],[-122.53721,37.77083],[-122.49186,37.72821],[-122.47512,37.71655],[-122.41654,37.69777],[-122.35466,37.67951],[-122.33421,37.6733],[-122.26702,37.65171],[-122.22443,37.6371],[-122.18911,37.62511],[-122.15082,37.61192],[-122.10999,37.59754],[-122.08985,37.57597],[-122.09146,37.56493],[-122.11029,37.53561],[-122.135,37.53621],[-122.17621,37.55167],[-122.20924,37.56405],[-122.22064,37.56843],[-122.24522,37.5773],[-122.26522,37.5841],[-122.27337,37.58626],[-122.29933,37.59355],[-122.33512,37.60442],[-122.36585,37.61902]],"type":"LineString"}
}
