{
  "id": 2014682027,
  "type": "Feature",
  "properties": {
    "geom:area": 0,
    "geom:bbox": "-122.998250,37.385150,-122.131100,38.365580",
    "geom:latitude": 37.80049370174903,
    "geom:longitude": -122.50634817631412,
    "src:alt_label": "swim-approach",
    "src:geom": "swim",
    "swim:elevations": [
      7559,
      7392,
      6844,
      6521,
      6270,
      6070,
      5585,
      5451,
      5165,
      5146,
      5075,
      4561,
      4505,
      4051,
      3815,
      3621,
      3381,
      3353,
      3353,
      3353,
      3353,
      3353,
      3199,
      3074,
      2881,
      2717,
      2490,
      2262,
      2162,
      1903,
      1580,
      1492,
      1459,
      1120,
      918,
      914,
      914,
      914,
      741,
      632,
      488,
      330,
      213,
      86,
      0
    ],
    "swim:geom": "approach",
    "swim:timestamps": [
      1769926433,
      1769926448,
      1769926495,
      1769926522,
      1769926547,
      1769926564,
      1769926618,
      1769926633,
      1769926674,
      1769926677,
      1769926686,
      1769926734,
      1769926741,
      1769926785,
      1769926815,
      1769926838,
      1769926868,
      1769926904,
      1769926948,
      1769926978,
      1769927008,
      1769927017,
      1769927065,
      1769927096,
      1769927123,
      1769927146,
      1769927170,
      1769927216,
      1769927234,
      1769927270,
      1769927303,
      1769927330,
      1769927346,
      1769927397,
      1769927424,
      1769927439,
      1769927451,
      1769927463,
      1769927515,
      1769927536,
      1769927566,
      1769927604,
      1769927636,
      1769927668,
      1769927685
    ],
    "wof:geomhash": "403dc3977e2afcb1848fbfeeb08ab519",
    "wof:id": 2014682027,
    "wof:repo": "sfomuseum-data-flights-2026-01"
  },
  "bbox": [
    -122.99825,
    37.38515,
    -122.1311,
    38.36558
  ],
  "geometry": {"coordinates":[[-122.99825,38.36558],[-122.96927,38.34793],[-122.87688,38.29157],[-122.82298,38.25876],[-122.7783,38.22781],[-122.75926,38.20227],[-122.73659,38.11534],[-122.72944,38.09166],[-122.71022,38.02774],[-122.70879,38.02313],[-122.70478,38.00932],[-122.68349,37.93588],[-122.68061,37.92592],[-122.63651,37.86441],[-122.59617,37.8275],[-122.56717,37.8],[-122.52761,37.76248],[-122.48542,37.72259],[-122.43956,37.67953],[-122.41154,37.65302],[-122.38329,37.62623],[-122.37482,37.61816],[-122.34106,37.57028],[-122.32476,37.53818],[-122.30809,37.51062],[-122.29367,37.48758],[-122.27822,37.46257],[-122.24855,37.41491],[-122.2369,37.39709],[-122.19362,37.38515],[-122.16572,37.41076],[-122.151,37.43659],[-122.14227,37.45171],[-122.1311,37.49406],[-122.14718,37.51275],[-122.15668,37.52302],[-122.16552,37.53044],[-122.17574,37.53655],[-122.22353,37.55732],[-122.24266,37.56543],[-122.26961,37.57668],[-122.29969,37.58941],[-122.32335,37.59932],[-122.34667,37.60914],[-122.3584,37.61408]],"type":"LineString"}
}
