{
  "id": 2014682603,
  "type": "Feature",
  "properties": {
    "geom:area": 0,
    "geom:bbox": "-122.359410,37.491210,-121.244420,37.613800",
    "geom:latitude": 37.54701832902464,
    "geom:longitude": -121.80678945480376,
    "src:alt_label": "swim-approach",
    "src:geom": "swim",
    "swim:elevations": [
      5087,
      4620,
      4155,
      3945,
      3678,
      3565,
      3349,
      3244,
      3024,
      2932,
      2703,
      2531,
      2421,
      2255,
      2133,
      1982,
      1888,
      1762,
      1698,
      1553,
      1363,
      1225,
      1057,
      921,
      727,
      603,
      524,
      396,
      229,
      143,
      75
    ],
    "swim:geom": "approach",
    "swim:timestamps": [
      1769892991,
      1769893034,
      1769893078,
      1769893096,
      1769893120,
      1769893133,
      1769893154,
      1769893183,
      1769893225,
      1769893242,
      1769893270,
      1769893300,
      1769893318,
      1769893348,
      1769893374,
      1769893401,
      1769893426,
      1769893451,
      1769893463,
      1769893487,
      1769893521,
      1769893543,
      1769893577,
      1769893600,
      1769893643,
      1769893671,
      1769893690,
      1769893722,
      1769893764,
      1769893785,
      1769893822
    ],
    "wof:geomhash": "61b53c6d03ea193193eb202933c35c1b",
    "wof:id": 2014682603,
    "wof:repo": "sfomuseum-data-flights-2026-01"
  },
  "bbox": [
    -122.35941,
    37.49121,
    -121.24442,
    37.6138
  ],
  "geometry": {"coordinates":[[-121.24442,37.59525],[-121.32807,37.58511],[-121.41123,37.57593],[-121.44575,37.5719],[-121.49088,37.56662],[-121.51422,37.56395],[-121.55358,37.55928],[-121.60674,37.55295],[-121.6744,37.53898],[-121.70102,37.53259],[-121.74363,37.52232],[-121.78955,37.51147],[-121.81612,37.50518],[-121.85988,37.49453],[-121.89796,37.49121],[-121.93564,37.49232],[-121.96918,37.49315],[-122.00002,37.49833],[-122.01451,37.50315],[-122.04426,37.51278],[-122.08451,37.52578],[-122.11056,37.53439],[-122.14905,37.5471],[-122.17394,37.55509],[-122.21702,37.56897],[-122.24087,37.57653],[-122.25672,37.58175],[-122.28274,37.58918],[-122.31725,37.59949],[-122.33441,37.6049],[-122.35941,37.6138]],"type":"LineString"}
}
