{
  "id": 2014682399,
  "type": "Feature",
  "properties": {
    "geom:area": 0,
    "geom:bbox": "-122.356830,37.491510,-121.266520,37.613540",
    "geom:latitude": 37.54585242133562,
    "geom:longitude": -121.81657396913573,
    "src:alt_label": "swim-approach",
    "src:geom": "swim",
    "swim:elevations": [
      4965,
      4653,
      4581,
      4083,
      3822,
      3387,
      3335,
      3292,
      3086,
      2913,
      2755,
      2571,
      2358,
      2338,
      2216,
      2127,
      2067,
      1856,
      1693,
      1617,
      1584,
      1218,
      1033,
      910,
      672,
      576,
      459,
      302,
      179,
      67,
      81
    ],
    "swim:geom": "approach",
    "swim:timestamps": [
      1769891996,
      1769892028,
      1769892034,
      1769892082,
      1769892106,
      1769892148,
      1769892160,
      1769892178,
      1769892208,
      1769892229,
      1769892247,
      1769892277,
      1769892327,
      1769892333,
      1769892354,
      1769892376,
      1769892406,
      1769892445,
      1769892472,
      1769892502,
      1769892511,
      1769892568,
      1769892594,
      1769892616,
      1769892658,
      1769892680,
      1769892701,
      1769892739,
      1769892769,
      1769892801,
      1769892810
    ],
    "wof:geomhash": "5d98b549d522b6ae5847fb1ada606249",
    "wof:id": 2014682399,
    "wof:repo": "sfomuseum-data-flights-2026-01"
  },
  "bbox": [
    -122.35683,
    37.49151,
    -121.26652,
    37.61354
  ],
  "geometry": {"coordinates":[[-121.26652,37.59225],[-121.32692,37.58511],[-121.33826,37.58391],[-121.42847,37.5738],[-121.47387,37.56854],[-121.55261,37.55929],[-121.57453,37.55671],[-121.60647,37.55285],[-121.65605,37.54333],[-121.68987,37.53534],[-121.71865,37.52842],[-121.7667,37.51686],[-121.84163,37.49887],[-121.85027,37.49679],[-121.88087,37.49167],[-121.91396,37.49151],[-121.9561,37.49288],[-122.0062,37.49979],[-122.03937,37.51137],[-122.07346,37.52213],[-122.08342,37.52533],[-122.14157,37.54398],[-122.16786,37.55251],[-122.19012,37.55975],[-122.23239,37.57349],[-122.25357,37.58044],[-122.2736,37.5866],[-122.30549,37.59569],[-122.32848,37.60238],[-122.35102,37.61095],[-122.35683,37.61354]],"type":"LineString"}
}
