{
  "id": 2014686341,
  "type": "Feature",
  "properties": {
    "geom:area": 0,
    "geom:bbox": "-123.247620,37.631780,-122.401030,38.409630",
    "geom:latitude": 37.98136136343415,
    "geom:longitude": -122.85584882217259,
    "src:alt_label": "swim-takeoff",
    "src:geom": "swim",
    "swim:elevations": [
      213,
      667,
      970,
      1039,
      1132,
      1454,
      1661,
      1867,
      2529,
      2880,
      3195,
      3438,
      3597,
      3686,
      4015,
      4439,
      4706,
      4833,
      5170,
      5409,
      5670,
      5780,
      5892,
      6122
    ],
    "swim:geom": "takeoff",
    "swim:timestamps": [
      1769869655,
      1769869688,
      1769869726,
      1769869740,
      1769869754,
      1769869794,
      1769869813,
      1769869832,
      1769869884,
      1769869912,
      1769869936,
      1769869962,
      1769869993,
      1769870011,
      1769870052,
      1769870092,
      1769870120,
      1769870134,
      1769870170,
      1769870197,
      1769870233,
      1769870248,
      1769870260,
      1769870297
    ],
    "wof:geomhash": "532e3edecadb8886762fcec0f4d44fde",
    "wof:id": 2014686341,
    "wof:repo": "sfomuseum-data-flights-2026-01"
  },
  "bbox": [
    -123.24762,
    37.63178,
    -122.40103,
    38.40963
  ],
  "geometry": {"coordinates":[[-122.40103,37.63178],[-122.43769,37.64662],[-122.48071,37.66597],[-122.49706,37.67394],[-122.51506,37.68323],[-122.5686,37.71363],[-122.59523,37.72936],[-122.62207,37.74538],[-122.69881,37.79099],[-122.73948,37.81685],[-122.76915,37.84212],[-122.79791,37.8747],[-122.83303,37.91574],[-122.85575,37.94288],[-122.90732,38.00495],[-122.95913,38.06735],[-122.9971,38.11267],[-123.0154,38.13443],[-123.06504,38.19371],[-123.10148,38.23733],[-123.15348,38.29923],[-123.17461,38.32431],[-123.19208,38.34509],[-123.24762,38.40963]],"type":"LineString"}
}
