{
  "id": 2014684327,
  "type": "Feature",
  "properties": {
    "geom:area": 0,
    "geom:bbox": "-122.366920,37.627890,-121.245880,38.193670",
    "geom:latitude": 38.048193472364176,
    "geom:longitude": -121.91517656454774,
    "src:alt_label": "swim-takeoff",
    "src:geom": "swim",
    "swim:elevations": [
      152,
      538,
      612,
      774,
      867,
      1421,
      1983,
      2383,
      2714,
      2814,
      3073,
      3048,
      3048,
      3048,
      3489,
      4016,
      4212,
      4618,
      5174,
      5543,
      5810,
      6221,
      6266,
      6773,
      6938,
      7276,
      7615,
      7857,
      7952,
      8170,
      8291
    ],
    "swim:geom": "takeoff",
    "swim:timestamps": [
      1769852606,
      1769852632,
      1769852646,
      1769852668,
      1769852676,
      1769852717,
      1769852750,
      1769852773,
      1769852795,
      1769852803,
      1769852839,
      1769852867,
      1769852908,
      1769852916,
      1769852958,
      1769852995,
      1769853017,
      1769853047,
      1769853083,
      1769853115,
      1769853137,
      1769853177,
      1769853181,
      1769853231,
      1769853244,
      1769853271,
      1769853301,
      1769853328,
      1769853336,
      1769853371,
      1769853392
    ],
    "wof:geomhash": "23ac885d2ac71240eda0724c158e3d83",
    "wof:id": 2014684327,
    "wof:repo": "sfomuseum-data-flights-2026-01"
  },
  "bbox": [
    -122.36692,
    37.62789,
    -121.24588,
    38.19367
  ],
  "geometry": {"coordinates":[[-122.36692,37.62789],[-122.35034,37.64403],[-122.33793,37.65073],[-122.31507,37.66261],[-122.30625,37.66739],[-122.25815,37.69855],[-122.24705,37.7402],[-122.24473,37.77044],[-122.24232,37.79968],[-122.24116,37.81009],[-122.23561,37.86078],[-122.23105,37.90522],[-122.22475,37.96924],[-122.22352,37.98303],[-122.21658,38.04896],[-122.19544,38.10879],[-122.15677,38.13228],[-122.09014,38.14008],[-122.00808,38.14573],[-121.93662,38.15018],[-121.88538,38.15349],[-121.79117,38.15964],[-121.7801,38.16036],[-121.6549,38.16846],[-121.62468,38.17038],[-121.55465,38.17474],[-121.48036,38.17933],[-121.41212,38.18345],[-121.39241,38.18452],[-121.30143,38.19003],[-121.24588,38.19367]],"type":"LineString"}
}
