{
  "id": 2014682413,
  "type": "Feature",
  "properties": {
    "geom:area": 0,
    "geom:bbox": "-122.355920,36.723200,-121.878910,37.610730",
    "geom:latitude": 37.208038538856606,
    "geom:longitude": -122.06930471455796,
    "src:alt_label": "swim-approach",
    "src:geom": "swim",
    "swim:elevations": [
      5197,
      4952,
      4617,
      4354,
      4086,
      3973,
      3540,
      3259,
      3188,
      3094,
      2864,
      2705,
      2528,
      2392,
      2279,
      2125,
      2070,
      1856,
      1699,
      1573,
      1494,
      1186,
      987,
      891,
      712,
      547,
      388,
      332,
      248,
      91,
      27
    ],
    "swim:geom": "approach",
    "swim:timestamps": [
      1769892689,
      1769892713,
      1769892746,
      1769892772,
      1769892804,
      1769892815,
      1769892865,
      1769892896,
      1769892907,
      1769892942,
      1769892988,
      1769893010,
      1769893041,
      1769893069,
      1769893093,
      1769893120,
      1769893133,
      1769893164,
      1769893183,
      1769893218,
      1769893230,
      1769893283,
      1769893315,
      1769893333,
      1769893368,
      1769893398,
      1769893434,
      1769893444,
      1769893463,
      1769893497,
      1769893515
    ],
    "wof:geomhash": "9977211cb27f43cfc4314a4373169e7e",
    "wof:id": 2014682413,
    "wof:repo": "sfomuseum-data-flights-2026-01"
  },
  "bbox": [
    -122.35592,
    36.7232,
    -121.87891,
    37.61073
  ],
  "geometry": {"coordinates":[[-121.87891,36.7232],[-121.89961,36.76412],[-121.91696,36.82294],[-121.92951,36.86809],[-121.94427,36.92071],[-121.94931,36.9389],[-121.97795,37.01584],[-121.99672,37.06368],[-122.00304,37.08017],[-122.02345,37.13235],[-122.04823,37.19555],[-122.05919,37.22369],[-122.07489,37.26392],[-122.08859,37.29856],[-122.09972,37.32625],[-122.11074,37.35448],[-122.11549,37.3667],[-122.12597,37.39567],[-122.13192,37.41308],[-122.14251,37.44437],[-122.14663,37.45524],[-122.17161,37.49992],[-122.18913,37.52501],[-122.19901,37.53879],[-122.22906,37.55678],[-122.25818,37.56931],[-122.2903,37.58254],[-122.29858,37.58611],[-122.31326,37.5923],[-122.34168,37.60464],[-122.35592,37.61073]],"type":"LineString"}
}
