{
  "id": 2014685887,
  "type": "Feature",
  "properties": {
    "geom:area": 0,
    "geom:bbox": "-122.366920,37.627560,-121.253950,38.267880",
    "geom:latitude": 37.98529993745719,
    "geom:longitude": -121.83409710463859,
    "src:alt_label": "swim-takeoff",
    "src:geom": "swim",
    "swim:elevations": [
      122,
      362,
      997,
      1234,
      1565,
      1915,
      2593,
      3179,
      3337,
      3700,
      4312,
      4659,
      4803,
      5417,
      5948,
      6096,
      6578,
      6644,
      7017,
      7451,
      7805,
      8027,
      8375
    ],
    "swim:geom": "takeoff",
    "swim:timestamps": [
      1769878248,
      1769878262,
      1769878307,
      1769878331,
      1769878366,
      1769878390,
      1769878428,
      1769878463,
      1769878479,
      1769878523,
      1769878557,
      1769878587,
      1769878599,
      1769878635,
      1769878678,
      1769878690,
      1769878735,
      1769878741,
      1769878776,
      1769878817,
      1769878855,
      1769878876,
      1769878913
    ],
    "wof:geomhash": "bd60c85b7df8f51d75396e1287fbb5bf",
    "wof:id": 2014685887,
    "wof:repo": "sfomuseum-data-flights-2026-01"
  },
  "bbox": [
    -122.36692,
    37.62756,
    -121.25395,
    38.26788
  ],
  "geometry": {"coordinates":[[-122.36692,37.62756],[-122.3603,37.63732],[-122.3249,37.65919],[-122.30192,37.67146],[-122.26203,37.69296],[-122.22941,37.71018],[-122.18687,37.74744],[-122.15138,37.78743],[-122.13424,37.80645],[-122.08122,37.8645],[-122.02845,37.90723],[-121.97677,37.94215],[-121.95497,37.95681],[-121.89009,38.00034],[-121.8031,38.04454],[-121.77753,38.05496],[-121.67838,38.09651],[-121.66462,38.10225],[-121.58441,38.13539],[-121.48827,38.17433],[-121.39688,38.21074],[-121.34498,38.23129],[-121.25395,38.26788]],"type":"LineString"}
}
