{
  "id": 2014682443,
  "type": "Feature",
  "properties": {
    "geom:area": 0,
    "geom:bbox": "-122.346220,37.491470,-121.356790,37.609040",
    "geom:latitude": 37.541642031061144,
    "geom:longitude": -121.85558892187213,
    "src:alt_label": "swim-approach",
    "src:geom": "swim",
    "swim:elevations": [
      4280,
      4210,
      3805,
      3596,
      3332,
      3138,
      3055,
      2787,
      2605,
      2548,
      2426,
      2131,
      2007,
      1767,
      1525,
      1524,
      1470,
      1248,
      1161,
      701,
      578,
      477,
      302,
      88
    ],
    "swim:geom": "approach",
    "swim:timestamps": [
      1769857617,
      1769857624,
      1769857668,
      1769857689,
      1769857717,
      1769857765,
      1769857788,
      1769857825,
      1769857852,
      1769857861,
      1769857890,
      1769857936,
      1769857963,
      1769858016,
      1769858065,
      1769858080,
      1769858113,
      1769858153,
      1769858161,
      1769858212,
      1769858232,
      1769858259,
      1769858286,
      1769858333
    ],
    "wof:geomhash": "c99d9e47feebde6902ffa40b0c3b65d2",
    "wof:id": 2014682443,
    "wof:repo": "sfomuseum-data-flights-2026-01"
  },
  "bbox": [
    -122.34622,
    37.49147,
    -121.35679,
    37.60904
  ],
  "geometry": {"coordinates":[[-121.35679,37.58217],[-121.37006,37.58072],[-121.45094,37.571],[-121.48972,37.56633],[-121.54177,37.5604],[-121.62525,37.55037],[-121.66018,37.54217],[-121.71565,37.52909],[-121.75631,37.51945],[-121.76914,37.51629],[-121.81263,37.50575],[-121.88162,37.49147],[-121.92187,37.49219],[-122.00006,37.49845],[-122.0676,37.5205],[-122.08683,37.52668],[-122.12738,37.53981],[-122.17146,37.55409],[-122.18139,37.55722],[-122.23676,37.57533],[-122.25796,37.58199],[-122.28379,37.58956],[-122.30649,37.59628],[-122.34622,37.60904]],"type":"LineString"}
}
