{
  "id": 2014682345,
  "type": "Feature",
  "properties": {
    "geom:area": 0,
    "geom:bbox": "-122.347790,36.730500,-121.883900,37.609770",
    "geom:latitude": 37.21679169566004,
    "geom:longitude": -122.06907111666766,
    "src:alt_label": "swim-approach",
    "src:geom": "swim",
    "swim:elevations": [
      5399,
      5027,
      4624,
      4363,
      4195,
      3793,
      3665,
      3241,
      3224,
      3085,
      3075,
      2948,
      2803,
      2619,
      2464,
      2248,
      1983,
      1884,
      1796,
      1694,
      1617,
      1408,
      1343,
      1188,
      942,
      839,
      773,
      668,
      606,
      346,
      249,
      172,
      76,
      61
    ],
    "swim:geom": "approach",
    "swim:timestamps": [
      1769927766,
      1769927802,
      1769927841,
      1769927868,
      1769927884,
      1769927926,
      1769927940,
      1769927996,
      1769928002,
      1769928027,
      1769928030,
      1769928058,
      1769928087,
      1769928116,
      1769928144,
      1769928171,
      1769928209,
      1769928224,
      1769928242,
      1769928266,
      1769928281,
      1769928325,
      1769928340,
      1769928364,
      1769928415,
      1769928435,
      1769928447,
      1769928470,
      1769928481,
      1769928536,
      1769928554,
      1769928577,
      1769928597,
      1769928600
    ],
    "wof:geomhash": "a164e208118f25d286a798426e3f9779",
    "wof:id": 2014682345,
    "wof:repo": "sfomuseum-data-flights-2026-01"
  },
  "bbox": [
    -122.34779,
    36.7305,
    -121.8839,
    37.60977
  ],
  "geometry": {"coordinates":[[-121.8839,36.7305],[-121.9074,36.78953],[-121.92618,36.85641],[-121.93852,36.9012],[-121.94595,36.92726],[-121.96997,36.99498],[-121.97839,37.01719],[-122.01099,37.10049],[-122.01453,37.1095],[-122.02763,37.14243],[-122.02909,37.14625],[-122.04208,37.18044],[-122.05538,37.21419],[-122.06833,37.24672],[-122.08005,37.27644],[-122.09173,37.30616],[-122.10797,37.34777],[-122.11446,37.36431],[-122.12177,37.38351],[-122.13029,37.40863],[-122.13554,37.42389],[-122.15065,37.46853],[-122.15526,37.48291],[-122.16269,37.50561],[-122.17821,37.55097],[-122.19446,37.56157],[-122.20691,37.56492],[-122.23041,37.57317],[-122.24138,37.57673],[-122.2949,37.59302],[-122.31029,37.5975],[-122.32911,37.60297],[-122.34534,37.60883],[-122.34779,37.60977]],"type":"LineString"}
}
