{
  "id": 2014686393,
  "type": "Feature",
  "properties": {
    "geom:area": 0,
    "geom:bbox": "-123.464870,36.974080,-122.392500,37.671100",
    "geom:latitude": 37.35915278578719,
    "geom:longitude": -122.9389587627411,
    "src:alt_label": "swim-takeoff",
    "src:geom": "swim",
    "swim:elevations": [
      122,
      696,
      805,
      1120,
      1275,
      1459,
      1863,
      2315,
      2770,
      2948,
      3110,
      3188,
      3289,
      3516,
      3724,
      4032,
      4383,
      4590,
      4951,
      5185,
      5398,
      5637,
      5883,
      6137,
      6274,
      6553,
      6685,
      6784
    ],
    "swim:geom": "takeoff",
    "swim:timestamps": [
      1769903589,
      1769903637,
      1769903652,
      1769903697,
      1769903725,
      1769903746,
      1769903776,
      1769903809,
      1769903842,
      1769903860,
      1769903880,
      1769903903,
      1769903915,
      1769903949,
      1769903991,
      1769904012,
      1769904054,
      1769904078,
      1769904114,
      1769904138,
      1769904170,
      1769904200,
      1769904235,
      1769904268,
      1769904283,
      1769904325,
      1769904347,
      1769904364
    ],
    "wof:geomhash": "3e48b93e1f601d419dce9a95a043c081",
    "wof:id": 2014686393,
    "wof:repo": "sfomuseum-data-flights-2026-01"
  },
  "bbox": [
    -123.46487,
    36.97408,
    -122.3925,
    37.6711
  ],
  "geometry": {"coordinates":[[-122.3925,37.626],[-122.43754,37.64654],[-122.45256,37.65322],[-122.5028,37.6711],[-122.53782,37.65908],[-122.56154,37.64236],[-122.59613,37.61716],[-122.63593,37.59071],[-122.67454,37.56432],[-122.69474,37.54965],[-122.71797,37.53242],[-122.74749,37.5104],[-122.76318,37.49858],[-122.80958,37.46428],[-122.87183,37.41883],[-122.90371,37.39546],[-122.96732,37.34759],[-123.00425,37.31962],[-123.06049,37.27745],[-123.0981,37.24935],[-123.14778,37.21267],[-123.19569,37.17669],[-123.25286,37.13381],[-123.30683,37.09339],[-123.33142,37.07493],[-123.40025,37.02322],[-123.43649,36.99563],[-123.46487,36.97408]],"type":"LineString"}
}
