{
  "id": 2014686391,
  "type": "Feature",
  "properties": {
    "geom:area": 0,
    "geom:bbox": "-122.521240,37.628640,-122.044990,38.497250",
    "geom:latitude": 38.03796426617425,
    "geom:longitude": -122.3120516899301,
    "src:alt_label": "swim-takeoff",
    "src:geom": "swim",
    "swim:elevations": [
      213,
      325,
      850,
      997,
      1241,
      1314,
      1832,
      2262,
      2605,
      2740,
      3166,
      3324,
      3568,
      3663,
      4149,
      4285,
      4615,
      5113,
      5234,
      5425,
      5803,
      6084,
      6140
    ],
    "swim:geom": "takeoff",
    "swim:timestamps": [
      1769881408,
      1769881416,
      1769881460,
      1769881476,
      1769881519,
      1769881530,
      1769881583,
      1769881615,
      1769881643,
      1769881653,
      1769881692,
      1769881718,
      1769881753,
      1769881774,
      1769881824,
      1769881837,
      1769881867,
      1769881912,
      1769881924,
      1769881953,
      1769881996,
      1769882036,
      1769882044
    ],
    "wof:geomhash": "be334e2601ca5f8eaa96e4db4ed4bb98",
    "wof:id": 2014686391,
    "wof:repo": "sfomuseum-data-flights-2026-01"
  },
  "bbox": [
    -122.52124,
    37.62864,
    -122.04499,
    38.49725
  ],
  "geometry": {"coordinates":[[-122.39825,37.62864],[-122.40637,37.63223],[-122.44835,37.65044],[-122.46376,37.65704],[-122.51014,37.6777],[-122.52124,37.68656],[-122.51448,37.74919],[-122.48601,37.78517],[-122.46214,37.82015],[-122.45447,37.83129],[-122.42041,37.88131],[-122.39687,37.9165],[-122.36315,37.96653],[-122.34189,38.00083],[-122.29201,38.08693],[-122.27866,38.10941],[-122.24624,38.16265],[-122.19807,38.24455],[-122.18498,38.26639],[-122.15163,38.3214],[-122.10172,38.40381],[-122.05426,38.48199],[-122.04499,38.49725]],"type":"LineString"}
}
