{
  "id": 2014680263,
  "type": "Feature",
  "properties": {
    "geom:area": 0,
    "geom:bbox": "-123.488080,36.834940,-122.175590,37.606930",
    "geom:latitude": 37.24346242058461,
    "geom:longitude": -122.76019292734081,
    "src:alt_label": "swim-approach",
    "src:geom": "swim",
    "swim:elevations": [
      6157,
      5770,
      5520,
      5219,
      5039,
      4895,
      4666,
      4530,
      4248,
      4110,
      3877,
      3538,
      3363,
      3136,
      3048,
      3048,
      3048,
      2901,
      2832,
      2805,
      2708,
      2578,
      2439,
      2438,
      2438,
      2438,
      2421,
      2321,
      2159,
      1875,
      1548,
      1317,
      1221,
      1048,
      946,
      825,
      794,
      710,
      514,
      376,
      308,
      182,
      139,
      60
    ],
    "swim:geom": "approach",
    "swim:timestamps": [
      1769854656,
      1769854694,
      1769854722,
      1769854756,
      1769854772,
      1769854788,
      1769854811,
      1769854827,
      1769854855,
      1769854871,
      1769854896,
      1769854932,
      1769854953,
      1769854999,
      1769855031,
      1769855040,
      1769855076,
      1769855123,
      1769855154,
      1769855179,
      1769855210,
      1769855234,
      1769855269,
      1769855297,
      1769855308,
      1769855317,
      1769855364,
      1769855383,
      1769855414,
      1769855452,
      1769855485,
      1769855509,
      1769855537,
      1769855571,
      1769855587,
      1769855636,
      1769855651,
      1769855675,
      1769855713,
      1769855751,
      1769855768,
      1769855798,
      1769855809,
      1769855827
    ],
    "wof:geomhash": "12a5959e1a4728991588398af4bbc706",
    "wof:id": 2014680263,
    "wof:repo": "sfomuseum-data-flights-2026-01"
  },
  "bbox": [
    -123.48808,
    36.83494,
    -122.17559,
    37.60693
  ],
  "geometry": {"coordinates":[[-123.48808,36.83494],[-123.41842,36.88306],[-123.37021,36.91582],[-123.31072,36.95627],[-123.28407,36.97461],[-123.25575,36.99394],[-123.21655,37.02053],[-123.19103,37.03769],[-123.14267,37.07024],[-123.11533,37.08849],[-123.07361,37.11695],[-123.01408,37.15677],[-122.9818,37.17836],[-122.91032,37.22619],[-122.86352,37.2552],[-122.85055,37.26015],[-122.79161,37.27437],[-122.7147,37.29242],[-122.6649,37.30399],[-122.62522,37.31325],[-122.57677,37.32446],[-122.54093,37.33274],[-122.48969,37.34465],[-122.44816,37.35419],[-122.43334,37.35759],[-122.41953,37.36073],[-122.35109,37.37646],[-122.32317,37.38288],[-122.28248,37.39216],[-122.23911,37.40214],[-122.20382,37.41148],[-122.1907,37.42944],[-122.18415,37.45488],[-122.17816,37.48184],[-122.17559,37.49484],[-122.19131,37.53165],[-122.2014,37.54201],[-122.22161,37.55447],[-122.25694,37.5691],[-122.28734,37.5819],[-122.3015,37.58778],[-122.32431,37.59742],[-122.33294,37.60104],[-122.34694,37.60693]],"type":"LineString"}
}
