{
  "id": 2014684769,
  "type": "Feature",
  "properties": {
    "geom:area": 0,
    "geom:bbox": "-122.360330,37.636220,-121.315470,37.952980",
    "geom:latitude": 37.83239039817918,
    "geom:longitude": -121.85114135564967,
    "src:alt_label": "swim-takeoff",
    "src:geom": "swim",
    "swim:elevations": [
      313,
      553,
      1013,
      1089,
      1287,
      1565,
      1790,
      2446,
      2758,
      3114,
      3135,
      3416,
      3591,
      3763,
      4090,
      4194,
      4533,
      4852,
      5185,
      5368,
      5693
    ],
    "swim:geom": "takeoff",
    "swim:timestamps": [
      1769861572,
      1769861588,
      1769861633,
      1769861644,
      1769861676,
      1769861723,
      1769861740,
      1769861788,
      1769861812,
      1769861848,
      1769861851,
      1769861904,
      1769861937,
      1769861960,
      1769861993,
      1769862002,
      1769862042,
      1769862074,
      1769862100,
      1769862121,
      1769862169
    ],
    "wof:geomhash": "98ffa3dd38cdf0a6970f417f9d1fa7eb",
    "wof:id": 2014684769,
    "wof:repo": "sfomuseum-data-flights-2026-01"
  },
  "bbox": [
    -122.36033,
    37.63622,
    -121.31547,
    37.95298
  ],
  "geometry": {"coordinates":[[-122.36033,37.63622],[-122.3492,37.64444],[-122.31299,37.66367],[-122.30383,37.6689],[-122.27516,37.68565],[-122.22023,37.71437],[-122.19726,37.72631],[-122.13205,37.76066],[-122.09725,37.77854],[-122.04485,37.80553],[-122.04029,37.80794],[-121.94395,37.83769],[-121.87362,37.85062],[-121.82172,37.86028],[-121.74699,37.87426],[-121.72496,37.87843],[-121.62971,37.89608],[-121.54987,37.91042],[-121.48678,37.92218],[-121.43495,37.93163],[-121.31547,37.95298]],"type":"LineString"}
}
