{
  "id": 2014685909,
  "type": "Feature",
  "properties": {
    "geom:area": 0,
    "geom:bbox": "-122.538330,36.738300,-122.180690,37.698180",
    "geom:latitude": 37.225498902299,
    "geom:longitude": -122.42470042036068,
    "src:alt_label": "swim-takeoff",
    "src:geom": "swim",
    "swim:elevations": [
      213,
      510,
      987,
      1262,
      1474,
      2231,
      2551,
      3163,
      3601,
      3649,
      4288,
      4738,
      5125,
      5750,
      5964,
      6524,
      6796,
      7170,
      7306,
      7732,
      7935,
      8103,
      8184,
      8401,
      8596
    ],
    "swim:geom": "takeoff",
    "swim:timestamps": [
      1769857194,
      1769857216,
      1769857252,
      1769857284,
      1769857303,
      1769857344,
      1769857362,
      1769857396,
      1769857436,
      1769857444,
      1769857495,
      1769857528,
      1769857558,
      1769857617,
      1769857633,
      1769857675,
      1769857701,
      1769857736,
      1769857751,
      1769857797,
      1769857825,
      1769857852,
      1769857861,
      1769857890,
      1769857920
    ],
    "wof:geomhash": "d413a446561cd0e2b83c473756f6f6ce",
    "wof:id": 2014685909,
    "wof:repo": "sfomuseum-data-flights-2026-01"
  },
  "bbox": [
    -122.53833,
    36.7383,
    -122.18069,
    37.69818
  ],
  "geometry": {"coordinates":[[-122.36703,37.63217],[-122.36421,37.64833],[-122.36323,37.67905],[-122.39175,37.69818],[-122.41889,37.69337],[-122.44306,37.64816],[-122.44731,37.62665],[-122.45523,37.58296],[-122.46608,37.52869],[-122.46842,37.51627],[-122.48311,37.43573],[-122.49347,37.38197],[-122.50335,37.33015],[-122.52258,37.22725],[-122.52798,37.19861],[-122.53833,37.12322],[-122.51701,37.07986],[-122.46446,37.02699],[-122.44337,37.00567],[-122.37295,36.93419],[-122.33098,36.89105],[-122.28859,36.84806],[-122.27516,36.83437],[-122.22901,36.78745],[-122.18069,36.7383]],"type":"LineString"}
}
