{
  "id": 2014685939,
  "type": "Feature",
  "properties": {
    "geom:area": 0,
    "geom:bbox": "-122.469300,36.719490,-121.439960,37.713290",
    "geom:latitude": 37.21974781743203,
    "geom:longitude": -122.05770000410111,
    "src:alt_label": "swim-takeoff",
    "src:geom": "swim",
    "swim:elevations": [
      244,
      574,
      920,
      1063,
      1471,
      1581,
      2292,
      2807,
      2968,
      3569,
      3906,
      4190,
      4362,
      4926,
      5469,
      5706,
      5943,
      6219,
      6583,
      6771,
      7099,
      7318,
      7573,
      7883,
      8107,
      8415,
      8515,
      8628,
      8992,
      8992,
      9230,
      9389
    ],
    "swim:geom": "takeoff",
    "swim:timestamps": [
      1769877169,
      1769877194,
      1769877227,
      1769877246,
      1769877298,
      1769877310,
      1769877354,
      1769877384,
      1769877394,
      1769877444,
      1769877477,
      1769877502,
      1769877516,
      1769877556,
      1769877594,
      1769877615,
      1769877652,
      1769877676,
      1769877713,
      1769877733,
      1769877769,
      1769877793,
      1769877821,
      1769877856,
      1769877883,
      1769877923,
      1769877937,
      1769877961,
      1769878009,
      1769878024,
      1769878065,
      1769878087
    ],
    "wof:geomhash": "bb041a3119736be5f28f3f13e1713eea",
    "wof:id": 2014685939,
    "wof:repo": "sfomuseum-data-flights-2026-01"
  },
  "bbox": [
    -122.4693,
    36.71949,
    -121.43996,
    37.71329
  ],
  "geometry": {"coordinates":[[-122.3645,37.63567],[-122.36255,37.65543],[-122.36161,37.68172],[-122.36681,37.69727],[-122.42642,37.71329],[-122.44082,37.70469],[-122.45589,37.65366],[-122.4602,37.61618],[-122.46169,37.60359],[-122.4693,37.53739],[-122.46466,37.48978],[-122.43384,37.45932],[-122.4122,37.44369],[-122.35031,37.39813],[-122.29162,37.35518],[-122.25911,37.33143],[-122.19956,37.28736],[-122.16156,37.2591],[-122.10152,37.21466],[-122.06926,37.19083],[-122.00797,37.14539],[-121.96693,37.1148],[-121.91832,37.07857],[-121.85779,37.03326],[-121.80981,36.99787],[-121.7401,36.94624],[-121.71489,36.92786],[-121.67123,36.89497],[-121.58399,36.82831],[-121.5575,36.80906],[-121.48082,36.7507],[-121.43996,36.71949]],"type":"LineString"}
}
