{
  "id": 2014682353,
  "type": "Feature",
  "properties": {
    "geom:area": 0,
    "geom:bbox": "-123.485680,36.975140,-122.124880,37.613250",
    "geom:latitude": 37.29131355142123,
    "geom:longitude": -122.70908282670548,
    "src:alt_label": "swim-approach",
    "src:geom": "swim",
    "swim:elevations": [
      5535,
      5296,
      5268,
      4823,
      4580,
      4507,
      4093,
      4022,
      3885,
      3765,
      3539,
      3185,
      3121,
      3048,
      3048,
      3048,
      3048,
      3048,
      2982,
      2779,
      2721,
      2655,
      2480,
      2438,
      2438,
      2438,
      2438,
      2219,
      2076,
      2065,
      1952,
      1764,
      1729,
      1502,
      1247,
      1218,
      1017,
      927,
      759,
      733,
      570,
      338,
      289,
      245,
      213,
      142,
      45,
      109
    ],
    "swim:geom": "approach",
    "swim:timestamps": [
      1769893496,
      1769893528,
      1769893531,
      1769893588,
      1769893618,
      1769893627,
      1769893677,
      1769893686,
      1769893704,
      1769893719,
      1769893747,
      1769893791,
      1769893813,
      1769893852,
      1769893865,
      1769893885,
      1769893908,
      1769893930,
      1769893954,
      1769893990,
      1769894023,
      1769894036,
      1769894061,
      1769894093,
      1769894107,
      1769894153,
      1769894168,
      1769894213,
      1769894247,
      1769894250,
      1769894268,
      1769894303,
      1769894312,
      1769894358,
      1769894396,
      1769894403,
      1769894433,
      1769894450,
      1769894484,
      1769894493,
      1769894528,
      1769894578,
      1769894593,
      1769894605,
      1769894614,
      1769894635,
      1769894659,
      1769894672
    ],
    "wof:geomhash": "931da325061e887af1a6f8aca91ee927",
    "wof:id": 2014682353,
    "wof:repo": "sfomuseum-data-flights-2026-01"
  },
  "bbox": [
    -123.48568,
    36.97514,
    -122.12488,
    37.61325
  ],
  "geometry": {"coordinates":[[-123.48568,36.97514],[-123.4235,37.00386],[-123.4177,37.00675],[-123.30874,37.05602],[-123.25214,37.08175],[-123.2353,37.08947],[-123.14361,37.13112],[-123.12676,37.13874],[-123.09538,37.15297],[-123.06854,37.16512],[-123.01832,37.18778],[-122.94158,37.22241],[-122.9055,37.23868],[-122.84135,37.26269],[-122.81971,37.26815],[-122.78821,37.2756],[-122.74861,37.28467],[-122.71141,37.29323],[-122.67192,37.30233],[-122.61359,37.31579],[-122.55889,37.32853],[-122.5378,37.33346],[-122.49844,37.34261],[-122.4464,37.35456],[-122.42461,37.35961],[-122.3556,37.37555],[-122.33258,37.38083],[-122.26455,37.39625],[-122.21604,37.40745],[-122.21193,37.40842],[-122.18722,37.41406],[-122.14101,37.42475],[-122.13047,37.4293],[-122.12488,37.46923],[-122.14657,37.49835],[-122.15046,37.50347],[-122.16646,37.52459],[-122.17844,37.53513],[-122.20858,37.54872],[-122.21691,37.55222],[-122.24934,37.56591],[-122.29311,37.58433],[-122.30442,37.58898],[-122.31334,37.59273],[-122.31985,37.59555],[-122.33534,37.60209],[-122.35341,37.60961],[-122.36081,37.61325]],"type":"LineString"}
}
