{
  "id": 2014680631,
  "type": "Feature",
  "properties": {
    "geom:area": 0,
    "geom:bbox": "-122.792920,37.565510,-122.122600,38.367750",
    "geom:latitude": 37.83856444454712,
    "geom:longitude": -122.49092327321827,
    "src:alt_label": "swim-approach",
    "src:geom": "swim",
    "swim:elevations": [
      7529,
      7070,
      7071,
      6830,
      6356,
      6210,
      5736,
      5563,
      5383,
      4967,
      4863,
      4421,
      4123,
      3744,
      3430,
      3383,
      3353,
      3353,
      3188,
      3003,
      2783,
      2730,
      2673,
      2366,
      1997,
      1787,
      1770,
      1645,
      1647,
      1552,
      1431,
      1373,
      1107,
      787,
      514,
      298,
      205,
      149,
      0
    ],
    "swim:geom": "approach",
    "swim:timestamps": [
      1769886458,
      1769886492,
      1769886513,
      1769886552,
      1769886594,
      1769886606,
      1769886648,
      1769886664,
      1769886684,
      1769886718,
      1769886727,
      1769886769,
      1769886799,
      1769886833,
      1769886865,
      1769886873,
      1769886917,
      1769886941,
      1769886976,
      1769887007,
      1769887039,
      1769887045,
      1769887053,
      1769887096,
      1769887138,
      1769887168,
      1769887171,
      1769887195,
      1769887201,
      1769887228,
      1769887257,
      1769887270,
      1769887308,
      1769887345,
      1769887373,
      1769887406,
      1769887427,
      1769887442,
      1769887474
    ],
    "wof:geomhash": "e2ccb0710efde7077a80c17254b32239",
    "wof:id": 2014680631,
    "wof:repo": "sfomuseum-data-flights-2026-01"
  },
  "bbox": [
    -122.79292,
    37.56551,
    -122.1226,
    38.36775
  ],
  "geometry": {"coordinates":[[-122.79292,38.36775],[-122.78191,38.30525],[-122.77565,38.26959],[-122.76229,38.20542],[-122.74356,38.14056],[-122.73804,38.12196],[-122.71927,38.05898],[-122.71214,38.03452],[-122.70392,38.00546],[-122.68961,37.95564],[-122.68574,37.94251],[-122.65709,37.88479],[-122.62053,37.84976],[-122.57958,37.81075],[-122.54111,37.77459],[-122.53181,37.76586],[-122.4841,37.72097],[-122.4536,37.70654],[-122.40497,37.69291],[-122.36399,37.68175],[-122.3226,37.6702],[-122.31501,37.66799],[-122.30534,37.66525],[-122.25123,37.64986],[-122.19765,37.6338],[-122.15907,37.62195],[-122.15525,37.62074],[-122.12715,37.60886],[-122.1226,37.60384],[-122.12349,37.57899],[-122.14828,37.56551],[-122.16339,37.56658],[-122.20348,37.57278],[-122.24228,37.57879],[-122.27099,37.58597],[-122.30248,37.59515],[-122.32044,37.60029],[-122.33225,37.60401],[-122.35634,37.61339]],"type":"LineString"}
}
