{
  "id": 2014685599,
  "type": "Feature",
  "properties": {
    "geom:area": 0,
    "geom:bbox": "-123.333610,37.630570,-122.403050,38.511470",
    "geom:latitude": 38.03020722559778,
    "geom:longitude": -122.90107380445625,
    "src:alt_label": "swim-takeoff",
    "src:geom": "swim",
    "swim:elevations": [
      299,
      420,
      619,
      740,
      897,
      1091,
      1416,
      1623,
      1899,
      2250,
      2583,
      2958,
      3081,
      3233,
      3281,
      3345,
      3415,
      3573,
      3596,
      4014,
      4233,
      4466,
      4728,
      4797,
      5222,
      5273,
      5553,
      5749,
      5852
    ],
    "swim:geom": "takeoff",
    "swim:timestamps": [
      1769854405,
      1769854416,
      1769854458,
      1769854481,
      1769854495,
      1769854528,
      1769854555,
      1769854571,
      1769854596,
      1769854629,
      1769854659,
      1769854694,
      1769854722,
      1769854763,
      1769854772,
      1769854794,
      1769854804,
      1769854826,
      1769854830,
      1769854880,
      1769854914,
      1769854932,
      1769854977,
      1769854984,
      1769855031,
      1769855040,
      1769855089,
      1769855123,
      1769855137
    ],
    "wof:geomhash": "d1c3a9666d11168302d5b430b3e7ba57",
    "wof:id": 2014685599,
    "wof:repo": "sfomuseum-data-flights-2026-01"
  },
  "bbox": [
    -123.33361,
    37.63057,
    -122.40305,
    38.51147
  ],
  "geometry": {"coordinates":[[-122.40305,37.63057],[-122.41308,37.63467],[-122.45545,37.65369],[-122.48388,37.66618],[-122.50193,37.6741],[-122.54246,37.69748],[-122.57778,37.71868],[-122.59921,37.73133],[-122.63154,37.75034],[-122.67549,37.77607],[-122.71607,37.79991],[-122.76239,37.82994],[-122.78923,37.862],[-122.8337,37.91612],[-122.84326,37.92752],[-122.87014,37.95978],[-122.88236,37.97443],[-122.91069,38.00845],[-122.91581,38.01453],[-122.97957,38.0913],[-123.02427,38.14485],[-123.04825,38.17348],[-123.10888,38.24588],[-123.11856,38.25733],[-123.1834,38.33474],[-123.195,38.34843],[-123.2646,38.43045],[-123.31381,38.48788],[-123.33361,38.51147]],"type":"LineString"}
}
