{
  "id": 2014682803,
  "type": "Feature",
  "properties": {
    "geom:area": 0,
    "geom:bbox": "-122.716260,37.437110,-122.112950,38.048240",
    "geom:latitude": 37.65861878222847,
    "geom:longitude": -122.39300337464871,
    "src:alt_label": "swim-approach",
    "src:geom": "swim",
    "swim:elevations": [
      5249,
      4966,
      4872,
      4539,
      4394,
      3963,
      3738,
      3396,
      3353,
      3353,
      3353,
      3353,
      3353,
      3305,
      3105,
      2909,
      2766,
      2595,
      2427,
      2343,
      2142,
      1902,
      1637,
      1524,
      1524,
      1351,
      1218,
      1032,
      815,
      691,
      583,
      334,
      276,
      62,
      0
    ],
    "swim:geom": "approach",
    "swim:timestamps": [
      1769846403,
      1769846432,
      1769846441,
      1769846474,
      1769846490,
      1769846539,
      1769846554,
      1769846591,
      1769846631,
      1769846657,
      1769846687,
      1769846716,
      1769846753,
      1769846781,
      1769846817,
      1769846848,
      1769846873,
      1769846903,
      1769846930,
      1769846942,
      1769846966,
      1769846986,
      1769847012,
      1769847054,
      1769847072,
      1769847118,
      1769847142,
      1769847170,
      1769847200,
      1769847226,
      1769847241,
      1769847291,
      1769847308,
      1769847356,
      1769847371
    ],
    "wof:geomhash": "753c778eecdb273351715b88616ee6b6",
    "wof:id": 2014682803,
    "wof:repo": "sfomuseum-data-flights-2026-01"
  },
  "bbox": [
    -122.71626,
    37.43711,
    -122.11295,
    38.04824
  ],
  "geometry": {"coordinates":[[-122.71626,38.04824],[-122.70252,38.00076],[-122.69836,37.98641],[-122.68352,37.93529],[-122.67456,37.91034],[-122.61885,37.84792],[-122.60046,37.83056],[-122.55808,37.79081],[-122.51696,37.75219],[-122.49307,37.72955],[-122.46494,37.70301],[-122.43797,37.67756],[-122.40337,37.64498],[-122.37655,37.61977],[-122.35184,37.58438],[-122.33491,37.55158],[-122.32017,37.52646],[-122.3019,37.49745],[-122.28044,37.47281],[-122.266,37.46644],[-122.23582,37.45605],[-122.21032,37.44767],[-122.17804,37.43711],[-122.12957,37.4543],[-122.11295,37.46873],[-122.11767,37.51163],[-122.14534,37.5243],[-122.17555,37.53711],[-122.20586,37.54984],[-122.23287,37.56123],[-122.24834,37.56783],[-122.29743,37.5885],[-122.3117,37.5943],[-122.34879,37.61],[-122.35892,37.61422]],"type":"LineString"}
}
