{
  "id": 2014682307,
  "type": "Feature",
  "properties": {
    "geom:area": 0,
    "geom:bbox": "-123.502660,36.923880,-122.112800,37.612150",
    "geom:latitude": 37.264006739450444,
    "geom:longitude": -122.70271878475101,
    "src:alt_label": "swim-approach",
    "src:geom": "swim",
    "swim:elevations": [
      6153,
      5847,
      5665,
      5302,
      5030,
      4928,
      4740,
      4667,
      4210,
      4000,
      3586,
      3427,
      3330,
      3292,
      3085,
      3050,
      3048,
      2846,
      2727,
      2543,
      2160,
      2074,
      2013,
      1847,
      1829,
      1829,
      1832,
      1829,
      1829,
      1829,
      1829,
      1759,
      1595,
      1431,
      1331,
      1219,
      1219,
      1219,
      975,
      902,
      669,
      639,
      554,
      494,
      370,
      240,
      68,
      0
    ],
    "swim:geom": "approach",
    "swim:timestamps": [
      1769892020,
      1769892052,
      1769892073,
      1769892118,
      1769892144,
      1769892156,
      1769892175,
      1769892184,
      1769892238,
      1769892265,
      1769892296,
      1769892309,
      1769892327,
      1769892336,
      1769892357,
      1769892373,
      1769892409,
      1769892445,
      1769892467,
      1769892490,
      1769892538,
      1769892550,
      1769892559,
      1769892586,
      1769892616,
      1769892640,
      1769892683,
      1769892701,
      1769892739,
      1769892766,
      1769892801,
      1769892824,
      1769892847,
      1769892896,
      1769892919,
      1769892958,
      1769892988,
      1769892996,
      1769893038,
      1769893063,
      1769893108,
      1769893120,
      1769893136,
      1769893151,
      1769893179,
      1769893210,
      1769893250,
      1769893267
    ],
    "wof:geomhash": "98ca07c3e4e0a70faf4eb07897c30bd5",
    "wof:id": 2014682307,
    "wof:repo": "sfomuseum-data-flights-2026-01"
  },
  "bbox": [
    -123.50266,
    36.92388,
    -122.1128,
    37.61215
  ],
  "geometry": {"coordinates":[[-123.50266,36.92388],[-123.43962,36.95734],[-123.39913,36.97818],[-123.31349,37.02396],[-123.26461,37.04947],[-123.24118,37.06169],[-123.20544,37.08031],[-123.18869,37.08903],[-123.08875,37.14101],[-123.04072,37.16595],[-122.98583,37.19434],[-122.96221,37.20654],[-122.93057,37.22303],[-122.91487,37.2311],[-122.87849,37.24936],[-122.84937,37.26009],[-122.78707,37.27558],[-122.73001,37.2862],[-122.69436,37.2866],[-122.65785,37.2868],[-122.58074,37.28556],[-122.56076,37.28494],[-122.54652,37.28449],[-122.50391,37.28309],[-122.45527,37.28154],[-122.4173,37.28185],[-122.35556,37.28842],[-122.32986,37.29125],[-122.27622,37.29702],[-122.24201,37.31065],[-122.21308,37.34314],[-122.19409,37.36475],[-122.17558,37.38601],[-122.13798,37.42903],[-122.1222,37.44722],[-122.1128,37.47968],[-122.12115,37.50619],[-122.12505,37.51146],[-122.16356,37.52984],[-122.18612,37.53926],[-122.2274,37.55671],[-122.23805,37.56113],[-122.25097,37.56658],[-122.26341,37.57182],[-122.28745,37.58194],[-122.31357,37.59276],[-122.34673,37.60683],[-122.35979,37.61215]],"type":"LineString"}
}
