{
  "id": 2014682493,
  "type": "Feature",
  "properties": {
    "geom:area": 0,
    "geom:bbox": "-122.353820,36.727370,-121.881540,37.612150",
    "geom:latitude": 37.21753455346215,
    "geom:longitude": -122.0701047495533,
    "src:alt_label": "swim-approach",
    "src:geom": "swim",
    "swim:elevations": [
      5379,
      4952,
      4885,
      4292,
      4106,
      3797,
      3574,
      3401,
      3197,
      3106,
      2981,
      2749,
      2543,
      2408,
      2367,
      2145,
      1993,
      1906,
      1616,
      1530,
      1405,
      1097,
      911,
      743,
      576,
      457,
      394,
      310,
      244,
      120,
      73,
      33
    ],
    "swim:geom": "approach",
    "swim:timestamps": [
      1769901946,
      1769901985,
      1769901991,
      1769902047,
      1769902065,
      1769902095,
      1769902119,
      1769902138,
      1769902163,
      1769902190,
      1769902223,
      1769902253,
      1769902282,
      1769902318,
      1769902330,
      1769902357,
      1769902378,
      1769902387,
      1769902436,
      1769902456,
      1769902477,
      1769902528,
      1769902558,
      1769902587,
      1769902617,
      1769902647,
      1769902665,
      1769902680,
      1769902695,
      1769902728,
      1769902743,
      1769902752
    ],
    "wof:geomhash": "6168ff1d228ed0efdd01a84e045eb823",
    "wof:id": 2014682493,
    "wof:repo": "sfomuseum-data-flights-2026-01"
  },
  "bbox": [
    -122.35382,
    36.72737,
    -121.88154,
    37.61215
  ],
  "geometry": {"coordinates":[[-121.88154,36.72737],[-121.90875,36.79406],[-121.91178,36.80483],[-121.93939,36.90363],[-121.9481,36.93453],[-121.96555,36.98374],[-121.98021,37.02162],[-121.99189,37.05151],[-122.00641,37.0887],[-122.02222,37.12918],[-122.04032,37.17556],[-122.05643,37.21647],[-122.07158,37.25502],[-122.08945,37.30063],[-122.09505,37.31467],[-122.10688,37.34475],[-122.11579,37.36761],[-122.11961,37.37715],[-122.1372,37.42864],[-122.14416,37.44917],[-122.15146,37.47102],[-122.16864,37.52364],[-122.1804,37.55401],[-122.2116,37.56798],[-122.24439,37.57756],[-122.27261,37.58625],[-122.28746,37.59071],[-122.29878,37.59419],[-122.31043,37.59751],[-122.3364,37.60525],[-122.34754,37.60935],[-122.35382,37.61215]],"type":"LineString"}
}
