{
  "id": 2014685925,
  "type": "Feature",
  "properties": {
    "geom:area": 0,
    "geom:bbox": "-122.554300,36.732810,-121.326660,37.670040",
    "geom:latitude": 37.23488357629906,
    "geom:longitude": -121.99932111976487,
    "src:alt_label": "swim-takeoff",
    "src:geom": "swim",
    "swim:elevations": [
      122,
      382,
      673,
      1004,
      1193,
      1636,
      1969,
      2220,
      2650,
      3018,
      3233,
      3445,
      3524,
      3847,
      4054,
      4167,
      4626,
      4916,
      5062,
      5266,
      5438,
      5598,
      5794,
      5886,
      6165,
      6311,
      6513,
      6729,
      6866,
      7072,
      7131,
      7162
    ],
    "swim:geom": "takeoff",
    "swim:timestamps": [
      1769854902,
      1769854922,
      1769854953,
      1769854999,
      1769855027,
      1769855062,
      1769855089,
      1769855112,
      1769855147,
      1769855179,
      1769855210,
      1769855247,
      1769855259,
      1769855308,
      1769855335,
      1769855354,
      1769855396,
      1769855426,
      1769855448,
      1769855477,
      1769855509,
      1769855530,
      1769855568,
      1769855582,
      1769855629,
      1769855656,
      1769855689,
      1769855717,
      1769855736,
      1769855781,
      1769855798,
      1769855809
    ],
    "wof:geomhash": "6931983727a5c7faaf9d0bd709938a46",
    "wof:id": 2014685925,
    "wof:repo": "sfomuseum-data-flights-2026-01"
  },
  "bbox": [
    -122.5543,
    36.73281,
    -121.32666,
    37.67004
  ],
  "geometry": {"coordinates":[[-122.39633,37.62775],[-122.41621,37.63668],[-122.44858,37.65057],[-122.50305,37.67004],[-122.54143,37.65687],[-122.5543,37.61737],[-122.5311,37.59088],[-122.50322,37.5725],[-122.45938,37.54313],[-122.41896,37.51543],[-122.37816,37.48733],[-122.32404,37.45039],[-122.30538,37.43793],[-122.22749,37.38483],[-122.18204,37.35291],[-122.14841,37.32955],[-122.07525,37.27928],[-122.02307,37.24326],[-121.98517,37.21718],[-121.93307,37.18108],[-121.87641,37.1419],[-121.83775,37.11508],[-121.76953,37.06741],[-121.74184,37.04808],[-121.65356,36.9865],[-121.60367,36.9516],[-121.53982,36.90682],[-121.48579,36.86889],[-121.4496,36.84335],[-121.36985,36.77757],[-121.3445,36.75125],[-121.32666,36.73281]],"type":"LineString"}
}
