{
  "id": 2014681187,
  "type": "Feature",
  "properties": {
    "geom:area": 0,
    "geom:bbox": "-122.765330,37.560120,-122.124580,38.481850",
    "geom:latitude": 37.88305245949797,
    "geom:longitude": -122.5068718453574,
    "src:alt_label": "swim-approach",
    "src:geom": "swim",
    "swim:elevations": [
      7268,
      7185,
      6764,
      6542,
      6400,
      6095,
      6001,
      5668,
      5498,
      5334,
      5186,
      5129,
      4827,
      4631,
      4319,
      4159,
      4053,
      3850,
      3652,
      3612,
      3350,
      3353,
      3132,
      2814,
      2739,
      2619,
      2154,
      1845,
      1686,
      1525,
      1454,
      1401,
      1260,
      1041,
      850,
      757,
      520,
      447,
      395,
      370,
      299,
      225,
      169,
      86,
      0
    ],
    "swim:geom": "approach",
    "swim:timestamps": [
      1769899971,
      1769899983,
      1769900034,
      1769900061,
      1769900079,
      1769900123,
      1769900135,
      1769900173,
      1769900194,
      1769900227,
      1769900247,
      1769900256,
      1769900296,
      1769900321,
      1769900365,
      1769900383,
      1769900401,
      1769900427,
      1769900459,
      1769900464,
      1769900513,
      1769900542,
      1769900569,
      1769900606,
      1769900612,
      1769900624,
      1769900660,
      1769900689,
      1769900707,
      1769900753,
      1769900781,
      1769900790,
      1769900814,
      1769900844,
      1769900870,
      1769900885,
      1769900936,
      1769900960,
      1769900972,
      1769900982,
      1769901004,
      1769901025,
      1769901043,
      1769901067,
      1769901090
    ],
    "wof:geomhash": "89de9e4000f5b96a531bcd8bf9fc3e21",
    "wof:id": 2014681187,
    "wof:repo": "sfomuseum-data-flights-2026-01"
  },
  "bbox": [
    -122.76533,
    37.56012,
    -122.12458,
    38.48185
  ],
  "geometry": {"coordinates":[[-122.73393,38.48185],[-122.73659,38.46148],[-122.74791,38.37528],[-122.75348,38.33183],[-122.75709,38.30429],[-122.76533,38.23831],[-122.76436,38.2202],[-122.74956,38.16365],[-122.74059,38.13279],[-122.72681,38.08515],[-122.71822,38.05557],[-122.71444,38.04238],[-122.69743,37.98349],[-122.68642,37.94541],[-122.65646,37.88454],[-122.63436,37.86289],[-122.61221,37.84206],[-122.58143,37.813],[-122.54557,37.77914],[-122.53906,37.77295],[-122.48742,37.72467],[-122.44239,37.7081],[-122.39843,37.69611],[-122.34053,37.68081],[-122.33145,37.67846],[-122.3133,37.6737],[-122.25786,37.65874],[-122.21401,37.64555],[-122.18683,37.63707],[-122.12893,37.60622],[-122.12458,37.57897],[-122.12761,37.57099],[-122.14995,37.56062],[-122.18213,37.56012],[-122.2071,37.56661],[-122.21974,37.57045],[-122.25851,37.58214],[-122.27457,37.58694],[-122.28261,37.58927],[-122.28899,37.59119],[-122.30289,37.59531],[-122.31655,37.59936],[-122.32907,37.60305],[-122.34458,37.60796],[-122.35776,37.6144]],"type":"LineString"}
}
