{
  "id": 2014682065,
  "type": "Feature",
  "properties": {
    "geom:area": 0,
    "geom:bbox": "-122.360270,37.491500,-121.246050,37.615520",
    "geom:latitude": 37.54703417854707,
    "geom:longitude": -121.80827303811202,
    "src:alt_label": "swim-approach",
    "src:geom": "swim",
    "swim:elevations": [
      4822,
      4735,
      4559,
      4337,
      4061,
      3662,
      3345,
      3196,
      3140,
      3101,
      3024,
      2787,
      2662,
      2468,
      2385,
      2326,
      2164,
      2111,
      1980,
      1893,
      1776,
      1541,
      1375,
      1211,
      1049,
      938,
      797,
      614,
      446,
      393,
      209,
      121,
      0
    ],
    "swim:geom": "approach",
    "swim:timestamps": [
      1769889658,
      1769889667,
      1769889685,
      1769889706,
      1769889737,
      1769889775,
      1769889808,
      1769889829,
      1769889852,
      1769889863,
      1769889883,
      1769889916,
      1769889934,
      1769889964,
      1769889986,
      1769889995,
      1769890022,
      1769890034,
      1769890077,
      1769890097,
      1769890121,
      1769890165,
      1769890192,
      1769890219,
      1769890252,
      1769890273,
      1769890297,
      1769890336,
      1769890378,
      1769890387,
      1769890436,
      1769890460,
      1769890485
    ],
    "wof:geomhash": "d60ab55fadce50c7cbb28dff66b5af89",
    "wof:id": 2014682065,
    "wof:repo": "sfomuseum-data-flights-2026-01"
  },
  "bbox": [
    -122.36027,
    37.4915,
    -121.24605,
    37.61552
  ],
  "geometry": {"coordinates":[[-121.24605,37.59501],[-121.26325,37.59263],[-121.29748,37.58825],[-121.3373,37.5841],[-121.39415,37.57788],[-121.4656,37.56974],[-121.52589,37.56249],[-121.56303,37.55808],[-121.60383,37.55328],[-121.62132,37.55093],[-121.65527,37.54332],[-121.70698,37.5311],[-121.73526,37.52431],[-121.78048,37.51339],[-121.81189,37.50604],[-121.82478,37.50298],[-121.86316,37.49377],[-121.88029,37.4915],[-121.94024,37.49274],[-121.96565,37.49335],[-121.99648,37.49717],[-122.04934,37.51458],[-122.08193,37.52521],[-122.1147,37.53576],[-122.15187,37.5477],[-122.17415,37.55496],[-122.19846,37.56283],[-122.23736,37.57552],[-122.2748,37.58683],[-122.28244,37.58919],[-122.32181,37.60088],[-122.34146,37.6075],[-122.36027,37.61552]],"type":"LineString"}
}
