{
  "id": 2014682555,
  "type": "Feature",
  "properties": {
    "geom:area": 0,
    "geom:bbox": "-122.357610,36.718860,-121.875960,37.613740",
    "geom:latitude": 37.21328169604555,
    "geom:longitude": -122.06920335673242,
    "src:alt_label": "swim-approach",
    "src:geom": "swim",
    "swim:elevations": [
      5602,
      5254,
      5047,
      4840,
      4268,
      4086,
      3625,
      3589,
      3246,
      3046,
      2902,
      2603,
      2508,
      2186,
      1977,
      1887,
      1806,
      1598,
      1402,
      1210,
      929,
      914,
      914,
      898,
      818,
      649,
      408,
      312,
      140,
      62,
      0
    ],
    "swim:geom": "approach",
    "swim:timestamps": [
      1769848212,
      1769848251,
      1769848272,
      1769848293,
      1769848343,
      1769848360,
      1769848407,
      1769848411,
      1769848442,
      1769848493,
      1769848521,
      1769848554,
      1769848566,
      1769848613,
      1769848642,
      1769848651,
      1769848662,
      1769848687,
      1769848715,
      1769848743,
      1769848783,
      1769848820,
      1769848845,
      1769848853,
      1769848865,
      1769848901,
      1769848943,
      1769848962,
      1769848993,
      1769849020,
      1769849027
    ],
    "wof:geomhash": "b802ba966f3cbd93683bb7a6d06b6352",
    "wof:id": 2014682555,
    "wof:repo": "sfomuseum-data-flights-2026-01"
  },
  "bbox": [
    -122.35761,
    36.71886,
    -121.87596,
    37.61374
  ],
  "geometry": {"coordinates":[[-121.87596,36.71886],[-121.90542,36.78253],[-121.91548,36.81765],[-121.92541,36.85314],[-121.94813,36.93479],[-121.95723,36.96214],[-121.98485,37.03438],[-121.98714,37.04029],[-122.00569,37.08762],[-122.03424,37.16051],[-122.04758,37.19455],[-122.06447,37.23737],[-122.07034,37.25229],[-122.09397,37.31103],[-122.10747,37.34573],[-122.11191,37.35655],[-122.11727,37.36988],[-122.12802,37.39882],[-122.13919,37.43321],[-122.14969,37.46405],[-122.16328,37.50564],[-122.17512,37.53964],[-122.19445,37.55843],[-122.20239,37.56302],[-122.21511,37.56806],[-122.25389,37.5804],[-122.29456,37.59229],[-122.31073,37.59711],[-122.33462,37.60447],[-122.3528,37.61172],[-122.35761,37.61374]],"type":"LineString"}
}
