{
  "id": 2014686075,
  "type": "Feature",
  "properties": {
    "geom:area": 0,
    "geom:bbox": "-122.359940,37.632330,-121.441780,38.511170",
    "geom:latitude": 38.06768766590604,
    "geom:longitude": -121.89818889996364,
    "src:alt_label": "swim-takeoff",
    "src:geom": "swim",
    "swim:elevations": [
      450,
      813,
      949,
      1068,
      1296,
      1476,
      1974,
      2203,
      2728,
      3261,
      3298,
      4117,
      4207,
      4550,
      5180,
      5598,
      5769,
      6080,
      6512,
      6646,
      6961,
      7367,
      7640,
      7797,
      7925,
      8118
    ],
    "swim:geom": "takeoff",
    "swim:timestamps": [
      1769858964,
      1769858994,
      1769859008,
      1769859022,
      1769859056,
      1769859079,
      1769859112,
      1769859124,
      1769859154,
      1769859201,
      1769859212,
      1769859266,
      1769859278,
      1769859304,
      1769859346,
      1769859384,
      1769859406,
      1769859435,
      1769859477,
      1769859491,
      1769859525,
      1769859568,
      1769859597,
      1769859619,
      1769859636,
      1769859661
    ],
    "wof:geomhash": "9dcf8a6cc9309a425da78bc537daca0a",
    "wof:id": 2014686075,
    "wof:repo": "sfomuseum-data-flights-2026-01"
  },
  "bbox": [
    -122.35994,
    37.63233,
    -121.44178,
    38.51117
  ],
  "geometry": {"coordinates":[[-122.35994,37.63233],[-122.33961,37.64487],[-122.33044,37.65091],[-122.31982,37.65762],[-122.28977,37.67618],[-122.2652,37.69097],[-122.22119,37.71411],[-122.2074,37.72542],[-122.17776,37.75875],[-122.1277,37.81414],[-122.11505,37.82806],[-122.04661,37.90321],[-122.03132,37.91997],[-121.99672,37.95849],[-121.94124,38.01931],[-121.88895,38.07671],[-121.85896,38.10963],[-121.817,38.15527],[-121.75477,38.22339],[-121.73418,38.24567],[-121.68306,38.30121],[-121.61646,38.3736],[-121.56974,38.42295],[-121.53081,38.45545],[-121.49514,38.47853],[-121.44178,38.51117]],"type":"LineString"}
}
