{
  "id": 2014685845,
  "type": "Feature",
  "properties": {
    "geom:area": 0,
    "geom:bbox": "-123.470540,37.047370,-122.400810,37.666660",
    "geom:latitude": 37.38631742127888,
    "geom:longitude": -122.9421524733829,
    "src:alt_label": "swim-takeoff",
    "src:geom": "swim",
    "swim:elevations": [
      183,
      521,
      644,
      1087,
      1159,
      1230,
      1871,
      2255,
      2308,
      3057,
      3178,
      3306,
      3519,
      3576,
      3801,
      4069,
      4477,
      4896,
      5196,
      5237,
      5431,
      5713,
      6105,
      6388,
      6671,
      6883,
      7108
    ],
    "swim:geom": "takeoff",
    "swim:timestamps": [
      1769862265,
      1769862297,
      1769862308,
      1769862358,
      1769862379,
      1769862395,
      1769862448,
      1769862476,
      1769862480,
      1769862534,
      1769862542,
      1769862561,
      1769862597,
      1769862609,
      1769862636,
      1769862661,
      1769862696,
      1769862743,
      1769862777,
      1769862784,
      1769862816,
      1769862843,
      1769862881,
      1769862910,
      1769862942,
      1769862971,
      1769863000
    ],
    "wof:geomhash": "86063ba1806c08cc38d48a5749d0af91",
    "wof:id": 2014685845,
    "wof:repo": "sfomuseum-data-flights-2026-01"
  },
  "bbox": [
    -123.47054,
    37.04737,
    -122.40081,
    37.66666
  ],
  "geometry": {"coordinates":[[-122.40081,37.62939],[-122.43177,37.64294],[-122.44245,37.64786],[-122.49599,37.66666],[-122.52213,37.66256],[-122.54099,37.65213],[-122.60394,37.61034],[-122.63894,37.58752],[-122.64399,37.58425],[-122.71214,37.5406],[-122.72304,37.5337],[-122.74705,37.51854],[-122.7958,37.48691],[-122.81376,37.47527],[-122.85572,37.44822],[-122.89345,37.42371],[-122.95023,37.38712],[-123.02648,37.33782],[-123.08294,37.30086],[-123.0947,37.29323],[-123.14857,37.25828],[-123.1964,37.22706],[-123.26148,37.18423],[-123.31214,37.15101],[-123.36844,37.1143],[-123.41977,37.08063],[-123.47054,37.04737]],"type":"LineString"}
}
