{
  "id": 2014685875,
  "type": "Feature",
  "properties": {
    "geom:area": 0,
    "geom:bbox": "-122.365580,37.629860,-121.251550,37.894550",
    "geom:latitude": 37.8027421221117,
    "geom:longitude": -121.82072661303653,
    "src:alt_label": "swim-takeoff",
    "src:geom": "swim",
    "swim:elevations": [
      152,
      752,
      975,
      1117,
      1191,
      1587,
      2083,
      2426,
      3177,
      3295,
      3468,
      3696,
      3907,
      4333,
      4664,
      5318,
      5417,
      5478,
      5766,
      6173,
      6528,
      6722,
      7230,
      7348,
      7434
    ],
    "swim:geom": "takeoff",
    "swim:timestamps": [
      1769848960,
      1769848999,
      1769849015,
      1769849027,
      1769849040,
      1769849083,
      1769849117,
      1769849136,
      1769849189,
      1769849199,
      1769849215,
      1769849246,
      1769849261,
      1769849295,
      1769849321,
      1769849368,
      1769849376,
      1769849388,
      1769849414,
      1769849453,
      1769849488,
      1769849503,
      1769849546,
      1769849556,
      1769849563
    ],
    "wof:geomhash": "201717d536dc4b54d463be3b2bfd4af8",
    "wof:id": 2014685875,
    "wof:repo": "sfomuseum-data-flights-2026-01"
  },
  "bbox": [
    -122.36558,
    37.62986,
    -121.25155,
    37.89455
  ],
  "geometry": {"coordinates":[[-122.36558,37.62986],[-122.33628,37.65141],[-122.32315,37.6584],[-122.31218,37.66424],[-122.29968,37.67129],[-122.25062,37.69924],[-122.20385,37.72355],[-122.17469,37.73388],[-122.08924,37.75526],[-122.07192,37.75941],[-122.04172,37.7669],[-121.9824,37.7816],[-121.95191,37.78885],[-121.87924,37.80617],[-121.82346,37.81947],[-121.72088,37.84389],[-121.70302,37.84692],[-121.675,37.85025],[-121.61626,37.85634],[-121.52395,37.86609],[-121.43685,37.87525],[-121.40042,37.8791],[-121.29477,37.89012],[-121.269,37.89277],[-121.25155,37.89455]],"type":"LineString"}
}
