{
  "id": 2014684727,
  "type": "Feature",
  "properties": {
    "geom:area": 0,
    "geom:bbox": "-122.385510,37.634660,-121.441990,38.510710",
    "geom:latitude": 38.12045746508958,
    "geom:longitude": -122.01595772680179,
    "src:alt_label": "swim-takeoff",
    "src:geom": "swim",
    "swim:elevations": [
      356,
      450,
      674,
      792,
      1101,
      1407,
      1905,
      2079,
      2611,
      2900,
      3356,
      3782,
      3941,
      4055,
      4276,
      4366,
      4564,
      4781,
      5031,
      5248,
      5370,
      5441,
      5507,
      5648,
      5907,
      6158,
      6295,
      6532,
      6616
    ],
    "swim:geom": "takeoff",
    "swim:timestamps": [
      1769900995,
      1769901001,
      1769901025,
      1769901046,
      1769901086,
      1769901106,
      1769901139,
      1769901151,
      1769901200,
      1769901224,
      1769901262,
      1769901297,
      1769901315,
      1769901339,
      1769901386,
      1769901398,
      1769901416,
      1769901440,
      1769901465,
      1769901492,
      1769901522,
      1769901558,
      1769901567,
      1769901588,
      1769901617,
      1769901657,
      1769901681,
      1769901714,
      1769901726
    ],
    "wof:geomhash": "4a2a783c22b08c7f94581b1a73b2964f",
    "wof:id": 2014684727,
    "wof:repo": "sfomuseum-data-flights-2026-01"
  },
  "bbox": [
    -122.38551,
    37.63466,
    -121.44199,
    38.51071
  ],
  "geometry": {"coordinates":[[-122.36081,37.63466],[-122.35685,37.63851],[-122.33986,37.6548],[-122.32119,37.67098],[-122.31143,37.71505],[-122.32625,37.73658],[-122.35067,37.77365],[-122.35796,37.78799],[-122.38551,37.85022],[-122.38522,37.88504],[-122.37329,37.94129],[-122.32479,37.97579],[-122.29743,37.99288],[-122.25902,38.01665],[-122.17589,38.06731],[-122.15325,38.08109],[-122.11907,38.10183],[-122.07339,38.12953],[-122.02402,38.15942],[-121.97028,38.19198],[-121.90732,38.22992],[-121.82977,38.27664],[-121.80959,38.28884],[-121.76226,38.31741],[-121.69577,38.35743],[-121.60246,38.4133],[-121.54742,38.44621],[-121.47013,38.4934],[-121.44199,38.51071]],"type":"LineString"}
}
