{
  "id": 2014681413,
  "type": "Feature",
  "properties": {
    "geom:area": 0,
    "geom:bbox": "-122.361970,37.490360,-121.297840,37.615020",
    "geom:latitude": 37.5447246420022,
    "geom:longitude": -121.8346686190087,
    "src:alt_label": "swim-approach",
    "src:geom": "swim",
    "swim:elevations": [
      4671,
      4562,
      4056,
      3688,
      3483,
      3377,
      3283,
      3217,
      2842,
      2764,
      2500,
      2316,
      2180,
      2101,
      2050,
      1919,
      1868,
      1784,
      1385,
      1185,
      1060,
      886,
      834,
      761,
      727,
      608,
      446,
      328,
      253,
      150,
      88,
      0
    ],
    "swim:geom": "approach",
    "swim:timestamps": [
      1769900666,
      1769900676,
      1769900719,
      1769900749,
      1769900772,
      1769900796,
      1769900817,
      1769900829,
      1769900873,
      1769900882,
      1769900936,
      1769900960,
      1769900977,
      1769900992,
      1769901001,
      1769901028,
      1769901039,
      1769901064,
      1769901115,
      1769901148,
      1769901167,
      1769901191,
      1769901200,
      1769901233,
      1769901251,
      1769901285,
      1769901324,
      1769901345,
      1769901365,
      1769901392,
      1769901413,
      1769901437
    ],
    "wof:geomhash": "c3b359d3a4c59bcea9abc9e640ec36d1",
    "wof:id": 2014681413,
    "wof:repo": "sfomuseum-data-flights-2026-01"
  },
  "bbox": [
    -122.36197,
    37.49036,
    -121.29784,
    37.61502
  ],
  "geometry": {"coordinates":[[-121.29784,37.58792],[-121.31864,37.58549],[-121.41187,37.57517],[-121.47682,37.56783],[-121.52724,37.562],[-121.57563,37.55647],[-121.61492,37.55183],[-121.63588,37.54809],[-121.70801,37.53045],[-121.72253,37.527],[-121.80584,37.50722],[-121.84097,37.49867],[-121.86534,37.49274],[-121.88708,37.49036],[-121.90055,37.49069],[-121.93992,37.49224],[-121.95609,37.49278],[-121.99097,37.49539],[-122.0574,37.51701],[-122.09949,37.53094],[-122.12186,37.53844],[-122.14962,37.54749],[-122.15935,37.55064],[-122.19289,37.56133],[-122.21058,37.56679],[-122.24381,37.57764],[-122.27975,37.58861],[-122.29647,37.59351],[-122.31084,37.59771],[-122.33074,37.60328],[-122.34553,37.60861],[-122.36197,37.61502]],"type":"LineString"}
}
