{
  "id": 2014685995,
  "type": "Feature",
  "properties": {
    "geom:area": 0,
    "geom:bbox": "-122.368500,37.625500,-122.082190,38.504940",
    "geom:latitude": 38.03298344911595,
    "geom:longitude": -122.1758114905253,
    "src:alt_label": "swim-takeoff",
    "src:geom": "swim",
    "swim:elevations": [
      152,
      767,
      878,
      1322,
      1662,
      2349,
      2912,
      3118,
      3463,
      3779,
      4235,
      4947,
      5078,
      5555,
      5852,
      6110,
      6459,
      6504,
      6727,
      6930
    ],
    "swim:geom": "takeoff",
    "swim:timestamps": [
      1769857865,
      1769857912,
      1769857920,
      1769857975,
      1769858016,
      1769858056,
      1769858092,
      1769858105,
      1769858153,
      1769858181,
      1769858216,
      1769858276,
      1769858286,
      1769858333,
      1769858364,
      1769858392,
      1769858426,
      1769858430,
      1769858452,
      1769858482
    ],
    "wof:geomhash": "a1025666870d709658b47b7012dd1323",
    "wof:id": 2014685995,
    "wof:repo": "sfomuseum-data-flights-2026-01"
  },
  "bbox": [
    -122.3685,
    37.6255,
    -122.08219,
    38.50494
  ],
  "geometry": {"coordinates":[[-122.3685,37.6255],[-122.3371,37.64967],[-122.33083,37.65298],[-122.2827,37.68048],[-122.23408,37.70764],[-122.20772,37.75416],[-122.20039,37.80166],[-122.19739,37.82014],[-122.18543,37.89138],[-122.1777,37.93903],[-122.16801,37.99902],[-122.15002,38.10754],[-122.14741,38.12475],[-122.13384,38.21255],[-122.12463,38.27088],[-122.11557,38.32444],[-122.10294,38.39107],[-122.10131,38.39945],[-122.09245,38.44409],[-122.08219,38.50494]],"type":"LineString"}
}
