{
  "id": 2014682379,
  "type": "Feature",
  "properties": {
    "geom:area": 0,
    "geom:bbox": "-122.355140,37.491380,-121.242260,37.612730",
    "geom:latitude": 37.54688911255836,
    "geom:longitude": -121.80361069238525,
    "src:alt_label": "swim-approach",
    "src:geom": "swim",
    "swim:elevations": [
      5070,
      5002,
      4682,
      4612,
      4559,
      4432,
      4105,
      4039,
      3883,
      3672,
      3482,
      3307,
      3203,
      2962,
      2632,
      2552,
      2426,
      2399,
      2253,
      2074,
      1961,
      1873,
      1760,
      1568,
      1453,
      1356,
      1086,
      839,
      762,
      691,
      701,
      653,
      506,
      394,
      300,
      113,
      64
    ],
    "swim:geom": "approach",
    "swim:timestamps": [
      1769849488,
      1769849498,
      1769849546,
      1769849556,
      1769849566,
      1769849582,
      1769849631,
      1769849645,
      1769849675,
      1769849704,
      1769849728,
      1769849752,
      1769849766,
      1769849801,
      1769849843,
      1769849856,
      1769849876,
      1769849880,
      1769849903,
      1769849937,
      1769849966,
      1769849990,
      1769850011,
      1769850050,
      1769850079,
      1769850102,
      1769850138,
      1769850172,
      1769850186,
      1769850204,
      1769850212,
      1769850220,
      1769850260,
      1769850282,
      1769850301,
      1769850350,
      1769850364
    ],
    "wof:geomhash": "7a9202906a7ba4a7bc62b64ad6de5c53",
    "wof:id": 2014682379,
    "wof:repo": "sfomuseum-data-flights-2026-01"
  },
  "bbox": [
    -122.35514,
    37.49138,
    -121.24226,
    37.61273
  ],
  "geometry": {"coordinates":[[-121.24226,37.5955],[-121.25998,37.59314],[-121.34426,37.58329],[-121.36242,37.58133],[-121.37972,37.57942],[-121.4063,37.57636],[-121.48498,37.56715],[-121.50647,37.56466],[-121.54835,37.55974],[-121.58819,37.55507],[-121.62082,37.55105],[-121.65316,37.54405],[-121.67152,37.5397],[-121.71686,37.5288],[-121.77139,37.51574],[-121.78949,37.51142],[-121.81685,37.50486],[-121.82112,37.50384],[-121.85207,37.4964],[-121.89857,37.49138],[-121.93976,37.49233],[-121.97252,37.49342],[-121.99844,37.49814],[-122.04269,37.51256],[-122.07457,37.5228],[-122.09965,37.53087],[-122.13756,37.54332],[-122.17456,37.55534],[-122.18909,37.55999],[-122.20837,37.56621],[-122.217,37.5691],[-122.2251,37.57166],[-122.26673,37.58454],[-122.28763,37.59047],[-122.30344,37.5946],[-122.34406,37.60799],[-122.35514,37.61273]],"type":"LineString"}
}
