{
  "id": 2014686031,
  "type": "Feature",
  "properties": {
    "geom:area": 0,
    "geom:bbox": "-122.369060,37.624830,-122.154440,38.514120",
    "geom:latitude": 38.04479460304977,
    "geom:longitude": -122.20499008929723,
    "src:alt_label": "swim-takeoff",
    "src:geom": "swim",
    "swim:elevations": [
      183,
      449,
      834,
      1064,
      1166,
      1241,
      1305,
      2023,
      2276,
      2743,
      2949,
      3162,
      3336,
      3412,
      3481,
      3723,
      4066,
      4412,
      4731,
      4910,
      4942,
      5188,
      5425,
      5648,
      5918,
      6223,
      6387,
      6548,
      6621
    ],
    "swim:geom": "takeoff",
    "swim:timestamps": [
      1769849451,
      1769849467,
      1769849503,
      1769849535,
      1769849556,
      1769849566,
      1769849585,
      1769849631,
      1769849645,
      1769849675,
      1769849690,
      1769849704,
      1769849728,
      1769849738,
      1769849756,
      1769849779,
      1769849807,
      1769849838,
      1769849862,
      1769849876,
      1769849880,
      1769849897,
      1769849918,
      1769849949,
      1769849978,
      1769850018,
      1769850035,
      1769850053,
      1769850064
    ],
    "wof:geomhash": "4b0149b4c5cca18441d4788517b0b215",
    "wof:id": 2014686031,
    "wof:repo": "sfomuseum-data-flights-2026-01"
  },
  "bbox": [
    -122.36906,
    37.62483,
    -122.15444,
    38.51412
  ],
  "geometry": {"coordinates":[[-122.36906,37.62483],[-122.36032,37.63362],[-122.33527,37.64883],[-122.31083,37.66337],[-122.29183,37.67503],[-122.28187,37.68142],[-122.26757,37.69917],[-122.25294,37.75665],[-122.24894,37.77545],[-122.23992,37.81477],[-122.23458,37.83562],[-122.22957,37.85525],[-122.22075,37.88985],[-122.21698,37.90512],[-122.20995,37.93405],[-122.20047,37.97322],[-122.18834,38.02311],[-122.17478,38.0787],[-122.16378,38.12252],[-122.15752,38.14876],[-122.1565,38.15469],[-122.15444,38.18801],[-122.15477,38.22545],[-122.15556,38.28412],[-122.15656,38.34125],[-122.1576,38.42063],[-122.15804,38.4535],[-122.15841,38.49043],[-122.1587,38.51412]],"type":"LineString"}
}
