{
  "id": 2014681299,
  "type": "Feature",
  "properties": {
    "date:inception_lower": "2026-01-31",
    "date:inception_upper": "2026-01-31",
    "edtf:cessation": "",
    "edtf:inception": "2026-01-31",
    "flysfo:actual_timestamp": -1,
    "flysfo:airline": "LH",
    "flysfo:base_airline": "",
    "flysfo:base_flight_number": "4351",
    "flysfo:date": "2026-01-31",
    "flysfo:estimated_timestamp": 1769916960,
    "flysfo:event": "A",
    "flysfo:flight_number": "LH7923",
    "flysfo:gate": "E4",
    "flysfo:journey": "SBA-SFO",
    "flysfo:scheduled_timestamp": 1769918940,
    "flysfo:timestamp": 1769918940,
    "geom:area": 0,
    "geom:bbox": "-122.370943,34.427974,-119.837133,37.617990",
    "geom:latitude": 36.022982,
    "geom:longitude": -121.104038,
    "iata:airline": "LH",
    "iata:base_airline": "",
    "icao:airline": "DLH",
    "icao:base_airline": "ACA",
    "lbl:latitude": 37.618161,
    "lbl:longitude": -122.384735,
    "sfomuseum:airline_id": 1159286015,
    "sfomuseum:arrival_id": 102527513,
    "sfomuseum:base_flight_id": "20260131-A-ACA-4351",
    "sfomuseum:departure_id": 102527337,
    "sfomuseum:flight_id": "20260131-A-DLH-7923",
    "sfomuseum:flight_number": [
      "DLH7923",
      "LH7923"
    ],
    "sfomuseum:placetype": "flight",
    "src:geom": "flysfo",
    "wof:belongsto": [
      1763588121,
      102527513,
      1763588335,
      102191575,
      85633793,
      102087579,
      85922583,
      554784711,
      85688637,
      1763588337,
      1763588269,
      102085387
    ],
    "wof:country": "US",
    "wof:created": 1769961930,
    "wof:geomhash": "aae625247f3652ef8a50cae9f49d2791",
    "wof:hierarchy": [
      {
        "building_id": 1763588121,
        "campus_id": 102527513,
        "concourse_id": 1763588335,
        "continent_id": 102191575,
        "country_id": 85633793,
        "county_id": 102087579,
        "custom_id": 2014681299,
        "flight_id": 2014681299,
        "locality_id": 85922583,
        "postalcode_id": 554784711,
        "region_id": 85688637,
        "venue_id": 1763588337,
        "wing_id": 1763588269
      },
      {
        "building_id": 1763588121,
        "campus_id": 102527513,
        "concourse_id": 1763588335,
        "continent_id": 102191575,
        "country_id": 85633793,
        "county_id": 102085387,
        "custom_id": 2014681299,
        "flight_id": 2014681299,
        "region_id": 85688637,
        "venue_id": 1763588337,
        "wing_id": 1763588269
      }
    ],
    "wof:id": 2014681299,
    "wof:involves": [
      102527513,
      102527337,
      1159286015,
      1763588337,
      1159283597
    ],
    "wof:lastmodified": 1769961930,
    "wof:name": "LH7923 (SBA-SFO)",
    "wof:parent_id": 1763588337,
    "wof:placetype": "custom",
    "wof:placetype_alt": [
      "flight"
    ],
    "wof:repo": "sfomuseum-data-flights-2026-01",
    "wof:superseded_by": [],
    "wof:supersedes": []
  },
  "bbox": [
    -122.370943,
    34.427974,
    -119.837133,
    37.61799
  ],
  "geometry": {"coordinates":[[-119.837133,34.427974],[-122.370943,37.61799]],"type":"MultiPoint"}
}
