{
  "id": 2014682387,
  "type": "Feature",
  "properties": {
    "geom:area": 0,
    "geom:bbox": "-122.362750,36.887520,-121.934940,37.612780",
    "geom:latitude": 37.290697685810784,
    "geom:longitude": -122.1030093715637,
    "src:alt_label": "swim-approach",
    "src:geom": "swim",
    "swim:elevations": [
      4245,
      3864,
      3707,
      3330,
      3201,
      3106,
      3078,
      2806,
      2667,
      2364,
      2179,
      1983,
      1983,
      1888,
      1767,
      1463,
      1184,
      1134,
      929,
      629,
      354,
      245,
      120,
      66
    ],
    "swim:geom": "approach",
    "swim:timestamps": [
      1769875633,
      1769875676,
      1769875693,
      1769875736,
      1769875753,
      1769875790,
      1769875802,
      1769875849,
      1769875872,
      1769875916,
      1769875946,
      1769875970,
      1769875998,
      1769876026,
      1769876043,
      1769876090,
      1769876124,
      1769876130,
      1769876160,
      1769876204,
      1769876239,
      1769876268,
      1769876293,
      1769876326
    ],
    "wof:geomhash": "1f7e55d35994fc535dfd693a1ddc58d8",
    "wof:id": 2014682387,
    "wof:repo": "sfomuseum-data-flights-2026-01"
  },
  "bbox": [
    -122.36275,
    36.88752,
    -121.93494,
    37.61278
  ],
  "geometry": {"coordinates":[[-121.93494,36.88752],[-121.95475,36.95594],[-121.96498,36.98202],[-121.99106,37.04911],[-122.00112,37.07495],[-122.02147,37.12693],[-122.02785,37.14306],[-122.05109,37.20239],[-122.06293,37.23295],[-122.08482,37.28846],[-122.1001,37.32586],[-122.11145,37.35578],[-122.12378,37.38859],[-122.13414,37.42036],[-122.14044,37.439],[-122.16226,37.48842],[-122.18752,37.52197],[-122.19178,37.52722],[-122.2177,37.55197],[-122.26151,37.57043],[-122.29436,37.58426],[-122.31767,37.59463],[-122.33676,37.60255],[-122.36275,37.61278]],"type":"LineString"}
}
