{
  "id": 2014686305,
  "type": "Feature",
  "properties": {
    "geom:area": 0,
    "geom:bbox": "-122.558170,36.737990,-122.363090,37.702960",
    "geom:latitude": 37.25472847832035,
    "geom:longitude": -122.4887204175594,
    "src:alt_label": "swim-takeoff",
    "src:geom": "swim",
    "swim:elevations": [
      440,
      709,
      815,
      1231,
      1424,
      1866,
      2692,
      3129,
      3415,
      3624,
      4363,
      4733,
      5052,
      5286,
      5383,
      5969,
      6348,
      6485,
      6706,
      6929,
      7163,
      7518,
      7787,
      7992
    ],
    "swim:geom": "takeoff",
    "swim:timestamps": [
      1769857284,
      1769857312,
      1769857321,
      1769857371,
      1769857386,
      1769857417,
      1769857468,
      1769857495,
      1769857522,
      1769857552,
      1769857613,
      1769857642,
      1769857676,
      1769857701,
      1769857712,
      1769857768,
      1769857797,
      1769857811,
      1769857833,
      1769857861,
      1769857890,
      1769857936,
      1769857971,
      1769857998
    ],
    "wof:geomhash": "e35686ad6468e1375081e589641f398a",
    "wof:id": 2014686305,
    "wof:repo": "sfomuseum-data-flights-2026-01"
  },
  "bbox": [
    -122.55817,
    36.73799,
    -122.36309,
    37.70296
  ],
  "geometry": {"coordinates":[[-122.36383,37.64396],[-122.36309,37.66574],[-122.36447,37.67322],[-122.41292,37.69811],[-122.43454,37.70296],[-122.47161,37.68521],[-122.48185,37.62194],[-122.48648,37.58843],[-122.49101,37.55252],[-122.49705,37.50893],[-122.50935,37.41004],[-122.51646,37.36101],[-122.52451,37.30478],[-122.53013,37.25988],[-122.53267,37.24005],[-122.54625,37.13741],[-122.55339,37.08468],[-122.55668,37.06062],[-122.55817,37.01947],[-122.53723,36.97048],[-122.50213,36.92222],[-122.44495,36.84421],[-122.40086,36.78317],[-122.36792,36.73799]],"type":"LineString"}
}
