{
  "id": 2014682281,
  "type": "Feature",
  "properties": {
    "geom:area": 0,
    "geom:bbox": "-122.356570,36.720100,-121.876700,37.613260",
    "geom:latitude": 37.21397385941827,
    "geom:longitude": -122.06921476436385,
    "src:alt_label": "swim-approach",
    "src:geom": "swim",
    "swim:elevations": [
      5332,
      5288,
      4963,
      4462,
      4262,
      4007,
      3716,
      3423,
      3137,
      3114,
      2869,
      2808,
      2470,
      2381,
      2212,
      2030,
      1780,
      1605,
      1452,
      1334,
      1101,
      970,
      765,
      732,
      540,
      430,
      300,
      255,
      147,
      10
    ],
    "swim:geom": "approach",
    "swim:timestamps": [
      1769882487,
      1769882490,
      1769882523,
      1769882574,
      1769882595,
      1769882623,
      1769882655,
      1769882688,
      1769882724,
      1769882730,
      1769882784,
      1769882793,
      1769882840,
      1769882875,
      1769882906,
      1769882936,
      1769882963,
      1769882995,
      1769883025,
      1769883046,
      1769883085,
      1769883109,
      1769883146,
      1769883155,
      1769883194,
      1769883214,
      1769883248,
      1769883261,
      1769883295,
      1769883321
    ],
    "wof:geomhash": "b05d19881bf881f7fe52a7b60382e112",
    "wof:id": 2014682281,
    "wof:repo": "sfomuseum-data-flights-2026-01"
  },
  "bbox": [
    -122.35657,
    36.7201,
    -121.8767,
    37.61326
  ],
  "geometry": {"coordinates":[[-121.8767,36.7201],[-121.87986,36.72486],[-121.90483,36.78011],[-121.92929,36.86714],[-121.93899,36.90184],[-121.95157,36.9468],[-121.97051,36.9966],[-121.98977,37.04626],[-122.01108,37.10051],[-122.0145,37.10935],[-122.04398,37.18431],[-122.04852,37.19595],[-122.07269,37.25818],[-122.0899,37.30161],[-122.1037,37.33677],[-122.11652,37.36935],[-122.12659,37.39796],[-122.13811,37.43136],[-122.14901,37.46319],[-122.15591,37.48479],[-122.16828,37.52255],[-122.17584,37.54552],[-122.20624,37.56495],[-122.21588,37.56829],[-122.25432,37.58109],[-122.2733,37.58666],[-122.301,37.59457],[-122.31118,37.59755],[-122.33762,37.60567],[-122.35657,37.61326]],"type":"LineString"}
}
