{
  "id": 2014686361,
  "type": "Feature",
  "properties": {
    "geom:area": 0,
    "geom:bbox": "-123.367080,37.626810,-122.394830,38.516360",
    "geom:latitude": 38.021406907328455,
    "geom:longitude": -122.92328860337737,
    "src:alt_label": "swim-takeoff",
    "src:geom": "swim",
    "swim:elevations": [
      152,
      368,
      814,
      898,
      1148,
      1394,
      1597,
      1817,
      2360,
      2740,
      2960,
      3334,
      3538,
      3622,
      3819,
      4168,
      4572,
      4981,
      5064,
      5394,
      5662,
      5759,
      5840,
      6123,
      6340,
      6675,
      6767
    ],
    "swim:geom": "takeoff",
    "swim:timestamps": [
      1769865887,
      1769865902,
      1769865947,
      1769865960,
      1769866006,
      1769866037,
      1769866061,
      1769866080,
      1769866125,
      1769866156,
      1769866173,
      1769866221,
      1769866249,
      1769866268,
      1769866294,
      1769866323,
      1769866365,
      1769866408,
      1769866416,
      1769866452,
      1769866487,
      1769866501,
      1769866513,
      1769866551,
      1769866576,
      1769866611,
      1769866623
    ],
    "wof:geomhash": "45a4509bfbb29ce6eb2ec786eaa8ae46",
    "wof:id": 2014686361,
    "wof:repo": "sfomuseum-data-flights-2026-01"
  },
  "bbox": [
    -123.36708,
    37.62681,
    -122.39483,
    38.51636
  ],
  "geometry": {"coordinates":[[-122.39483,37.62681],[-122.40974,37.63306],[-122.45513,37.65384],[-122.46867,37.65952],[-122.52231,37.68524],[-122.56106,37.7093],[-122.59217,37.7276],[-122.61934,37.7432],[-122.68284,37.78043],[-122.72751,37.80724],[-122.75022,37.82155],[-122.81903,37.86732],[-122.86175,37.89603],[-122.89171,37.91886],[-122.92746,37.95681],[-122.96433,38.00217],[-123.01697,38.06925],[-123.07235,38.14017],[-123.08237,38.15319],[-123.12984,38.21404],[-123.17669,38.27427],[-123.19511,38.29789],[-123.21104,38.31831],[-123.26507,38.38655],[-123.29956,38.42961],[-123.34975,38.49431],[-123.36708,38.51636]],"type":"LineString"}
}
