{
  "id": 2014680623,
  "type": "Feature",
  "properties": {
    "geom:area": 0,
    "geom:bbox": "-122.351650,37.491270,-121.283520,37.611220",
    "geom:latitude": 37.544932953105146,
    "geom:longitude": -121.82222362670822,
    "src:alt_label": "swim-approach",
    "src:geom": "swim",
    "swim:elevations": [
      4678,
      4535,
      4394,
      4204,
      3989,
      3730,
      3363,
      3252,
      3149,
      3050,
      3010,
      2739,
      2595,
      2497,
      2215,
      2134,
      2072,
      1881,
      1732,
      1498,
      1311,
      1167,
      1153,
      1014,
      909,
      849,
      575,
      429,
      400,
      344,
      275,
      210,
      69,
      46
    ],
    "swim:geom": "approach",
    "swim:timestamps": [
      1769893855,
      1769893873,
      1769893887,
      1769893908,
      1769893930,
      1769893957,
      1769894002,
      1769894020,
      1769894033,
      1769894061,
      1769894070,
      1769894126,
      1769894147,
      1769894171,
      1769894213,
      1769894241,
      1769894277,
      1769894306,
      1769894328,
      1769894362,
      1769894396,
      1769894427,
      1769894430,
      1769894456,
      1769894477,
      1769894490,
      1769894548,
      1769894578,
      1769894587,
      1769894599,
      1769894620,
      1769894632,
      1769894668,
      1769894672
    ],
    "wof:geomhash": "6715ebed488d4a9d0c4a4441c66d8f2b",
    "wof:id": 2014680623,
    "wof:repo": "sfomuseum-data-flights-2026-01"
  },
  "bbox": [
    -122.35165,
    37.49127,
    -121.28352,
    37.61122
  ],
  "geometry": {"coordinates":[[-121.28352,37.58998],[-121.31262,37.5867],[-121.33788,37.58411],[-121.37209,37.58034],[-121.40954,37.57602],[-121.45521,37.57076],[-121.53102,37.56194],[-121.56112,37.55824],[-121.58263,37.55562],[-121.62727,37.54991],[-121.64191,37.54665],[-121.72582,37.52665],[-121.75812,37.51894],[-121.7945,37.51028],[-121.85661,37.49535],[-121.89847,37.49127],[-121.948,37.49276],[-121.9854,37.49504],[-122.01246,37.50281],[-122.05331,37.51601],[-122.09266,37.52862],[-122.12587,37.5395],[-122.12906,37.54051],[-122.15604,37.54919],[-122.17706,37.55598],[-122.1895,37.56005],[-122.24851,37.57886],[-122.27608,37.58748],[-122.28374,37.58962],[-122.29365,37.59243],[-122.31053,37.59747],[-122.32024,37.60032],[-122.34904,37.61011],[-122.35165,37.61122]],"type":"LineString"}
}
