{
  "id": 2014685849,
  "type": "Feature",
  "properties": {
    "geom:area": 0,
    "geom:bbox": "-122.464500,36.737700,-121.469670,37.718100",
    "geom:latitude": 37.239822337268016,
    "geom:longitude": -122.05494505844088,
    "src:alt_label": "swim-takeoff",
    "src:geom": "swim",
    "swim:elevations": [
      122,
      576,
      924,
      1517,
      1683,
      2337,
      2914,
      3120,
      3532,
      3858,
      4216,
      4504,
      4667,
      5348,
      5387,
      5999,
      6418,
      6949,
      7094,
      7380,
      7734,
      7929,
      8105,
      8473,
      8617,
      8775,
      8998,
      9210
    ],
    "swim:geom": "takeoff",
    "swim:timestamps": [
      1769857482,
      1769857516,
      1769857552,
      1769857617,
      1769857629,
      1769857672,
      1769857707,
      1769857732,
      1769857765,
      1769857797,
      1769857825,
      1769857852,
      1769857861,
      1769857916,
      1769857920,
      1769857975,
      1769858016,
      1769858065,
      1769858076,
      1769858105,
      1769858153,
      1769858181,
      1769858207,
      1769858259,
      1769858282,
      1769858302,
      1769858333,
      1769858364
    ],
    "wof:geomhash": "71ff3940448fbfe6f74b56d7750eb659",
    "wof:id": 2014685849,
    "wof:repo": "sfomuseum-data-flights-2026-01"
  },
  "bbox": [
    -122.4645,
    36.7377,
    -121.46967,
    37.7181
  ],
  "geometry": {"coordinates":[[-122.37017,37.62711],[-122.36357,37.65181],[-122.36173,37.68186],[-122.41977,37.7181],[-122.43567,37.71253],[-122.45727,37.6653],[-122.46168,37.61996],[-122.4645,37.58872],[-122.44209,37.5457],[-122.41177,37.50395],[-122.38369,37.46619],[-122.3468,37.43157],[-122.33334,37.42158],[-122.24725,37.35461],[-122.24115,37.34995],[-122.15103,37.28129],[-122.08302,37.22942],[-121.99943,37.16532],[-121.98069,37.15085],[-121.93138,37.11275],[-121.84982,37.04952],[-121.79937,37.0102],[-121.75118,36.9732],[-121.65611,36.89987],[-121.61557,36.86461],[-121.57971,36.83322],[-121.52443,36.78577],[-121.46967,36.7377]],"type":"LineString"}
}
