{
  "id": 2014685625,
  "type": "Feature",
  "properties": {
    "geom:area": 0,
    "geom:bbox": "-122.460870,37.529200,-122.362050,37.717780",
    "geom:latitude": 37.63442499751497,
    "geom:longitude": -122.41585925439568,
    "src:alt_label": "swim-takeoff",
    "src:geom": "swim",
    "swim:elevations": [
      152,
      424,
      827,
      1197,
      1770,
      2154,
      2504,
      2994,
      3666,
      4137,
      4556,
      5104
    ],
    "swim:geom": "takeoff",
    "swim:timestamps": [
      1769869976,
      1769869997,
      1769870033,
      1769870056,
      1769870092,
      1769870114,
      1769870140,
      1769870170,
      1769870212,
      1769870237,
      1769870260,
      1769870284
    ],
    "wof:geomhash": "31a240af2327d90753f454db00e06182",
    "wof:id": 2014685625,
    "wof:repo": "sfomuseum-data-flights-2026-01"
  },
  "bbox": [
    -122.46087,
    37.5292,
    -122.36205,
    37.71778
  ],
  "geometry": {"coordinates":[[-122.37,37.62731],[-122.36584,37.64159],[-122.36205,37.67445],[-122.36589,37.69691],[-122.40232,37.71778],[-122.43018,37.71279],[-122.45052,37.69157],[-122.45494,37.65623],[-122.46087,37.60211],[-122.44699,37.56582],[-122.41242,37.54195],[-122.36278,37.5292]],"type":"LineString"}
}
