{
  "id": 2014682801,
  "type": "Feature",
  "properties": {
    "geom:area": 0,
    "geom:bbox": "-123.483140,37.200230,-122.100690,37.612660",
    "geom:latitude": 37.344719732843444,
    "geom:longitude": -122.68980514505122,
    "src:alt_label": "swim-approach",
    "src:geom": "swim",
    "swim:elevations": [
      5164,
      5120,
      4940,
      4755,
      4575,
      4384,
      4124,
      3871,
      3812,
      3661,
      3551,
      3274,
      3206,
      3083,
      3038,
      2956,
      2940,
      2887,
      2837,
      2773,
      2741,
      2684,
      2654,
      2592,
      2528,
      2482,
      2432,
      2258,
      2213,
      2169,
      1917,
      1784,
      1718,
      1466,
      1188,
      1003,
      914,
      905,
      816,
      692,
      463,
      311,
      197,
      94,
      29
    ],
    "swim:geom": "approach",
    "swim:timestamps": [
      1769925296,
      1769925301,
      1769925322,
      1769925343,
      1769925367,
      1769925390,
      1769925422,
      1769925478,
      1769925487,
      1769925508,
      1769925523,
      1769925562,
      1769925571,
      1769925604,
      1769925650,
      1769925666,
      1769925683,
      1769925716,
      1769925743,
      1769925773,
      1769925794,
      1769925833,
      1769925851,
      1769925887,
      1769925914,
      1769925944,
      1769925980,
      1769926013,
      1769926039,
      1769926054,
      1769926093,
      1769926108,
      1769926114,
      1769926144,
      1769926181,
      1769926210,
      1769926243,
      1769926256,
      1769926273,
      1769926300,
      1769926342,
      1769926378,
      1769926408,
      1769926428,
      1769926443
    ],
    "wof:geomhash": "d8c5dad2155d40ed1739a67255e8c78a",
    "wof:id": 2014682801,
    "wof:repo": "sfomuseum-data-flights-2026-01"
  },
  "bbox": [
    -123.48314,
    37.20023,
    -122.10069,
    37.61266
  ],
  "geometry": {"coordinates":[[-123.48314,37.31442],[-123.47108,37.31031],[-123.42915,37.29599],[-123.3874,37.28169],[-123.34017,37.26546],[-123.2968,37.25044],[-123.23445,37.22888],[-123.12583,37.20023],[-123.10806,37.20106],[-123.06782,37.20923],[-123.03964,37.21565],[-122.96709,37.23323],[-122.95043,37.23729],[-122.89057,37.25142],[-122.81287,37.26955],[-122.7864,37.27565],[-122.75834,37.28221],[-122.70431,37.29481],[-122.65984,37.30513],[-122.61028,37.31669],[-122.57564,37.32471],[-122.51087,37.33975],[-122.48091,37.34668],[-122.42082,37.36052],[-122.37703,37.37055],[-122.32829,37.38179],[-122.26969,37.39517],[-122.21853,37.40692],[-122.18172,37.41528],[-122.16258,37.41968],[-122.1246,37.43899],[-122.11717,37.45121],[-122.1143,37.45614],[-122.10069,37.48096],[-122.1245,37.50418],[-122.14871,37.52006],[-122.17657,37.53722],[-122.18861,37.54256],[-122.20488,37.54937],[-122.23173,37.56078],[-122.27192,37.57767],[-122.30243,37.59057],[-122.32699,37.6009],[-122.34294,37.60761],[-122.35497,37.61266]],"type":"LineString"}
}
