{
  "id": 2014679605,
  "type": "Feature",
  "properties": {
    "geom:area": 0,
    "geom:bbox": "-122.359510,37.492000,-121.259150,37.615150",
    "geom:latitude": 37.542692957794344,
    "geom:longitude": -121.81647126814292,
    "src:alt_label": "swim-approach",
    "src:geom": "swim",
    "swim:elevations": [
      4735,
      4656,
      4295,
      3994,
      3701,
      3411,
      3176,
      3071,
      2855,
      2623,
      2439,
      2432,
      2203,
      2134,
      2026,
      1977,
      1803,
      1664,
      1452,
      1245,
      1125,
      1006,
      951,
      794,
      618,
      468,
      363,
      238,
      106,
      0
    ],
    "swim:geom": "approach",
    "swim:timestamps": [
      1769911857,
      1769911864,
      1769911900,
      1769911927,
      1769911957,
      1769911987,
      1769912020,
      1769912050,
      1769912081,
      1769912114,
      1769912147,
      1769912180,
      1769912216,
      1769912246,
      1769912271,
      1769912280,
      1769912316,
      1769912340,
      1769912370,
      1769912403,
      1769912431,
      1769912461,
      1769912491,
      1769912521,
      1769912561,
      1769912595,
      1769912626,
      1769912657,
      1769912690,
      1769912715
    ],
    "wof:geomhash": "1c69600a5605646aeb270a799e94e4ee",
    "wof:id": 2014679605,
    "wof:repo": "sfomuseum-data-flights-2026-01"
  },
  "bbox": [
    -122.35951,
    37.492,
    -121.25915,
    37.61515
  ],
  "geometry": {"coordinates":[[-121.25915,37.59328],[-121.27322,37.5914],[-121.3411,37.58377],[-121.39173,37.57804],[-121.4475,37.57161],[-121.50261,37.56516],[-121.56222,37.5582],[-121.61291,37.55226],[-121.66076,37.54212],[-121.71052,37.53022],[-121.75871,37.51879],[-121.80462,37.50778],[-121.85431,37.49595],[-121.89517,37.492],[-121.92875,37.49393],[-121.94055,37.49467],[-121.98579,37.49735],[-122.01491,37.49901],[-122.05177,37.50109],[-122.0924,37.50439],[-122.12264,37.51486],[-122.15251,37.52742],[-122.18088,37.53935],[-122.20888,37.55116],[-122.24459,37.56622],[-122.271,37.5773],[-122.29337,37.58675],[-122.31632,37.59639],[-122.34116,37.60685],[-122.35951,37.61515]],"type":"LineString"}
}
