{
  "id": 2014685693,
  "type": "Feature",
  "properties": {
    "geom:area": 0,
    "geom:bbox": "-122.206730,37.947890,-121.274340,38.408060",
    "geom:latitude": 38.172822426491145,
    "geom:longitude": -121.73771886863052,
    "src:alt_label": "swim-takeoff",
    "src:geom": "swim",
    "swim:elevations": [
      3953,
      4261,
      4413,
      4496,
      4584,
      5051,
      5282,
      5449,
      5487,
      5578,
      5671,
      5909,
      6008,
      6215,
      6426,
      6587,
      6676,
      6858
    ],
    "swim:geom": "takeoff",
    "swim:timestamps": [
      1769879356,
      1769879390,
      1769879408,
      1769879421,
      1769879430,
      1769879478,
      1769879508,
      1769879548,
      1769879560,
      1769879590,
      1769879620,
      1769879657,
      1769879678,
      1769879718,
      1769879753,
      1769879784,
      1769879805,
      1769879837
    ],
    "wof:geomhash": "b93371e2189e8852f29467c0b9173842",
    "wof:id": 2014685693,
    "wof:repo": "sfomuseum-data-flights-2026-01"
  },
  "bbox": [
    -122.20673,
    37.94789,
    -121.27434,
    38.40806
  ],
  "geometry": {"coordinates":[[-122.20673,37.94789],[-122.14937,37.97556],[-122.11907,37.99013],[-122.09688,38.0008],[-122.08247,38.00772],[-121.9979,38.04823],[-121.94581,38.07305],[-121.87438,38.10714],[-121.85238,38.11752],[-121.79502,38.14488],[-121.7345,38.17375],[-121.65683,38.21052],[-121.61492,38.23034],[-121.52735,38.27164],[-121.45128,38.30748],[-121.38399,38.34062],[-121.34042,38.36703],[-121.27434,38.40806]],"type":"LineString"}
}
