{
  "id": 2014685977,
  "type": "Feature",
  "properties": {
    "geom:area": 0,
    "geom:bbox": "-122.360770,37.632180,-121.247130,37.975370",
    "geom:latitude": 37.86323252732444,
    "geom:longitude": -121.82432376894991,
    "src:alt_label": "swim-takeoff",
    "src:geom": "swim",
    "swim:elevations": [
      416,
      649,
      911,
      1181,
      1218,
      1867,
      2405,
      2627,
      2913,
      3287,
      3453,
      3772,
      4180,
      4420,
      4903,
      5440,
      5716,
      6061,
      6379,
      6670,
      6913,
      7035,
      7367
    ],
    "swim:geom": "takeoff",
    "swim:timestamps": [
      1769878757,
      1769878777,
      1769878804,
      1769878855,
      1769878860,
      1769878909,
      1769878937,
      1769878950,
      1769878968,
      1769879006,
      1769879025,
      1769879056,
      1769879085,
      1769879105,
      1769879138,
      1769879180,
      1769879200,
      1769879237,
      1769879272,
      1769879302,
      1769879330,
      1769879341,
      1769879384
    ],
    "wof:geomhash": "7643b176970b5681e3252621b6933df6",
    "wof:id": 2014685977,
    "wof:repo": "sfomuseum-data-flights-2026-01"
  },
  "bbox": [
    -122.36077,
    37.63218,
    -121.24713,
    37.97537
  ],
  "geometry": {"coordinates":[[-122.36077,37.63218],[-122.34738,37.64061],[-122.32762,37.65288],[-122.28213,37.68065],[-122.2768,37.68392],[-122.21477,37.7215],[-122.17757,37.74419],[-122.1602,37.75495],[-122.136,37.77037],[-122.08188,37.80374],[-122.05042,37.82303],[-121.99705,37.85496],[-121.94531,37.88489],[-121.90329,37.89923],[-121.83103,37.90891],[-121.73631,37.91903],[-121.69069,37.92455],[-121.60716,37.93398],[-121.52422,37.94376],[-121.45001,37.95239],[-121.38151,37.96024],[-121.35594,37.96316],[-121.24713,37.97537]],"type":"LineString"}
}
