{
  "id": 2014683211,
  "type": "Feature",
  "properties": {
    "geom:area": 0,
    "geom:bbox": "-122.385580,37.627830,-121.253340,38.183720",
    "geom:latitude": 37.99149177727143,
    "geom:longitude": -121.93606007523681,
    "src:alt_label": "swim-takeoff",
    "src:geom": "swim",
    "swim:elevations": [
      152,
      367,
      823,
      981,
      1216,
      1673,
      1808,
      2184,
      2964,
      3272,
      3433,
      3538,
      3872,
      3917,
      4341,
      4695,
      4876,
      5193,
      5321,
      5517,
      5597,
      5667,
      6070,
      6252,
      6388,
      6594,
      6796,
      6942
    ],
    "swim:geom": "takeoff",
    "swim:timestamps": [
      1769928687,
      1769928701,
      1769928747,
      1769928765,
      1769928786,
      1769928815,
      1769928824,
      1769928845,
      1769928894,
      1769928927,
      1769928957,
      1769928973,
      1769929016,
      1769929025,
      1769929070,
      1769929104,
      1769929124,
      1769929153,
      1769929166,
      1769929193,
      1769929205,
      1769929211,
      1769929256,
      1769929275,
      1769929299,
      1769929328,
      1769929365,
      1769929385
    ],
    "wof:geomhash": "8e6daa633ec6164a71ad4d4ed3ec4bf1",
    "wof:id": 2014683211,
    "wof:repo": "sfomuseum-data-flights-2026-01"
  },
  "bbox": [
    -122.38558,
    37.62783,
    -121.25334,
    38.18372
  ],
  "geometry": {"coordinates":[[-122.36667,37.62783],[-122.35895,37.63705],[-122.32413,37.66779],[-122.31257,37.68471],[-122.31471,37.709],[-122.33259,37.74118],[-122.33871,37.75139],[-122.352,37.77597],[-122.38148,37.83476],[-122.38558,37.88106],[-122.36689,37.92652],[-122.34218,37.94477],[-122.24524,37.96837],[-122.2236,37.97291],[-122.11177,37.99562],[-122.02297,38.01347],[-121.97118,38.02383],[-121.89537,38.03893],[-121.86048,38.04588],[-121.78818,38.06021],[-121.75578,38.06663],[-121.73951,38.06982],[-121.61703,38.0939],[-121.5647,38.10582],[-121.49851,38.12275],[-121.41596,38.14325],[-121.31167,38.16931],[-121.25334,38.18372]],"type":"LineString"}
}
