{
  "id": 2014684795,
  "type": "Feature",
  "properties": {
    "geom:area": 0,
    "geom:bbox": "-122.527480,37.629580,-121.979340,38.514310",
    "geom:latitude": 38.04698535822166,
    "geom:longitude": -122.29009697786711,
    "src:alt_label": "swim-takeoff",
    "src:geom": "swim",
    "swim:elevations": [
      331,
      687,
      850,
      1154,
      1217,
      1583,
      1625,
      1801,
      2126,
      2312,
      2712,
      2880,
      3222,
      3267,
      3415,
      3589,
      3937,
      4193,
      4326,
      4699,
      4784,
      5213,
      5367,
      5417,
      5776,
      5972
    ],
    "swim:geom": "takeoff",
    "swim:timestamps": [
      1769895982,
      1769896009,
      1769896030,
      1769896078,
      1769896087,
      1769896138,
      1769896144,
      1769896165,
      1769896196,
      1769896217,
      1769896247,
      1769896263,
      1769896302,
      1769896314,
      1769896348,
      1769896372,
      1769896405,
      1769896433,
      1769896452,
      1769896495,
      1769896507,
      1769896558,
      1769896579,
      1769896591,
      1769896636,
      1769896667
    ],
    "wof:geomhash": "08ed95840815671c5cd14688683a8507",
    "wof:id": 2014684795,
    "wof:repo": "sfomuseum-data-flights-2026-01"
  },
  "bbox": [
    -122.52748,
    37.62958,
    -121.97934,
    38.51431
  ],
  "geometry": {"coordinates":[[-122.40163,37.62958],[-122.4247,37.63897],[-122.44242,37.64625],[-122.48644,37.66582],[-122.49605,37.66999],[-122.52691,37.71547],[-122.5271,37.72278],[-122.52748,37.74947],[-122.52553,37.7895],[-122.50528,37.81258],[-122.45769,37.82852],[-122.43296,37.84059],[-122.39958,37.89171],[-122.389,37.9087],[-122.35613,37.95943],[-122.33133,37.99763],[-122.29612,38.05088],[-122.26524,38.09682],[-122.24352,38.12904],[-122.1927,38.20242],[-122.17814,38.22342],[-122.11641,38.31367],[-122.09023,38.35148],[-122.07527,38.37321],[-122.01888,38.45563],[-121.97934,38.51431]],"type":"LineString"}
}
