{
  "id": 2014684697,
  "type": "Feature",
  "properties": {
    "geom:area": 0,
    "geom:bbox": "-123.340580,37.630990,-122.404110,38.519640",
    "geom:latitude": 38.034764552772785,
    "geom:longitude": -122.90499646627639,
    "src:alt_label": "swim-takeoff",
    "src:geom": "swim",
    "swim:elevations": [
      309,
      724,
      827,
      917,
      1361,
      1607,
      2028,
      2215,
      2320,
      2876,
      3113,
      3452,
      3555,
      3782,
      3901,
      4117,
      4464,
      4777,
      4983,
      5319,
      5525,
      5658,
      5719,
      6231,
      6366,
      6560,
      6949
    ],
    "swim:geom": "takeoff",
    "swim:timestamps": [
      1769902977,
      1769903007,
      1769903028,
      1769903046,
      1769903088,
      1769903107,
      1769903143,
      1769903158,
      1769903167,
      1769903217,
      1769903242,
      1769903277,
      1769903286,
      1769903325,
      1769903346,
      1769903382,
      1769903419,
      1769903450,
      1769903468,
      1769903502,
      1769903532,
      1769903574,
      1769903580,
      1769903637,
      1769903649,
      1769903673,
      1769903717
    ],
    "wof:geomhash": "4c7f8d4f54647a99ab94a6ef3017e01c",
    "wof:id": 2014684697,
    "wof:repo": "sfomuseum-data-flights-2026-01"
  },
  "bbox": [
    -123.34058,
    37.63099,
    -122.40411,
    38.51964
  ],
  "geometry": {"coordinates":[[-122.40411,37.63099],[-122.43411,37.64415],[-122.4564,37.65401],[-122.47775,37.66343],[-122.52934,37.69019],[-122.55304,37.70403],[-122.59725,37.73013],[-122.61583,37.74111],[-122.627,37.74769],[-122.6903,37.78466],[-122.72272,37.80359],[-122.76561,37.83462],[-122.77435,37.84498],[-122.8136,37.89184],[-122.83627,37.91934],[-122.87768,37.96958],[-122.92244,38.0234],[-122.9626,38.07158],[-122.9857,38.09927],[-123.02955,38.15163],[-123.06947,38.19909],[-123.12847,38.26913],[-123.13708,38.27944],[-123.22042,38.37864],[-123.23845,38.39957],[-123.27421,38.44183],[-123.34058,38.51964]],"type":"LineString"}
}
