{
  "id": 2014684649,
  "type": "Feature",
  "properties": {
    "geom:area": 0,
    "geom:bbox": "-122.541110,36.733570,-121.305680,37.665550",
    "geom:latitude": 37.2209969176954,
    "geom:longitude": -121.98744368574692,
    "src:alt_label": "swim-takeoff",
    "src:geom": "swim",
    "swim:elevations": [
      122,
      559,
      827,
      1039,
      1235,
      1556,
      1667,
      2129,
      2515,
      2933,
      3167,
      3263,
      3468,
      3592,
      3771,
      4001,
      4362,
      4528,
      4879,
      5090,
      5404,
      5560,
      5648,
      6024,
      6251,
      6408,
      6677,
      6704,
      7045,
      7285,
      7454,
      7661,
      7781,
      7897
    ],
    "swim:geom": "takeoff",
    "swim:timestamps": [
      1769908135,
      1769908167,
      1769908195,
      1769908219,
      1769908255,
      1769908288,
      1769908303,
      1769908345,
      1769908375,
      1769908408,
      1769908429,
      1769908450,
      1769908490,
      1769908511,
      1769908532,
      1769908556,
      1769908586,
      1769908604,
      1769908644,
      1769908668,
      1769908705,
      1769908732,
      1769908744,
      1769908798,
      1769908828,
      1769908849,
      1769908888,
      1769908894,
      1769908942,
      1769908972,
      1769908996,
      1769909032,
      1769909062,
      1769909086
    ],
    "wof:geomhash": "a77e2004faa6ec36a7884ea231178fe4",
    "wof:id": 2014684649,
    "wof:repo": "sfomuseum-data-flights-2026-01"
  },
  "bbox": [
    -122.54111,
    36.73357,
    -121.30568,
    37.66555
  ],
  "geometry": {"coordinates":[[-122.39508,37.62694],[-122.42676,37.64022],[-122.45323,37.65234],[-122.47693,37.66283],[-122.52034,37.66555],[-122.54111,37.63482],[-122.53466,37.61766],[-122.49372,37.57604],[-122.45875,37.54887],[-122.42077,37.51848],[-122.3962,37.49908],[-122.37009,37.47865],[-122.31715,37.43736],[-122.28669,37.41364],[-122.25331,37.39083],[-122.21435,37.36434],[-122.1646,37.33034],[-122.13568,37.31041],[-122.07203,37.2668],[-122.03252,37.23952],[-121.97059,37.19668],[-121.92524,37.16543],[-121.90496,37.1514],[-121.81237,37.08752],[-121.76045,37.0517],[-121.72368,37.02651],[-121.65545,36.97902],[-121.64491,36.97159],[-121.56073,36.91236],[-121.50805,36.87523],[-121.46563,36.84575],[-121.40204,36.80129],[-121.34855,36.76388],[-121.30568,36.73357]],"type":"LineString"}
}
