{
  "id": 2014683207,
  "type": "Feature",
  "properties": {
    "geom:area": 0,
    "geom:bbox": "-122.362480,37.633990,-121.247930,38.424250",
    "geom:latitude": 38.02868209342851,
    "geom:longitude": -121.80512554540941,
    "src:alt_label": "swim-takeoff",
    "src:geom": "swim",
    "swim:elevations": [
      310,
      447,
      583,
      820,
      952,
      1239,
      1343,
      2056,
      2433,
      2684,
      2852,
      3260,
      3791,
      4073,
      4446,
      4547,
      4799,
      4946,
      5154,
      5310,
      5382,
      5423,
      5630,
      5854,
      5982,
      6112,
      6311
    ],
    "swim:geom": "takeoff",
    "swim:timestamps": [
      1769847177,
      1769847186,
      1769847200,
      1769847235,
      1769847249,
      1769847296,
      1769847305,
      1769847356,
      1769847384,
      1769847406,
      1769847422,
      1769847456,
      1769847505,
      1769847533,
      1769847568,
      1769847577,
      1769847613,
      1769847641,
      1769847682,
      1769847718,
      1769847734,
      1769847762,
      1769847803,
      1769847834,
      1769847857,
      1769847875,
      1769847914
    ],
    "wof:geomhash": "fc11e09053169e5c16aa22c6d6b8e054",
    "wof:id": 2014683207,
    "wof:repo": "sfomuseum-data-flights-2026-01"
  },
  "bbox": [
    -122.36248,
    37.63399,
    -121.24793,
    38.42425
  ],
  "geometry": {"coordinates":[[-122.36248,37.63399],[-122.35599,37.63887],[-122.34531,37.64558],[-122.31419,37.66312],[-122.30003,37.67119],[-122.24477,37.70244],[-122.23339,37.70938],[-122.17418,37.75446],[-122.13995,37.7792],[-122.11335,37.79946],[-122.0937,37.81404],[-122.04967,37.84707],[-121.98389,37.89635],[-121.94532,37.92501],[-121.89466,37.96284],[-121.88173,37.97253],[-121.82927,38.01144],[-121.78373,38.04523],[-121.7142,38.0968],[-121.64939,38.14499],[-121.62131,38.16579],[-121.56674,38.20622],[-121.48498,38.26641],[-121.42284,38.31198],[-121.3752,38.34524],[-121.33539,38.36997],[-121.24793,38.42425]],"type":"LineString"}
}
