{
  "id": 2014685897,
  "type": "Feature",
  "properties": {
    "geom:area": 0,
    "geom:bbox": "-122.468420,36.736690,-121.463010,37.708970",
    "geom:latitude": 37.22417527684051,
    "geom:longitude": -122.06343941013941,
    "src:alt_label": "swim-takeoff",
    "src:geom": "swim",
    "swim:elevations": [
      183,
      908,
      1153,
      1329,
      1633,
      2317,
      2815,
      3378,
      3506,
      3700,
      4418,
      4592,
      5312,
      6018,
      6313,
      6429,
      6749,
      7059,
      7324,
      7623,
      7950,
      8258,
      8522,
      8631,
      8881,
      9126,
      9294,
      9478,
      9525,
      9751,
      9850
    ],
    "swim:geom": "takeoff",
    "swim:timestamps": [
      1769866570,
      1769866636,
      1769866666,
      1769866689,
      1769866726,
      1769866764,
      1769866791,
      1769866827,
      1769866846,
      1769866862,
      1769866909,
      1769866921,
      1769866965,
      1769867008,
      1769867038,
      1769867049,
      1769867083,
      1769867106,
      1769867134,
      1769867164,
      1769867200,
      1769867236,
      1769867268,
      1769867286,
      1769867322,
      1769867359,
      1769867385,
      1769867424,
      1769867437,
      1769867484,
      1769867496
    ],
    "wof:geomhash": "563a864bff82fa8f346e3dbedfe5e3e2",
    "wof:id": 2014685897,
    "wof:repo": "sfomuseum-data-flights-2026-01"
  },
  "bbox": [
    -122.46842,
    36.73669,
    -121.46301,
    37.70897
  ],
  "geometry": {"coordinates":[[-122.37003,37.6275],[-122.3631,37.67394],[-122.368,37.69831],[-122.39121,37.70897],[-122.43331,37.69175],[-122.44371,37.6449],[-122.44961,37.61111],[-122.45878,37.56526],[-122.4643,37.54016],[-122.46842,37.51517],[-122.42448,37.45317],[-122.40689,37.44074],[-122.33917,37.39138],[-122.27735,37.3454],[-122.23383,37.31293],[-122.21647,37.29999],[-122.16447,37.26149],[-122.12858,37.23485],[-122.08529,37.20281],[-122.03795,37.1677],[-121.98045,37.12456],[-121.92303,37.08171],[-121.86941,37.04189],[-121.84002,37.02005],[-121.7779,36.97363],[-121.71248,36.92615],[-121.66809,36.8916],[-121.59726,36.83854],[-121.57573,36.82161],[-121.4863,36.75437],[-121.46301,36.73669]],"type":"LineString"}
}
