{
  "id": 2014680083,
  "type": "Feature",
  "properties": {
    "geom:area": 0,
    "geom:bbox": "-122.360880,37.491400,-121.273160,37.615300",
    "geom:latitude": 37.5459241536802,
    "geom:longitude": -121.82198594610747,
    "src:alt_label": "swim-approach",
    "src:geom": "swim",
    "swim:elevations": [
      4675,
      4455,
      4341,
      4060,
      3941,
      3810,
      3744,
      3560,
      3282,
      2999,
      2817,
      2595,
      2404,
      2334,
      2140,
      2037,
      1854,
      1674,
      1580,
      1334,
      1111,
      991,
      893,
      690,
      554,
      491,
      455,
      260,
      94,
      0
    ],
    "swim:geom": "approach",
    "swim:timestamps": [
      1769891485,
      1769891515,
      1769891531,
      1769891567,
      1769891585,
      1769891603,
      1769891615,
      1769891641,
      1769891680,
      1769891725,
      1769891753,
      1769891788,
      1769891815,
      1769891830,
      1769891863,
      1769891881,
      1769891932,
      1769891964,
      1769891981,
      1769892020,
      1769892056,
      1769892082,
      1769892096,
      1769892133,
      1769892163,
      1769892178,
      1769892184,
      1769892226,
      1769892265,
      1769892287
    ],
    "wof:geomhash": "c1ab9272abc2f7a8b2b8cbb6ed3e8dec",
    "wof:id": 2014680083,
    "wof:repo": "sfomuseum-data-flights-2026-01"
  },
  "bbox": [
    -122.36088,
    37.4914,
    -121.27316,
    37.6153
  ],
  "geometry": {"coordinates":[[-121.27316,37.59124],[-121.32722,37.58512],[-121.35597,37.58214],[-121.41816,37.57506],[-121.44909,37.57141],[-121.47963,37.56786],[-121.49983,37.56556],[-121.54383,37.56036],[-121.60746,37.55288],[-121.67701,37.53821],[-121.71816,37.52849],[-121.77083,37.51596],[-121.8106,37.50643],[-121.8324,37.50118],[-121.88036,37.4914],[-121.90714,37.49143],[-121.97837,37.49388],[-122.01871,37.50463],[-122.0403,37.51168],[-122.08855,37.52721],[-122.13254,37.54159],[-122.16313,37.55153],[-122.1796,37.55687],[-122.21983,37.56961],[-122.25106,37.57989],[-122.26629,37.58461],[-122.27208,37.58614],[-122.31012,37.59735],[-122.34319,37.60764],[-122.36088,37.6153]],"type":"LineString"}
}
