{
  "id": 2014682755,
  "type": "Feature",
  "properties": {
    "geom:area": 0,
    "geom:bbox": "-122.360330,37.491260,-121.262370,37.614910",
    "geom:latitude": 37.54641048305779,
    "geom:longitude": -121.81629551557333,
    "src:alt_label": "swim-approach",
    "src:geom": "swim",
    "swim:elevations": [
      5284,
      5158,
      5088,
      4905,
      4562,
      4434,
      3914,
      3742,
      3384,
      3130,
      2923,
      2752,
      2623,
      2412,
      2228,
      2207,
      2041,
      1910,
      1602,
      1507,
      1467,
      1297,
      1204,
      976,
      793,
      660,
      515,
      338,
      317,
      89,
      0
    ],
    "swim:geom": "approach",
    "swim:timestamps": [
      1769851586,
      1769851604,
      1769851624,
      1769851663,
      1769851708,
      1769851723,
      1769851768,
      1769851782,
      1769851821,
      1769851857,
      1769851885,
      1769851914,
      1769851937,
      1769851968,
      1769852008,
      1769852015,
      1769852051,
      1769852075,
      1769852124,
      1769852137,
      1769852147,
      1769852179,
      1769852198,
      1769852242,
      1769852273,
      1769852299,
      1769852329,
      1769852367,
      1769852370,
      1769852426,
      1769852445
    ],
    "wof:geomhash": "8f28890190e96f9f50ac84072ecc8dbf",
    "wof:id": 2014682755,
    "wof:repo": "sfomuseum-data-flights-2026-01"
  },
  "bbox": [
    -122.36033,
    37.49126,
    -121.26237,
    37.61491
  ],
  "geometry": {"coordinates":[[-121.26237,37.59285],[-121.29417,37.58897],[-121.32926,37.58525],[-121.39522,37.57765],[-121.46652,37.56942],[-121.48979,37.56663],[-121.55891,37.55859],[-121.58144,37.55586],[-121.64134,37.54675],[-121.69345,37.53433],[-121.7339,37.52477],[-121.77447,37.51509],[-121.80473,37.5077],[-121.84597,37.49789],[-121.89961,37.49126],[-121.90869,37.49153],[-121.95303,37.4927],[-121.98179,37.49411],[-122.03748,37.51065],[-122.05196,37.51568],[-122.06338,37.51949],[-122.09932,37.53091],[-122.11919,37.53736],[-122.16726,37.55286],[-122.20111,37.56389],[-122.23002,37.57304],[-122.26048,37.58292],[-122.2954,37.59294],[-122.29797,37.59374],[-122.34507,37.60848],[-122.36033,37.61491]],"type":"LineString"}
}
