{
  "id": 2014682735,
  "type": "Feature",
  "properties": {
    "geom:area": 0,
    "geom:bbox": "-123.502540,36.965510,-122.077170,37.614390",
    "geom:latitude": 37.29520679844194,
    "geom:longitude": -122.69127001282328,
    "src:alt_label": "swim-approach",
    "src:geom": "swim",
    "swim:elevations": [
      6227,
      6133,
      5778,
      5526,
      5303,
      5158,
      4620,
      4463,
      4076,
      3792,
      3592,
      3400,
      3107,
      2957,
      2950,
      2845,
      2705,
      2599,
      2544,
      2438,
      2438,
      2438,
      2438,
      2438,
      2438,
      2362,
      2059,
      1839,
      1697,
      1510,
      1318,
      1156,
      1062,
      863,
      697,
      520,
      496,
      320,
      267,
      71,
      0
    ],
    "swim:geom": "approach",
    "swim:timestamps": [
      1769897892,
      1769897901,
      1769897937,
      1769897967,
      1769897994,
      1769898006,
      1769898057,
      1769898072,
      1769898111,
      1769898143,
      1769898167,
      1769898186,
      1769898234,
      1769898267,
      1769898297,
      1769898318,
      1769898354,
      1769898384,
      1769898402,
      1769898438,
      1769898472,
      1769898505,
      1769898519,
      1769898550,
      1769898590,
      1769898624,
      1769898658,
      1769898686,
      1769898707,
      1769898746,
      1769898773,
      1769898800,
      1769898821,
      1769898857,
      1769898887,
      1769898923,
      1769898933,
      1769898978,
      1769898990,
      1769899036,
      1769899054
    ],
    "wof:geomhash": "14162266b14e700f8eea3f2c518d391a",
    "wof:id": 2014682735,
    "wof:repo": "sfomuseum-data-flights-2026-01"
  },
  "bbox": [
    -123.50254,
    36.96551,
    -122.07717,
    37.61439
  ],
  "geometry": {"coordinates":[[-123.50254,36.96551],[-123.48364,36.97495],[-123.40707,37.00969],[-123.34718,37.0369],[-123.29217,37.06217],[-123.26758,37.07338],[-123.16426,37.12068],[-123.1343,37.13433],[-123.05762,37.16953],[-122.99566,37.19786],[-122.95041,37.21829],[-122.91465,37.2344],[-122.82588,37.26629],[-122.76537,37.28059],[-122.71437,37.29247],[-122.68037,37.30032],[-122.62058,37.31412],[-122.57082,37.32566],[-122.54062,37.33267],[-122.48096,37.34674],[-122.42541,37.35955],[-122.37149,37.37186],[-122.34857,37.37706],[-122.29984,37.38821],[-122.23815,37.40231],[-122.18633,37.41419],[-122.13467,37.425],[-122.09542,37.43496],[-122.07717,37.45416],[-122.09233,37.49082],[-122.11341,37.51013],[-122.14099,37.52261],[-122.1625,37.53157],[-122.19927,37.54712],[-122.2283,37.55937],[-122.26023,37.57279],[-122.268,37.57606],[-122.30257,37.59056],[-122.31175,37.59442],[-122.34623,37.60896],[-122.35976,37.61439]],"type":"LineString"}
}
