{
  "id": 2014681219,
  "type": "Feature",
  "properties": {
    "geom:area": 0,
    "geom:bbox": "-122.758560,37.426520,-122.131280,38.517850",
    "geom:latitude": 37.871621046517575,
    "geom:longitude": -122.4831772749005,
    "src:alt_label": "swim-approach",
    "src:geom": "swim",
    "swim:elevations": [
      7222,
      7142,
      6986,
      6862,
      6803,
      6712,
      6580,
      6484,
      6245,
      6109,
      5861,
      5616,
      5576,
      5410,
      4986,
      4907,
      4538,
      4388,
      3994,
      3582,
      3415,
      3350,
      3353,
      3353,
      3374,
      3353,
      3230,
      2996,
      2725,
      2509,
      2180,
      1971,
      1722,
      1585,
      1553,
      1450,
      1207,
      1111,
      947,
      838,
      809,
      731,
      546,
      453,
      306,
      179,
      90,
      109
    ],
    "swim:geom": "approach",
    "swim:timestamps": [
      1769885513,
      1769885532,
      1769885566,
      1769885592,
      1769885605,
      1769885628,
      1769885653,
      1769885676,
      1769885726,
      1769885757,
      1769885788,
      1769885817,
      1769885820,
      1769885851,
      1769885907,
      1769885918,
      1769885965,
      1769885983,
      1769886018,
      1769886057,
      1769886081,
      1769886112,
      1769886137,
      1769886162,
      1769886204,
      1769886232,
      1769886260,
      1769886293,
      1769886326,
      1769886352,
      1769886386,
      1769886405,
      1769886438,
      1769886472,
      1769886486,
      1769886513,
      1769886556,
      1769886570,
      1769886602,
      1769886653,
      1769886660,
      1769886677,
      1769886715,
      1769886738,
      1769886772,
      1769886808,
      1769886833,
      1769886847
    ],
    "wof:geomhash": "73532c7bcb2f018c43386bbb3eef9637",
    "wof:id": 2014681219,
    "wof:repo": "sfomuseum-data-flights-2026-01"
  },
  "bbox": [
    -122.75856,
    37.42652,
    -122.13128,
    38.51785
  ],
  "geometry": {"coordinates":[[-122.46535,38.51785],[-122.4893,38.49453],[-122.5333,38.45237],[-122.56565,38.42102],[-122.58175,38.40541],[-122.61069,38.3773],[-122.64288,38.34588],[-122.67132,38.31826],[-122.73353,38.25744],[-122.75856,38.21462],[-122.75105,38.16782],[-122.73849,38.12385],[-122.7372,38.11935],[-122.72366,38.07364],[-122.69906,37.99103],[-122.69455,37.97482],[-122.67244,37.90539],[-122.6545,37.88208],[-122.60893,37.8387],[-122.55902,37.79175],[-122.52877,37.76338],[-122.49234,37.72905],[-122.4653,37.70375],[-122.43869,37.67876],[-122.39923,37.64135],[-122.37473,37.61819],[-122.35587,37.5919],[-122.33886,37.55934],[-122.31869,37.52895],[-122.30324,37.50463],[-122.28349,37.47457],[-122.27088,37.4581],[-122.23068,37.44257],[-122.18653,37.42936],[-122.16926,37.42652],[-122.14336,37.44045],[-122.13128,37.47901],[-122.13406,37.49117],[-122.14971,37.5176],[-122.19447,37.54266],[-122.20211,37.54602],[-122.21809,37.55276],[-122.2552,37.56841],[-122.27498,37.57665],[-122.30156,37.58779],[-122.32832,37.59888],[-122.34758,37.6071],[-122.35815,37.61147]],"type":"LineString"}
}
