{
  "id": 2014685969,
  "type": "Feature",
  "properties": {
    "geom:area": 0,
    "geom:bbox": "-122.366190,37.628470,-121.459330,38.516040",
    "geom:latitude": 38.06181187235286,
    "geom:longitude": -121.90550669053617,
    "src:alt_label": "swim-takeoff",
    "src:geom": "swim",
    "swim:elevations": [
      152,
      363,
      619,
      855,
      1244,
      1570,
      2084,
      2570,
      3116,
      3401,
      3613,
      3647,
      4095,
      4614,
      5106,
      5151,
      5417,
      5670,
      6008,
      6146,
      6667,
      6821,
      6975,
      7022,
      7299,
      7477,
      7620,
      7620
    ],
    "swim:geom": "takeoff",
    "swim:timestamps": [
      1769886626,
      1769886640,
      1769886660,
      1769886677,
      1769886715,
      1769886744,
      1769886775,
      1769886802,
      1769886837,
      1769886865,
      1769886898,
      1769886901,
      1769886935,
      1769886976,
      1769887017,
      1769887021,
      1769887045,
      1769887074,
      1769887105,
      1769887117,
      1769887165,
      1769887181,
      1769887198,
      1769887204,
      1769887228,
      1769887242,
      1769887283,
      1769887304
    ],
    "wof:geomhash": "f467d7420f13b1ca03866dfd4f8602e4",
    "wof:id": 2014685969,
    "wof:repo": "sfomuseum-data-flights-2026-01"
  },
  "bbox": [
    -122.36619,
    37.62847,
    -121.45933,
    38.51604
  ],
  "geometry": {"coordinates":[[-122.36619,37.62847],[-122.35841,37.63814],[-122.34174,37.64767],[-122.32734,37.65521],[-122.29056,37.67646],[-122.25574,37.69639],[-122.21532,37.71985],[-122.1871,37.74812],[-122.15198,37.78694],[-122.12192,37.82049],[-122.08132,37.86518],[-122.07745,37.86945],[-122.03385,37.91746],[-121.97747,37.97958],[-121.92032,38.04237],[-121.91505,38.04815],[-121.87878,38.08767],[-121.83553,38.13487],[-121.78863,38.18619],[-121.77021,38.20633],[-121.69532,38.28792],[-121.67029,38.3151],[-121.64287,38.34485],[-121.63324,38.35533],[-121.59497,38.39682],[-121.57394,38.41961],[-121.49968,38.48452],[-121.45933,38.51604]],"type":"LineString"}
}
