{
  "id": 2014686015,
  "type": "Feature",
  "properties": {
    "geom:area": 0,
    "geom:bbox": "-122.546960,36.732550,-122.184930,37.726200",
    "geom:latitude": 37.26061805974842,
    "geom:longitude": -122.44328282360112,
    "src:alt_label": "swim-takeoff",
    "src:geom": "swim",
    "swim:elevations": [
      152,
      506,
      863,
      1157,
      1222,
      1803,
      2140,
      2987,
      3258,
      3348,
      3382,
      3471,
      3965,
      4488,
      4802,
      4928,
      5154,
      5402,
      5671,
      5971,
      6249,
      6556,
      6645,
      6908,
      7370,
      7460,
      7812,
      7939,
      8093,
      8381,
      8456
    ],
    "swim:geom": "takeoff",
    "swim:timestamps": [
      1769899972,
      1769899999,
      1769900028,
      1769900064,
      1769900073,
      1769900123,
      1769900141,
      1769900185,
      1769900216,
      1769900230,
      1769900239,
      1769900250,
      1769900293,
      1769900331,
      1769900356,
      1769900365,
      1769900380,
      1769900404,
      1769900427,
      1769900456,
      1769900482,
      1769900516,
      1769900525,
      1769900556,
      1769900606,
      1769900618,
      1769900663,
      1769900683,
      1769900710,
      1769900757,
      1769900769
    ],
    "wof:geomhash": "e2676a471a274ad36b9779151fbe1ef7",
    "wof:id": 2014686015,
    "wof:repo": "sfomuseum-data-flights-2026-01"
  },
  "bbox": [
    -122.54696,
    36.73255,
    -122.18493,
    37.7262
  ],
  "geometry": {"coordinates":[[-122.36694,37.63178],[-122.36164,37.65067],[-122.3623,37.67331],[-122.37461,37.70093],[-122.3842,37.70545],[-122.45323,37.7262],[-122.47912,37.71856],[-122.50174,37.67059],[-122.50515,37.63128],[-122.50683,37.61243],[-122.50805,37.59914],[-122.50972,37.58203],[-122.5161,37.51352],[-122.52223,37.44889],[-122.52631,37.40852],[-122.52782,37.39339],[-122.53024,37.36812],[-122.53397,37.32771],[-122.53761,37.2885],[-122.54228,37.23907],[-122.54659,37.19274],[-122.54696,37.13399],[-122.54098,37.11849],[-122.50045,37.0692],[-122.42857,36.99299],[-122.41118,36.97452],[-122.34597,36.90449],[-122.31717,36.87358],[-122.27647,36.83039],[-122.20361,36.75268],[-122.18493,36.73255]],"type":"LineString"}
}
