{
  "id": 2014682369,
  "type": "Feature",
  "properties": {
    "geom:area": 0,
    "geom:bbox": "-122.350880,36.735440,-121.886390,37.608560",
    "geom:latitude": 37.21269893474729,
    "geom:longitude": -122.07037970947636,
    "src:alt_label": "swim-approach",
    "src:geom": "swim",
    "swim:elevations": [
      5139,
      4803,
      4524,
      4238,
      3794,
      3692,
      3465,
      3171,
      3108,
      2956,
      2799,
      2602,
      2328,
      2156,
      2010,
      1772,
      1611,
      1404,
      1313,
      1097,
      888,
      609,
      521,
      327,
      245,
      157,
      52
    ],
    "swim:geom": "approach",
    "swim:timestamps": [
      1769867049,
      1769867083,
      1769867111,
      1769867141,
      1769867188,
      1769867200,
      1769867225,
      1769867268,
      1769867290,
      1769867330,
      1769867352,
      1769867385,
      1769867424,
      1769867449,
      1769867468,
      1769867500,
      1769867537,
      1769867574,
      1769867587,
      1769867615,
      1769867647,
      1769867695,
      1769867709,
      1769867756,
      1769867779,
      1769867804,
      1769867826
    ],
    "wof:geomhash": "a40f92abd54a6d3a623c62878a83f7d7",
    "wof:id": 2014682369,
    "wof:repo": "sfomuseum-data-flights-2026-01"
  },
  "bbox": [
    -122.35088,
    36.73544,
    -121.88639,
    37.60856
  ],
  "geometry": {"coordinates":[[-121.88639,36.73544],[-121.90832,36.7929],[-121.9216,36.83989],[-121.93581,36.89089],[-121.95862,36.96588],[-121.96618,36.98533],[-121.98101,37.02358],[-122.00623,37.08824],[-122.01804,37.11845],[-122.03923,37.17249],[-122.05062,37.20154],[-122.06668,37.24344],[-122.08609,37.29165],[-122.09777,37.32157],[-122.10686,37.34506],[-122.12253,37.38535],[-122.13747,37.42915],[-122.15281,37.46892],[-122.15944,37.48247],[-122.17852,37.50969],[-122.20027,37.54043],[-122.24778,37.56518],[-122.26053,37.57042],[-122.29961,37.58714],[-122.31716,37.5939],[-122.33547,37.602],[-122.35088,37.60856]],"type":"LineString"}
}
