{
  "id": 2014685851,
  "type": "Feature",
  "properties": {
    "geom:area": 0,
    "geom:bbox": "-123.486750,37.416710,-122.405230,37.667100",
    "geom:latitude": 37.55664433252864,
    "geom:longitude": -122.94472164697598,
    "src:alt_label": "swim-takeoff",
    "src:geom": "swim",
    "swim:elevations": [
      301,
      503,
      940,
      1152,
      1400,
      1865,
      2616,
      2683,
      3340,
      3420,
      3477,
      3701,
      3875,
      4237,
      4531,
      4964,
      5297,
      5756,
      6044,
      6374,
      6658,
      7045,
      7148
    ],
    "swim:geom": "takeoff",
    "swim:timestamps": [
      1769854043,
      1769854064,
      1769854096,
      1769854119,
      1769854158,
      1769854180,
      1769854226,
      1769854231,
      1769854274,
      1769854285,
      1769854293,
      1769854323,
      1769854344,
      1769854367,
      1769854382,
      1769854427,
      1769854455,
      1769854495,
      1769854523,
      1769854543,
      1769854574,
      1769854614,
      1769854629
    ],
    "wof:geomhash": "a24d0396f4e8b8d68c589348333dc8c3",
    "wof:id": 2014685851,
    "wof:repo": "sfomuseum-data-flights-2026-01"
  },
  "bbox": [
    -123.48675,
    37.41671,
    -122.40523,
    37.6671
  ],
  "geometry": {"coordinates":[[-122.40523,37.63139],[-122.42599,37.64047],[-122.45958,37.65599],[-122.48549,37.6671],[-122.54139,37.66581],[-122.57441,37.65612],[-122.64553,37.63853],[-122.65269,37.63664],[-122.7216,37.61932],[-122.73939,37.61499],[-122.7542,37.61109],[-122.80917,37.59684],[-122.84955,37.58562],[-122.8984,37.57263],[-122.92893,37.56475],[-123.0235,37.54017],[-123.08392,37.52459],[-123.17512,37.5001],[-123.23941,37.48264],[-123.28487,37.47034],[-123.35729,37.4517],[-123.45109,37.42621],[-123.48675,37.41671]],"type":"LineString"}
}
