{
  "id": 2014684763,
  "type": "Feature",
  "properties": {
    "geom:area": 0,
    "geom:bbox": "-122.386440,37.627940,-121.431700,38.516620",
    "geom:latitude": 38.120973590808866,
    "geom:longitude": -122.01340878487153,
    "src:alt_label": "swim-takeoff",
    "src:geom": "swim",
    "swim:elevations": [
      122,
      466,
      513,
      803,
      1199,
      1757,
      1903,
      2197,
      2311,
      2977,
      3186,
      3286,
      3698,
      4004,
      4082,
      4183,
      4767,
      4842,
      5361,
      5709,
      6037,
      6389,
      6581,
      6741,
      7189,
      7219,
      7534,
      7738,
      7882,
      7972
    ],
    "swim:geom": "takeoff",
    "swim:timestamps": [
      1769924938,
      1769924968,
      1769924977,
      1769925025,
      1769925049,
      1769925088,
      1769925097,
      1769925118,
      1769925127,
      1769925177,
      1769925207,
      1769925225,
      1769925268,
      1769925295,
      1769925301,
      1769925310,
      1769925358,
      1769925364,
      1769925410,
      1769925443,
      1769925472,
      1769925508,
      1769925529,
      1769925547,
      1769925598,
      1769925601,
      1769925636,
      1769925662,
      1769925680,
      1769925692
    ],
    "wof:geomhash": "2323d7e946c8559c25444d00cd546949",
    "wof:id": 2014684763,
    "wof:repo": "sfomuseum-data-flights-2026-01"
  },
  "bbox": [
    -122.38644,
    37.62794,
    -121.4317,
    38.51662
  ],
  "geometry": {"coordinates":[[-122.36658,37.62794],[-122.34936,37.64645],[-122.3428,37.65187],[-122.30978,37.69332],[-122.31837,37.72075],[-122.34544,37.76326],[-122.35096,37.77351],[-122.36331,37.79794],[-122.36859,37.80862],[-122.38644,37.87111],[-122.3843,37.91405],[-122.37336,37.94093],[-122.30433,37.99024],[-122.25568,38.01897],[-122.24476,38.02554],[-122.22839,38.03542],[-122.13924,38.08971],[-122.12787,38.09662],[-122.0393,38.15032],[-121.97351,38.19005],[-121.91424,38.22601],[-121.83959,38.27102],[-121.79509,38.29788],[-121.75642,38.3211],[-121.64436,38.38825],[-121.63768,38.39226],[-121.5593,38.43912],[-121.49998,38.47457],[-121.45921,38.49965],[-121.4317,38.51662]],"type":"LineString"}
}
