{
  "id": 2014686047,
  "type": "Feature",
  "properties": {
    "geom:area": 0,
    "geom:bbox": "-122.357200,37.639350,-121.248940,38.423490",
    "geom:latitude": 38.041067316693685,
    "geom:longitude": -121.81185546612761,
    "src:alt_label": "swim-takeoff",
    "src:geom": "swim",
    "swim:elevations": [
      463,
      610,
      820,
      916,
      1192,
      1380,
      1727,
      2187,
      2339,
      2874,
      3001,
      3395,
      3557,
      3736,
      3878,
      4056,
      4232,
      4539,
      4682,
      5323,
      5430,
      5912,
      6153,
      6264,
      6647,
      6836,
      7039,
      7134,
      7312,
      7498,
      7607
    ],
    "swim:geom": "takeoff",
    "swim:timestamps": [
      1769849546,
      1769849556,
      1769849573,
      1769849585,
      1769849621,
      1769849642,
      1769849675,
      1769849707,
      1769849717,
      1769849756,
      1769849766,
      1769849811,
      1769849838,
      1769849859,
      1769849871,
      1769849889,
      1769849906,
      1769849927,
      1769849941,
      1769849990,
      1769850011,
      1769850056,
      1769850087,
      1769850102,
      1769850142,
      1769850162,
      1769850186,
      1769850193,
      1769850212,
      1769850233,
      1769850248
    ],
    "wof:geomhash": "5ab7c6910a5e367e8e616de4d74abae6",
    "wof:id": 2014686047,
    "wof:repo": "sfomuseum-data-flights-2026-01"
  },
  "bbox": [
    -122.3572,
    37.63935,
    -121.24894,
    38.42349
  ],
  "geometry": {"coordinates":[[-122.3572,37.63935],[-122.34917,37.64454],[-122.33489,37.65218],[-122.32463,37.65817],[-122.29034,37.67717],[-122.26657,37.69063],[-122.22461,37.71296],[-122.18949,37.7446],[-122.18054,37.75467],[-122.14247,37.79769],[-122.13152,37.80985],[-122.08331,37.8632],[-122.04467,37.89658],[-122.00934,37.92058],[-121.98856,37.9345],[-121.95634,37.95617],[-121.92711,37.9759],[-121.88922,38.00151],[-121.86387,38.01861],[-121.77198,38.08068],[-121.73379,38.10656],[-121.6462,38.16545],[-121.58652,38.20513],[-121.55524,38.22599],[-121.47331,38.28053],[-121.43355,38.30703],[-121.38342,38.34035],[-121.36776,38.35066],[-121.32618,38.37649],[-121.28095,38.40402],[-121.24894,38.42349]],"type":"LineString"}
}
