{
  "id": 2014685921,
  "type": "Feature",
  "properties": {
    "geom:area": 0,
    "geom:bbox": "-122.365330,37.629860,-122.216010,38.495430",
    "geom:latitude": 38.03026899965774,
    "geom:longitude": -122.24296656200958,
    "src:alt_label": "swim-takeoff",
    "src:geom": "swim",
    "swim:elevations": [
      183,
      841,
      1169,
      1259,
      1908,
      2112,
      2474,
      3265,
      3368,
      3479,
      4160,
      4328,
      4726,
      5067,
      5689,
      5941,
      6376,
      6455,
      6966,
      7199
    ],
    "swim:geom": "takeoff",
    "swim:timestamps": [
      1769865213,
      1769865262,
      1769865294,
      1769865305,
      1769865358,
      1769865371,
      1769865394,
      1769865447,
      1769865463,
      1769865483,
      1769865532,
      1769865543,
      1769865576,
      1769865603,
      1769865657,
      1769865677,
      1769865717,
      1769865725,
      1769865773,
      1769865801
    ],
    "wof:geomhash": "697618bbc1cdea5d812e1056631a3cbd",
    "wof:id": 2014685921,
    "wof:repo": "sfomuseum-data-flights-2026-01"
  },
  "bbox": [
    -122.36533,
    37.62986,
    -122.21601,
    38.49543
  ],
  "geometry": {"coordinates":[[-122.36533,37.62986],[-122.32699,37.65581],[-122.29727,37.67256],[-122.28537,37.67936],[-122.22281,37.7197],[-122.21607,37.7359],[-122.21601,37.76697],[-122.21779,37.84077],[-122.21836,37.86487],[-122.21936,37.89693],[-122.22164,37.98094],[-122.22226,38.00069],[-122.22395,38.05786],[-122.2279,38.10889],[-122.23617,38.21018],[-122.23931,38.24876],[-122.24536,38.32575],[-122.24664,38.34107],[-122.25459,38.43896],[-122.2594,38.49543]],"type":"LineString"}
}
