{
  "id": 2014681705,
  "type": "Feature",
  "properties": {
    "geom:area": 0,
    "geom:bbox": "-122.361450,37.491650,-121.247060,37.615410",
    "geom:latitude": 37.5470765570587,
    "geom:longitude": -121.80926054572645,
    "src:alt_label": "swim-approach",
    "src:geom": "swim",
    "swim:elevations": [
      4699,
      4318,
      4041,
      3670,
      3635,
      3201,
      3112,
      2914,
      2738,
      2437,
      2438,
      2314,
      2215,
      2046,
      1831,
      1829,
      1739,
      1675,
      1514,
      1245,
      971,
      888,
      649,
      477,
      395,
      273,
      85,
      104
    ],
    "swim:geom": "approach",
    "swim:timestamps": [
      1769865610,
      1769865647,
      1769865677,
      1769865717,
      1769865721,
      1769865770,
      1769865797,
      1769865830,
      1769865843,
      1769865898,
      1769865902,
      1769865947,
      1769865968,
      1769866002,
      1769866048,
      1769866054,
      1769866091,
      1769866111,
      1769866144,
      1769866173,
      1769866204,
      1769866213,
      1769866249,
      1769866282,
      1769866294,
      1769866323,
      1769866372,
      1769866395
    ],
    "wof:geomhash": "315373fb8afbd7c035c7e61923f594b7",
    "wof:id": 2014681705,
    "wof:repo": "sfomuseum-data-flights-2026-01"
  },
  "bbox": [
    -122.36145,
    37.49165,
    -121.24706,
    37.61541
  ],
  "geometry": {"coordinates":[[-121.24706,37.59482],[-121.31754,37.58574],[-121.37491,37.57961],[-121.44824,37.57146],[-121.45515,37.57066],[-121.54639,37.55992],[-121.59383,37.55438],[-121.64782,37.54532],[-121.66887,37.54025],[-121.75476,37.51964],[-121.76056,37.51823],[-121.82542,37.5027],[-121.8544,37.49579],[-121.90505,37.49165],[-121.97459,37.49363],[-121.98385,37.49434],[-122.03717,37.51097],[-122.06447,37.5197],[-122.10615,37.53325],[-122.14143,37.54459],[-122.17903,37.55674],[-122.18966,37.56019],[-122.23221,37.57388],[-122.26832,37.58538],[-122.28035,37.58874],[-122.3065,37.59643],[-122.34412,37.60842],[-122.36145,37.61541]],"type":"LineString"}
}
