{
  "id": 2014685691,
  "type": "Feature",
  "properties": {
    "geom:area": 0,
    "geom:bbox": "-122.527480,37.628000,-122.054210,38.496400",
    "geom:latitude": 38.02799942435884,
    "geom:longitude": -122.3095322235916,
    "src:alt_label": "swim-takeoff",
    "src:geom": "swim",
    "swim:elevations": [
      152,
      486,
      623,
      709,
      769,
      1110,
      1628,
      1961,
      2330,
      2558,
      2797,
      3017,
      3143,
      3380,
      3481,
      3737,
      4227,
      4634,
      4778,
      5340,
      5443,
      5666,
      6020,
      6333
    ],
    "swim:geom": "takeoff",
    "swim:timestamps": [
      1769888278,
      1769888300,
      1769888311,
      1769888326,
      1769888341,
      1769888383,
      1769888417,
      1769888446,
      1769888482,
      1769888502,
      1769888522,
      1769888543,
      1769888564,
      1769888604,
      1769888622,
      1769888650,
      1769888689,
      1769888723,
      1769888738,
      1769888787,
      1769888804,
      1769888831,
      1769888866,
      1769888900
    ],
    "wof:geomhash": "f04f8a877de54b2a0142752c460eb638",
    "wof:id": 2014685691,
    "wof:repo": "sfomuseum-data-flights-2026-01"
  },
  "bbox": [
    -122.52748,
    37.628,
    -122.05421,
    38.4964
  ],
  "geometry": {"coordinates":[[-122.39733,37.628],[-122.41977,37.63753],[-122.43148,37.64274],[-122.44792,37.64974],[-122.46581,37.65748],[-122.51812,37.68621],[-122.52669,37.72882],[-122.52748,37.76694],[-122.50455,37.81116],[-122.47419,37.82432],[-122.44336,37.83736],[-122.41911,37.86047],[-122.40001,37.88921],[-122.36241,37.94858],[-122.3449,37.97642],[-122.3152,38.02313],[-122.27233,38.08984],[-122.23389,38.1493],[-122.21642,38.17623],[-122.15859,38.26524],[-122.13792,38.29704],[-122.10869,38.35096],[-122.08085,38.42336],[-122.05421,38.4964]],"type":"LineString"}
}
