{
  "id": 2014685933,
  "type": "Feature",
  "properties": {
    "geom:area": 0,
    "geom:bbox": "-122.386140,37.642270,-121.257190,37.991190",
    "geom:latitude": 37.938447593915505,
    "geom:longitude": -121.93494346699576,
    "src:alt_label": "swim-takeoff",
    "src:geom": "swim",
    "swim:elevations": [
      464,
      730,
      1120,
      1419,
      1768,
      2270,
      2634,
      3258,
      3355,
      3509,
      4072,
      4299,
      4469,
      5210,
      5525,
      5719,
      6013,
      6328,
      6604,
      6881,
      7196,
      7452,
      7727,
      7963,
      8090
    ],
    "swim:geom": "takeoff",
    "swim:timestamps": [
      1769922772,
      1769922790,
      1769922832,
      1769922867,
      1769922888,
      1769922918,
      1769922938,
      1769922987,
      1769923005,
      1769923038,
      1769923076,
      1769923095,
      1769923110,
      1769923164,
      1769923197,
      1769923215,
      1769923251,
      1769923282,
      1769923308,
      1769923338,
      1769923371,
      1769923398,
      1769923428,
      1769923458,
      1769923476
    ],
    "wof:geomhash": "136ca11fe9df0c40bdcd51e77fdd5f39",
    "wof:id": 2014685933,
    "wof:repo": "sfomuseum-data-flights-2026-01"
  },
  "bbox": [
    -122.38614,
    37.64227,
    -121.25719,
    37.99119
  ],
  "geometry": {"coordinates":[[-122.35577,37.64227],[-122.34267,37.65315],[-122.31485,37.68334],[-122.32094,37.72138],[-122.33452,37.74476],[-122.3539,37.77888],[-122.3654,37.80293],[-122.38614,37.86544],[-122.3835,37.89233],[-122.34833,37.93918],[-122.268,37.96254],[-122.22708,37.97119],[-122.19349,37.9784],[-122.0673,37.98879],[-121.98898,37.98928],[-121.94526,37.98948],[-121.85558,37.99008],[-121.77472,37.99047],[-121.70776,37.99074],[-121.62886,37.99094],[-121.54098,37.99102],[-121.4687,37.99114],[-121.38795,37.99104],[-121.30642,37.99119],[-121.25719,37.99109]],"type":"LineString"}
}
