{
  "id": 2014684705,
  "type": "Feature",
  "properties": {
    "geom:area": 0,
    "geom:bbox": "-122.365480,37.629690,-122.115480,38.492070",
    "geom:latitude": 38.02723898651635,
    "geom:longitude": -122.17922275076144,
    "src:alt_label": "swim-takeoff",
    "src:geom": "swim",
    "swim:elevations": [
      247,
      482,
      648,
      1286,
      1932,
      2186,
      2473,
      3100,
      3464,
      3525,
      3808,
      4272,
      4518,
      5024,
      5152,
      5540,
      5759,
      6005,
      6273,
      6444
    ],
    "swim:geom": "takeoff",
    "swim:timestamps": [
      1769876968,
      1769876987,
      1769877012,
      1769877074,
      1769877114,
      1769877131,
      1769877150,
      1769877194,
      1769877238,
      1769877246,
      1769877277,
      1769877310,
      1769877334,
      1769877384,
      1769877397,
      1769877444,
      1769877470,
      1769877502,
      1769877537,
      1769877556
    ],
    "wof:geomhash": "eecd1a9e77924b7cc3426bd424ba4279",
    "wof:id": 2014684705,
    "wof:repo": "sfomuseum-data-flights-2026-01"
  },
  "bbox": [
    -122.36548,
    37.62969,
    -122.11548,
    38.49207
  ],
  "geometry": {"coordinates":[[-122.36548,37.62969],[-122.35366,37.63903],[-122.33247,37.65147],[-122.26028,37.69422],[-122.21402,37.72779],[-122.20766,37.74989],[-122.20377,37.77525],[-122.19398,37.83688],[-122.183,37.9043],[-122.18091,37.91706],[-122.17252,37.96811],[-122.1626,38.02623],[-122.15599,38.06855],[-122.14202,38.15819],[-122.13808,38.18232],[-122.12336,38.27149],[-122.11548,38.32055],[-122.11614,38.38394],[-122.12082,38.45308],[-122.12353,38.49207]],"type":"LineString"}
}
