{
  "id": 2014682311,
  "type": "Feature",
  "properties": {
    "geom:area": 0,
    "geom:bbox": "-122.359950,37.491410,-121.264430,37.614390",
    "geom:latitude": 37.54623871379156,
    "geom:longitude": -121.81702222321034,
    "src:alt_label": "swim-approach",
    "src:geom": "swim",
    "swim:elevations": [
      4757,
      4474,
      4199,
      3796,
      3528,
      3170,
      2940,
      2731,
      2557,
      2521,
      2169,
      2102,
      1926,
      1889,
      1609,
      1339,
      1277,
      1186,
      1115,
      748,
      445,
      337,
      304,
      119,
      74
    ],
    "swim:geom": "approach",
    "swim:timestamps": [
      1769876413,
      1769876441,
      1769876468,
      1769876510,
      1769876536,
      1769876603,
      1769876654,
      1769876697,
      1769876726,
      1769876733,
      1769876784,
      1769876794,
      1769876841,
      1769876854,
      1769876895,
      1769876933,
      1769876956,
      1769876987,
      1769877002,
      1769877065,
      1769877114,
      1769877142,
      1769877150,
      1769877194,
      1769877227
    ],
    "wof:geomhash": "b5dd90da1c742fcde18785e6de9856e6",
    "wof:id": 2014682311,
    "wof:repo": "sfomuseum-data-flights-2026-01"
  },
  "bbox": [
    -122.35995,
    37.49141,
    -121.26443,
    37.61439
  ],
  "geometry": {"coordinates":[[-121.26443,37.59247],[-121.32208,37.58553],[-121.37547,37.57986],[-121.45443,37.57083],[-121.5033,37.56504],[-121.62079,37.5507],[-121.69843,37.53334],[-121.75567,37.51942],[-121.79371,37.51031],[-121.80248,37.50818],[-121.86974,37.49268],[-121.88449,37.49141],[-121.94983,37.49273],[-121.96755,37.49329],[-122.02185,37.50562],[-122.07264,37.5222],[-122.10148,37.53166],[-122.13965,37.54384],[-122.15678,37.54944],[-122.22511,37.57146],[-122.27171,37.58665],[-122.29703,37.59359],[-122.30319,37.5953],[-122.33637,37.60521],[-122.35995,37.61439]],"type":"LineString"}
}
