{
  "id": 2014683199,
  "type": "Feature",
  "properties": {
    "geom:area": 0,
    "geom:bbox": "-122.475570,36.721490,-121.258280,37.705400",
    "geom:latitude": 37.23526172480429,
    "geom:longitude": -121.93576371498726,
    "src:alt_label": "swim-takeoff",
    "src:geom": "swim",
    "swim:elevations": [
      122,
      518,
      748,
      831,
      1156,
      1295,
      1829,
      2261,
      2481,
      3330,
      3390,
      4002,
      4458,
      4740,
      5481,
      5690,
      6298,
      6696,
      7116,
      7166,
      7804,
      8313,
      8574,
      8739,
      8884,
      8983,
      9421,
      9608,
      9910,
      10208,
      10504,
      10664,
      10668
    ],
    "swim:geom": "takeoff",
    "swim:timestamps": [
      1769926188,
      1769926225,
      1769926253,
      1769926262,
      1769926291,
      1769926300,
      1769926345,
      1769926375,
      1769926387,
      1769926433,
      1769926440,
      1769926495,
      1769926525,
      1769926541,
      1769926585,
      1769926597,
      1769926645,
      1769926677,
      1769926707,
      1769926710,
      1769926756,
      1769926797,
      1769926825,
      1769926844,
      1769926862,
      1769926874,
      1769926909,
      1769926924,
      1769926951,
      1769926981,
      1769927026,
      1769927053,
      1769927090
    ],
    "wof:geomhash": "ac992c8d0778f205e23abd1d8a3e14de",
    "wof:id": 2014683199,
    "wof:repo": "sfomuseum-data-flights-2026-01"
  },
  "bbox": [
    -122.47557,
    36.72149,
    -121.25828,
    37.7054
  ],
  "geometry": {"coordinates":[[-122.36978,37.62789],[-122.36351,37.65544],[-122.37588,37.67742],[-122.38305,37.68425],[-122.41332,37.70282],[-122.42497,37.7054],[-122.47557,37.67758],[-122.47178,37.63955],[-122.46188,37.62508],[-122.41655,37.57484],[-122.40784,37.56829],[-122.32666,37.50909],[-122.27751,37.47346],[-122.2519,37.45504],[-122.18013,37.40297],[-122.16043,37.38867],[-122.07784,37.32862],[-122.02087,37.28701],[-121.96652,37.24722],[-121.96109,37.24324],[-121.87775,37.18211],[-121.80289,37.12711],[-121.75263,37.0897],[-121.71609,37.06287],[-121.68234,37.03781],[-121.6597,37.02076],[-121.59403,36.97211],[-121.56504,36.95145],[-121.51554,36.91436],[-121.46059,36.8733],[-121.37823,36.81116],[-121.32737,36.77344],[-121.25828,36.72149]],"type":"LineString"}
}
