{
  "id": 2014685911,
  "type": "Feature",
  "properties": {
    "geom:area": 0,
    "geom:bbox": "-122.462650,37.226980,-121.295430,37.707750",
    "geom:latitude": 37.4146545096713,
    "geom:longitude": -121.9947465377494,
    "src:alt_label": "swim-takeoff",
    "src:geom": "swim",
    "swim:elevations": [
      340,
      743,
      982,
      1108,
      1283,
      1467,
      2039,
      2522,
      2947,
      3047,
      3235,
      3414,
      3783,
      3912,
      4542,
      4812,
      5206,
      5637,
      5943,
      6010,
      6367,
      6608,
      7067,
      7310,
      7513,
      7660,
      7754,
      7893,
      8067,
      8201,
      8498,
      8709,
      8873
    ],
    "swim:geom": "takeoff",
    "swim:timestamps": [
      1769848554,
      1769848588,
      1769848607,
      1769848623,
      1769848651,
      1769848667,
      1769848703,
      1769848734,
      1769848761,
      1769848780,
      1769848821,
      1769848831,
      1769848853,
      1769848862,
      1769848913,
      1769848932,
      1769848959,
      1769848996,
      1769849020,
      1769849027,
      1769849059,
      1769849080,
      1769849117,
      1769849139,
      1769849162,
      1769849178,
      1769849192,
      1769849212,
      1769849238,
      1769849258,
      1769849295,
      1769849327,
      1769849345
    ],
    "wof:geomhash": "f1127496a0b887a4b169227b04c3b263",
    "wof:id": 2014685911,
    "wof:repo": "sfomuseum-data-flights-2026-01"
  },
  "bbox": [
    -122.46265,
    37.22698,
    -121.29543,
    37.70775
  ],
  "geometry": {"coordinates":[[-122.3657,37.63877],[-122.36347,37.66461],[-122.36208,37.68025],[-122.36529,37.69319],[-122.39477,37.70775],[-122.4166,37.70234],[-122.43707,37.66364],[-122.44172,37.62611],[-122.44978,37.59116],[-122.45581,37.56747],[-122.46265,37.51078],[-122.45521,37.49625],[-122.42251,37.47394],[-122.40511,37.4693],[-122.29966,37.44812],[-122.26067,37.43985],[-122.20369,37.42766],[-122.12209,37.4102],[-122.07065,37.39914],[-122.05484,37.39575],[-121.98413,37.38027],[-121.93674,37.36982],[-121.8508,37.35088],[-121.80004,37.33968],[-121.74846,37.32829],[-121.71161,37.32015],[-121.67875,37.31258],[-121.62954,37.30156],[-121.56538,37.28734],[-121.51642,37.27634],[-121.42201,37.25515],[-121.34241,37.23742],[-121.29543,37.22698]],"type":"LineString"}
}
