{
  "id": 2014681195,
  "type": "Feature",
  "properties": {
    "geom:area": 0,
    "geom:bbox": "-122.350270,36.748430,-121.894010,37.608230",
    "geom:latitude": 37.220340045805436,
    "geom:longitude": -122.07267023705718,
    "src:alt_label": "swim-approach",
    "src:geom": "swim",
    "swim:elevations": [
      5167,
      4988,
      4609,
      4383,
      4116,
      4008,
      3795,
      3479,
      3164,
      2927,
      2877,
      2621,
      2440,
      2188,
      1972,
      1633,
      1439,
      1285,
      1139,
      888,
      669,
      537,
      391,
      236,
      92,
      64
    ],
    "swim:geom": "approach",
    "swim:timestamps": [
      1769862505,
      1769862522,
      1769862561,
      1769862588,
      1769862619,
      1769862633,
      1769862661,
      1769862702,
      1769862743,
      1769862777,
      1769862784,
      1769862821,
      1769862850,
      1769862881,
      1769862910,
      1769862957,
      1769862984,
      1769863006,
      1769863027,
      1769863061,
      1769863090,
      1769863115,
      1769863148,
      1769863182,
      1769863224,
      1769863235
    ],
    "wof:geomhash": "5eb796e5ca0d233cee576300a656c11b",
    "wof:id": 2014681195,
    "wof:repo": "sfomuseum-data-flights-2026-01"
  },
  "bbox": [
    -122.35027,
    36.74843,
    -121.89401,
    37.60823
  ],
  "geometry": {"coordinates":[[-121.89401,36.74843],[-121.90423,36.7786],[-121.92269,36.84453],[-121.93531,36.8898],[-121.94938,36.9398],[-121.95716,36.96241],[-121.97459,37.00573],[-121.99891,37.06865],[-122.02229,37.12894],[-122.04074,37.17647],[-122.04448,37.18606],[-122.06372,37.23524],[-122.07883,37.27383],[-122.09443,37.31344],[-122.10908,37.35065],[-122.13087,37.41051],[-122.14225,37.44414],[-122.152,37.47245],[-122.16061,37.49739],[-122.19055,37.53504],[-122.22665,37.55582],[-122.25524,37.56898],[-122.28652,37.5815],[-122.31327,37.59274],[-122.34284,37.60512],[-122.35027,37.60823]],"type":"LineString"}
}
