{
  "id": 2014682285,
  "type": "Feature",
  "properties": {
    "geom:area": 0,
    "geom:bbox": "-122.358760,36.934270,-121.948060,37.614220",
    "geom:latitude": 37.31858978813664,
    "geom:longitude": -122.11090620969482,
    "src:alt_label": "swim-approach",
    "src:geom": "swim",
    "swim:elevations": [
      3991,
      3823,
      3551,
      3294,
      3136,
      3075,
      2992,
      2757,
      2535,
      2396,
      2056,
      1968,
      1836,
      1646,
      1547,
      1286,
      994,
      948,
      692,
      545,
      428,
      311,
      219,
      67,
      0
    ],
    "swim:geom": "approach",
    "swim:timestamps": [
      1769881198,
      1769881220,
      1769881248,
      1769881278,
      1769881307,
      1769881335,
      1769881356,
      1769881395,
      1769881428,
      1769881450,
      1769881494,
      1769881519,
      1769881547,
      1769881579,
      1769881596,
      1769881631,
      1769881674,
      1769881681,
      1769881730,
      1769881764,
      1769881792,
      1769881819,
      1769881840,
      1769881877,
      1769881894
    ],
    "wof:geomhash": "65ba8d2d2da040d8b025e39558be8041",
    "wof:id": 2014682285,
    "wof:repo": "sfomuseum-data-flights-2026-01"
  },
  "bbox": [
    -122.35876,
    36.93427,
    -121.94806,
    37.61422
  ],
  "geometry": {"coordinates":[[-121.94806,36.93427],[-121.95926,36.96745],[-121.97642,37.01148],[-121.99396,37.05674],[-122.01086,37.10008],[-122.02575,37.13808],[-122.03679,37.166],[-122.05617,37.21545],[-122.0724,37.25705],[-122.08329,37.28518],[-122.10559,37.34192],[-122.11774,37.37266],[-122.12927,37.40527],[-122.14089,37.43925],[-122.14735,37.45777],[-122.15923,37.49503],[-122.17401,37.54034],[-122.17614,37.54671],[-122.22378,37.57084],[-122.25416,37.58073],[-122.27788,37.58774],[-122.30032,37.59451],[-122.31786,37.59974],[-122.34667,37.60913],[-122.35876,37.61422]],"type":"LineString"}
}
