{
  "id": 2014682503,
  "type": "Feature",
  "properties": {
    "geom:area": 0,
    "geom:bbox": "-122.353560,37.491870,-121.288070,37.612010",
    "geom:latitude": 37.54493813867655,
    "geom:longitude": -121.82547177919838,
    "src:alt_label": "swim-approach",
    "src:geom": "swim",
    "swim:elevations": [
      4646,
      4380,
      4142,
      3887,
      3611,
      3283,
      3253,
      3143,
      2972,
      2743,
      2514,
      2406,
      2368,
      2242,
      2126,
      2068,
      1788,
      1643,
      1476,
      1277,
      1149,
      1059,
      968,
      796,
      735,
      623,
      475,
      382,
      154,
      46
    ],
    "swim:geom": "approach",
    "swim:timestamps": [
      1769895985,
      1769896012,
      1769896036,
      1769896060,
      1769896090,
      1769896132,
      1769896144,
      1769896168,
      1769896193,
      1769896224,
      1769896256,
      1769896287,
      1769896293,
      1769896314,
      1769896348,
      1769896356,
      1769896408,
      1769896433,
      1769896463,
      1769896498,
      1769896516,
      1769896535,
      1769896555,
      1769896588,
      1769896603,
      1769896626,
      1769896657,
      1769896693,
      1769896736,
      1769896757
    ],
    "wof:geomhash": "0c9548dc2e41a4230fdb1965d8c1e7d0",
    "wof:id": 2014682503,
    "wof:repo": "sfomuseum-data-flights-2026-01"
  },
  "bbox": [
    -122.35356,
    37.49187,
    -121.28807,
    37.61201
  ],
  "geometry": {"coordinates":[[-121.28807,37.58948],[-121.34116,37.58382],[-121.38757,37.57843],[-121.43342,37.5732],[-121.4905,37.56652],[-121.56893,37.55734],[-121.59037,37.55482],[-121.63095,37.54917],[-121.66984,37.54006],[-121.71889,37.52839],[-121.76949,37.51624],[-121.81822,37.50452],[-121.82735,37.5023],[-121.85904,37.4947],[-121.9112,37.49187],[-121.9233,37.49217],[-121.99611,37.49733],[-122.02602,37.5068],[-122.06147,37.51842],[-122.10319,37.53211],[-122.12434,37.53905],[-122.14528,37.54575],[-122.16736,37.55288],[-122.2015,37.56387],[-122.21602,37.5686],[-122.23839,37.57576],[-122.26817,37.58515],[-122.29918,37.59413],[-122.33636,37.60516],[-122.35356,37.61201]],"type":"LineString"}
}
