{
  "id": 2014684951,
  "type": "Feature",
  "properties": {
    "geom:area": 0,
    "geom:bbox": "-122.387310,37.626890,-121.286820,37.991440",
    "geom:latitude": 37.93345986973989,
    "geom:longitude": -121.95494672829038,
    "src:alt_label": "swim-takeoff",
    "src:geom": "swim",
    "swim:elevations": [
      183,
      647,
      845,
      1244,
      1286,
      2293,
      2604,
      3121,
      3321,
      3529,
      3700,
      4062,
      4119,
      4288,
      4698,
      4779,
      5293,
      5672,
      5867,
      6038,
      6165,
      6690,
      7057,
      7464,
      7609
    ],
    "swim:geom": "takeoff",
    "swim:timestamps": [
      1769926520,
      1769926558,
      1769926579,
      1769926618,
      1769926621,
      1769926677,
      1769926692,
      1769926728,
      1769926758,
      1769926797,
      1769926825,
      1769926856,
      1769926862,
      1769926874,
      1769926914,
      1769926921,
      1769926963,
      1769927005,
      1769927035,
      1769927059,
      1769927074,
      1769927126,
      1769927155,
      1769927182,
      1769927195
    ],
    "wof:geomhash": "a2e0d4c4bfa7607b73cee8736df04c16",
    "wof:id": 2014684951,
    "wof:repo": "sfomuseum-data-flights-2026-01"
  },
  "bbox": [
    -122.38731,
    37.62689,
    -121.28682,
    37.99144
  ],
  "geometry": {"coordinates":[[-122.36747,37.62689],[-122.34516,37.64937],[-122.32823,37.66365],[-122.312,37.7029],[-122.31352,37.70633],[-122.3499,37.76973],[-122.35855,37.78742],[-122.38001,37.83125],[-122.38731,37.87468],[-122.35297,37.9351],[-122.29438,37.96075],[-122.21651,37.97585],[-122.20143,37.97855],[-122.17114,37.98402],[-122.06957,37.98894],[-122.04847,37.98897],[-121.93611,37.98943],[-121.82262,37.99019],[-121.74015,37.99059],[-121.67247,37.99083],[-121.62965,37.99093],[-121.48146,37.9913],[-121.39965,37.99134],[-121.32431,37.99143],[-121.28682,37.99144]],"type":"LineString"}
}
