{
  "id": 2014682561,
  "type": "Feature",
  "properties": {
    "geom:area": 0,
    "geom:bbox": "-122.359560,37.491670,-121.250330,37.614390",
    "geom:latitude": 37.54679862031799,
    "geom:longitude": -121.80985090909239,
    "src:alt_label": "swim-approach",
    "src:geom": "swim",
    "swim:elevations": [
      5018,
      4706,
      4480,
      4347,
      4005,
      3828,
      3361,
      3186,
      2840,
      2763,
      2515,
      2346,
      2283,
      2243,
      2125,
      2001,
      1858,
      1600,
      1444,
      1412,
      1316,
      1193,
      1024,
      855,
      647,
      464,
      437,
      337,
      317,
      190,
      0
    ],
    "swim:geom": "approach",
    "swim:timestamps": [
      1769850732,
      1769850765,
      1769850804,
      1769850823,
      1769850858,
      1769850875,
      1769850924,
      1769850944,
      1769850988,
      1769850996,
      1769851032,
      1769851077,
      1769851087,
      1769851095,
      1769851116,
      1769851147,
      1769851185,
      1769851224,
      1769851253,
      1769851262,
      1769851277,
      1769851301,
      1769851334,
      1769851363,
      1769851405,
      1769851435,
      1769851445,
      1769851463,
      1769851475,
      1769851502,
      1769851546
    ],
    "wof:geomhash": "fe484571cefc659ff510de6e5d085c93",
    "wof:id": 2014682561,
    "wof:repo": "sfomuseum-data-flights-2026-01"
  },
  "bbox": [
    -122.35956,
    37.49167,
    -121.25033,
    37.61439
  ],
  "geometry": {"coordinates":[[-121.25033,37.59443],[-121.31636,37.58656],[-121.38868,37.5784],[-121.42154,37.57458],[-121.47849,37.56785],[-121.50743,37.56337],[-121.58785,37.5552],[-121.62064,37.55116],[-121.69008,37.5353],[-121.70303,37.53223],[-121.75909,37.51871],[-121.82434,37.50306],[-121.8397,37.49942],[-121.85148,37.49659],[-121.88079,37.49167],[-121.9264,37.49219],[-121.98324,37.4946],[-122.03253,37.50901],[-122.06632,37.52006],[-122.07645,37.52343],[-122.09292,37.52876],[-122.1193,37.53734],[-122.15638,37.54932],[-122.18852,37.55978],[-122.23494,37.57468],[-122.26693,37.58478],[-122.27604,37.58719],[-122.29263,37.59222],[-122.30287,37.59532],[-122.32486,37.60181],[-122.35956,37.61439]],"type":"LineString"}
}
