{
  "id": 2014684321,
  "type": "Feature",
  "properties": {
    "geom:area": 0,
    "geom:bbox": "-122.461020,37.315250,-121.264760,37.711940",
    "geom:latitude": 37.46023060900423,
    "geom:longitude": -121.96898029091179,
    "src:alt_label": "swim-takeoff",
    "src:geom": "swim",
    "swim:elevations": [
      122,
      457,
      576,
      797,
      1207,
      1467,
      1553,
      2096,
      2576,
      2761,
      3236,
      3403,
      3602,
      3812,
      4349,
      4736,
      5137,
      5580,
      5895,
      6301,
      6608,
      6913,
      7374,
      7734,
      7874,
      8375,
      8545,
      8597,
      8903,
      8922
    ],
    "swim:geom": "takeoff",
    "swim:timestamps": [
      1769889707,
      1769889745,
      1769889763,
      1769889805,
      1769889836,
      1769889852,
      1769889860,
      1769889892,
      1769889925,
      1769889937,
      1769889983,
      1769890004,
      1769890025,
      1769890040,
      1769890077,
      1769890106,
      1769890133,
      1769890168,
      1769890189,
      1769890216,
      1769890242,
      1769890270,
      1769890315,
      1769890348,
      1769890357,
      1769890408,
      1769890432,
      1769890444,
      1769890495,
      1769890500
    ],
    "wof:geomhash": "beee222172c51ffe6db3f7c9b7a957b5",
    "wof:id": 2014684321,
    "wof:repo": "sfomuseum-data-flights-2026-01"
  },
  "bbox": [
    -122.46102,
    37.31525,
    -121.26476,
    37.71194
  ],
  "geometry": {"coordinates":[[-122.36914,37.62889],[-122.36292,37.65703],[-122.36164,37.67328],[-122.38506,37.71194],[-122.42911,37.70893],[-122.44516,37.69367],[-122.44825,37.68513],[-122.45412,37.64528],[-122.45925,37.6057],[-122.46102,37.59075],[-122.42411,37.54398],[-122.3866,37.53405],[-122.34604,37.52483],[-122.31648,37.51794],[-122.24202,37.49994],[-122.18284,37.48567],[-122.12613,37.472],[-122.05236,37.4541],[-122.00712,37.4431],[-121.94706,37.42839],[-121.8916,37.41476],[-121.82761,37.39886],[-121.72419,37.37319],[-121.64738,37.35395],[-121.62631,37.34876],[-121.50575,37.32017],[-121.44491,37.31525],[-121.41321,37.31555],[-121.2774,37.3202],[-121.26476,37.32059]],"type":"LineString"}
}
