{
  "id": 2014682771,
  "type": "Feature",
  "properties": {
    "geom:area": 0,
    "geom:bbox": "-122.975230,37.259690,-122.088620,37.610040",
    "geom:latitude": 37.390783617661505,
    "geom:longitude": -122.44551181177442,
    "src:alt_label": "swim-approach",
    "src:geom": "swim",
    "swim:elevations": [
      3200,
      3186,
      3069,
      3048,
      3048,
      3048,
      3048,
      3048,
      3021,
      2839,
      2652,
      2487,
      2438,
      2438,
      2438,
      2438,
      2437,
      2421,
      2227,
      2109,
      1909,
      1735,
      1579,
      1310,
      1166,
      1017,
      854,
      791,
      699,
      592,
      358,
      285,
      114,
      58
    ],
    "swim:geom": "approach",
    "swim:timestamps": [
      1769885096,
      1769885102,
      1769885142,
      1769885181,
      1769885199,
      1769885232,
      1769885244,
      1769885273,
      1769885282,
      1769885327,
      1769885369,
      1769885398,
      1769885425,
      1769885452,
      1769885460,
      1769885502,
      1769885541,
      1769885553,
      1769885599,
      1769885625,
      1769885653,
      1769885684,
      1769885714,
      1769885753,
      1769885779,
      1769885802,
      1769885838,
      1769885854,
      1769885886,
      1769885914,
      1769885964,
      1769885975,
      1769886018,
      1769886030
    ],
    "wof:geomhash": "f84349aaf8ae9bdd1c0b49a6c2816997",
    "wof:id": 2014682771,
    "wof:repo": "sfomuseum-data-flights-2026-01"
  },
  "bbox": [
    -122.97523,
    37.25969,
    -122.08862,
    37.61004
  ],
  "geometry": {"coordinates":[[-122.97523,37.26629],[-122.96319,37.26538],[-122.88778,37.25969],[-122.81922,37.26803],[-122.78904,37.27487],[-122.73393,37.28783],[-122.71412,37.29249],[-122.66692,37.30362],[-122.65252,37.30696],[-122.5789,37.32402],[-122.51689,37.33828],[-122.47426,37.34815],[-122.43406,37.35734],[-122.39465,37.36646],[-122.38344,37.36904],[-122.32844,37.38176],[-122.27671,37.39351],[-122.26105,37.39709],[-122.20466,37.41003],[-122.17462,37.41687],[-122.14175,37.42409],[-122.10556,37.43222],[-122.08862,37.45518],[-122.11058,37.4867],[-122.12893,37.50694],[-122.14513,37.52344],[-122.18054,37.53932],[-122.19627,37.54502],[-122.22491,37.55804],[-122.25282,37.56958],[-122.29594,37.58776],[-122.30475,37.5915],[-122.33935,37.60595],[-122.34887,37.61004]],"type":"LineString"}
}
