{
  "id": 2014686007,
  "type": "Feature",
  "properties": {
    "geom:area": 0,
    "geom:bbox": "-122.366500,37.627740,-122.215480,38.514840",
    "geom:latitude": 38.039140807009886,
    "geom:longitude": -122.25616288708805,
    "src:alt_label": "swim-takeoff",
    "src:geom": "swim",
    "swim:elevations": [
      223,
      722,
      1021,
      1159,
      1473,
      1915,
      2132,
      2729,
      3335,
      3461,
      3656,
      3970,
      4160,
      4748,
      4996,
      5211,
      5679,
      5968,
      6001,
      6195,
      6608,
      6661,
      7054
    ],
    "swim:geom": "takeoff",
    "swim:timestamps": [
      1769895474,
      1769895508,
      1769895535,
      1769895551,
      1769895587,
      1769895622,
      1769895637,
      1769895676,
      1769895716,
      1769895727,
      1769895748,
      1769895778,
      1769895797,
      1769895838,
      1769895860,
      1769895879,
      1769895927,
      1769895957,
      1769895960,
      1769895979,
      1769896018,
      1769896024,
      1769896060
    ],
    "wof:geomhash": "2b6e832bd7b2a5d62133ae66499e30f2",
    "wof:id": 2014686007,
    "wof:repo": "sfomuseum-data-flights-2026-01"
  },
  "bbox": [
    -122.3665,
    37.62774,
    -122.21548,
    38.51484
  ],
  "geometry": {"coordinates":[[-122.3665,37.62774],[-122.34295,37.64561],[-122.32134,37.65782],[-122.30793,37.66577],[-122.27394,37.68641],[-122.23046,37.71087],[-122.21646,37.7267],[-122.21548,37.77976],[-122.21819,37.83808],[-122.21826,37.85621],[-122.21886,37.89062],[-122.22008,37.94345],[-122.22142,37.97777],[-122.23341,38.05499],[-122.23987,38.09647],[-122.24545,38.1341],[-122.2601,38.23097],[-122.26896,38.29316],[-122.26984,38.29945],[-122.27578,38.33954],[-122.28993,38.42338],[-122.2916,38.43634],[-122.30308,38.51484]],"type":"LineString"}
}
