{
  "id": 2014685233,
  "type": "Feature",
  "properties": {
    "geom:area": 0,
    "geom:bbox": "-122.363870,37.632100,-121.471570,38.491660",
    "geom:latitude": 38.082169840338814,
    "geom:longitude": -121.95437233524147,
    "src:alt_label": "swim-takeoff",
    "src:geom": "swim",
    "swim:elevations": [
      270,
      501,
      828,
      1000,
      1368,
      1891,
      2346,
      2643,
      2936,
      3202,
      3358,
      3383,
      3546,
      4013,
      4107,
      4498,
      4720,
      5288,
      5441,
      5643,
      5702,
      5862,
      5977,
      6262,
      6389
    ],
    "swim:geom": "takeoff",
    "swim:timestamps": [
      1769863337,
      1769863352,
      1769863401,
      1769863427,
      1769863453,
      1769863489,
      1769863522,
      1769863547,
      1769863576,
      1769863613,
      1769863644,
      1769863653,
      1769863684,
      1769863725,
      1769863742,
      1769863781,
      1769863803,
      1769863858,
      1769863879,
      1769863911,
      1769863918,
      1769863938,
      1769863956,
      1769864004,
      1769864018
    ],
    "wof:geomhash": "96cbae0a82ec958e01b0324d7a08d834",
    "wof:id": 2014685233,
    "wof:repo": "sfomuseum-data-flights-2026-01"
  },
  "bbox": [
    -122.36387,
    37.6321,
    -121.47157,
    38.49166
  ],
  "geometry": {"coordinates":[[-122.36387,37.6321],[-122.35321,37.6405],[-122.30603,37.66752],[-122.28154,37.68984],[-122.27151,37.72338],[-122.27596,37.76919],[-122.27267,37.81387],[-122.25433,37.84311],[-122.22016,37.87354],[-122.17313,37.9135],[-122.1289,37.95155],[-122.11593,37.96285],[-122.0683,38.00406],[-122.00155,38.06154],[-121.97303,38.08594],[-121.90818,38.14133],[-121.87057,38.17337],[-121.77464,38.25502],[-121.73789,38.28621],[-121.68202,38.33351],[-121.66935,38.34424],[-121.63245,38.37548],[-121.59971,38.40314],[-121.50261,38.47341],[-121.47157,38.49166]],"type":"LineString"}
}
