{
  "id": 2014686091,
  "type": "Feature",
  "properties": {
    "geom:area": 0,
    "geom:bbox": "-122.365080,37.630440,-121.291650,38.106630",
    "geom:latitude": 37.88457626716225,
    "geom:longitude": -121.8363360889036,
    "src:alt_label": "swim-takeoff",
    "src:geom": "swim",
    "swim:elevations": [
      152,
      548,
      875,
      1204,
      1284,
      1700,
      1909,
      2047,
      2646,
      3002,
      3180,
      3591,
      3604,
      3998,
      4327,
      4472,
      5041,
      5302,
      5421,
      5555,
      5708,
      5924,
      6149,
      6377,
      6586
    ],
    "swim:geom": "takeoff",
    "swim:timestamps": [
      1769851967,
      1769851991,
      1769852021,
      1769852067,
      1769852078,
      1769852116,
      1769852133,
      1769852143,
      1769852187,
      1769852217,
      1769852233,
      1769852273,
      1769852280,
      1769852334,
      1769852367,
      1769852379,
      1769852426,
      1769852449,
      1769852471,
      1769852486,
      1769852505,
      1769852534,
      1769852565,
      1769852593,
      1769852616
    ],
    "wof:geomhash": "8fced924d5c2ecdde66a2b5604d2bbc0",
    "wof:id": 2014686091,
    "wof:repo": "sfomuseum-data-flights-2026-01"
  },
  "bbox": [
    -122.36508,
    37.63044,
    -121.29165,
    38.10663
  ],
  "geometry": {"coordinates":[[-122.36508,37.63044],[-122.34901,37.64586],[-122.32162,37.66035],[-122.27577,37.68542],[-122.26338,37.69234],[-122.21445,37.71758],[-122.19178,37.72932],[-122.17767,37.73661],[-122.11589,37.7687],[-122.07404,37.79015],[-122.05022,37.80243],[-121.98792,37.83278],[-121.97656,37.83728],[-121.87492,37.87766],[-121.81031,37.90314],[-121.78637,37.91264],[-121.69256,37.94977],[-121.64612,37.96802],[-121.60223,37.98532],[-121.57102,37.99762],[-121.53321,38.01241],[-121.47071,38.03684],[-121.40408,38.06298],[-121.34261,38.08681],[-121.29165,38.10663]],"type":"LineString"}
}
