{
  "id": 2014682043,
  "type": "Feature",
  "properties": {
    "geom:area": 0,
    "geom:bbox": "-122.360160,36.722990,-121.878720,37.615160",
    "geom:latitude": 37.21702118589059,
    "geom:longitude": -122.0709603967291,
    "src:alt_label": "swim-approach",
    "src:geom": "swim",
    "swim:elevations": [
      5330,
      5048,
      4722,
      4554,
      4102,
      4053,
      3646,
      3260,
      3124,
      3048,
      2924,
      2849,
      2518,
      2409,
      2122,
      2011,
      1703,
      1576,
      1524,
      1350,
      1193,
      1044,
      802,
      638,
      549,
      383,
      328,
      175,
      0,
      0
    ],
    "swim:geom": "approach",
    "swim:timestamps": [
      1769879848,
      1769879874,
      1769879906,
      1769879923,
      1769879968,
      1769879973,
      1769880017,
      1769880057,
      1769880088,
      1769880117,
      1769880142,
      1769880154,
      1769880208,
      1769880222,
      1769880258,
      1769880277,
      1769880323,
      1769880350,
      1769880361,
      1769880387,
      1769880408,
      1769880429,
      1769880468,
      1769880504,
      1769880521,
      1769880562,
      1769880574,
      1769880619,
      1769880656,
      1769880661
    ],
    "wof:geomhash": "81e8c6e3fb1eca8f21bf086cf89a36e8",
    "wof:id": 2014682043,
    "wof:repo": "sfomuseum-data-flights-2026-01"
  },
  "bbox": [
    -122.36016,
    36.72299,
    -121.87872,
    37.61516
  ],
  "geometry": {"coordinates":[[-121.87872,36.72299],[-121.90017,36.76554],[-121.91646,36.82207],[-121.92452,36.8503],[-121.9456,36.92611],[-121.94786,36.934],[-121.97292,37.00268],[-121.99639,37.06294],[-122.0141,37.10845],[-122.02925,37.14736],[-122.04182,37.17932],[-122.04779,37.19436],[-122.07404,37.26147],[-122.08111,37.27972],[-122.09898,37.32518],[-122.10804,37.34841],[-122.12977,37.40651],[-122.1411,37.43985],[-122.14552,37.45257],[-122.1554,37.48272],[-122.16335,37.50748],[-122.17086,37.53072],[-122.19696,37.56403],[-122.23574,37.57489],[-122.25135,37.5801],[-122.28642,37.59038],[-122.29609,37.59324],[-122.33018,37.60351],[-122.3571,37.61351],[-122.36016,37.61516]],"type":"LineString"}
}
