{
  "id": 2014685945,
  "type": "Feature",
  "properties": {
    "geom:area": 0,
    "geom:bbox": "-122.365140,37.634610,-121.250670,37.946380",
    "geom:latitude": 37.78191386503907,
    "geom:longitude": -121.81055114963948,
    "src:alt_label": "swim-takeoff",
    "src:geom": "swim",
    "swim:elevations": [
      183,
      468,
      816,
      1128,
      1190,
      1286,
      1512,
      1534,
      1740,
      2002,
      2495,
      2654,
      3043,
      3332,
      3601,
      3693,
      3962,
      4398,
      4745,
      5001,
      5249,
      5516,
      5770,
      5971,
      6152
    ],
    "swim:geom": "takeoff",
    "swim:timestamps": [
      1769902584,
      1769902602,
      1769902642,
      1769902677,
      1769902689,
      1769902707,
      1769902737,
      1769902740,
      1769902758,
      1769902782,
      1769902824,
      1769902836,
      1769902866,
      1769902912,
      1769902942,
      1769902954,
      1769902980,
      1769903025,
      1769903061,
      1769903091,
      1769903116,
      1769903149,
      1769903177,
      1769903205,
      1769903226
    ],
    "wof:geomhash": "ef569da8d8fe07b21beac89b9cca0e7f",
    "wof:id": 2014685945,
    "wof:repo": "sfomuseum-data-flights-2026-01"
  },
  "bbox": [
    -122.36514,
    37.63461,
    -121.25067,
    37.94638
  ],
  "geometry": {"coordinates":[[-122.36514,37.63461],[-122.35445,37.64638],[-122.32256,37.67016],[-122.28669,37.68024],[-122.27223,37.6799],[-122.24843,37.67914],[-122.20349,37.67746],[-122.19884,37.67728],[-122.17015,37.67617],[-122.13064,37.6766],[-122.06389,37.69673],[-122.04424,37.70285],[-121.99541,37.71775],[-121.9158,37.74207],[-121.8587,37.75995],[-121.83521,37.76728],[-121.78269,37.78368],[-121.69085,37.81194],[-121.61523,37.83523],[-121.55146,37.85474],[-121.4961,37.87168],[-121.42377,37.89382],[-121.36234,37.91247],[-121.29858,37.93177],[-121.25067,37.94638]],"type":"LineString"}
}
