{
  "id": 2014682799,
  "type": "Feature",
  "properties": {
    "geom:area": 0,
    "geom:bbox": "-123.473360,36.979020,-122.114980,37.605240",
    "geom:latitude": 37.2909271544078,
    "geom:longitude": -122.7043507301358,
    "src:alt_label": "swim-approach",
    "src:geom": "swim",
    "swim:elevations": [
      5612,
      5396,
      4978,
      4680,
      4250,
      4074,
      3649,
      3323,
      3293,
      3135,
      3044,
      3047,
      3048,
      3048,
      3048,
      3041,
      2860,
      2799,
      2756,
      2713,
      2650,
      2536,
      2530,
      2436,
      2340,
      2221,
      2040,
      1987,
      1781,
      1424,
      1333,
      1162,
      1096,
      930,
      821,
      588,
      542,
      484,
      321,
      273,
      188,
      93
    ],
    "swim:geom": "approach",
    "swim:timestamps": [
      1769927545,
      1769927569,
      1769927604,
      1769927630,
      1769927668,
      1769927685,
      1769927725,
      1769927757,
      1769927763,
      1769927817,
      1769927845,
      1769927860,
      1769927905,
      1769927911,
      1769927963,
      1769927993,
      1769928024,
      1769928036,
      1769928051,
      1769928072,
      1769928096,
      1769928147,
      1769928153,
      1769928209,
      1769928239,
      1769928260,
      1769928293,
      1769928302,
      1769928335,
      1769928382,
      1769928394,
      1769928441,
      1769928459,
      1769928495,
      1769928519,
      1769928567,
      1769928577,
      1769928594,
      1769928624,
      1769928642,
      1769928669,
      1769928692
    ],
    "wof:geomhash": "3aee91a5a23b3053660de47897934d95",
    "wof:id": 2014682799,
    "wof:repo": "sfomuseum-data-flights-2026-01"
  },
  "bbox": [
    -123.47336,
    36.97902,
    -122.11498,
    37.60524
  ],
  "geometry": {"coordinates":[[-123.47336,36.97902],[-123.42017,37.00227],[-123.34463,37.0375],[-123.2884,37.0634],[-123.20756,37.10055],[-123.17275,37.1164],[-123.09225,37.15332],[-123.02799,37.18277],[-123.01631,37.18808],[-122.91871,37.23261],[-122.8717,37.25326],[-122.84686,37.26118],[-122.77105,37.27925],[-122.76084,37.28158],[-122.67231,37.30218],[-122.62442,37.31345],[-122.57666,37.32455],[-122.55852,37.32867],[-122.53579,37.33394],[-122.50397,37.34126],[-122.46744,37.34959],[-122.39081,37.3673],[-122.38196,37.36933],[-122.30274,37.38758],[-122.26224,37.39694],[-122.23432,37.40341],[-122.19212,37.41319],[-122.18089,37.41574],[-122.14111,37.42664],[-122.11498,37.46678],[-122.1178,37.47804],[-122.14835,37.51278],[-122.15967,37.52473],[-122.18729,37.54259],[-122.20882,37.55068],[-122.25089,37.56848],[-122.2591,37.57176],[-122.27193,37.57737],[-122.2948,37.58485],[-122.3074,37.59036],[-122.32643,37.59847],[-122.34291,37.60524]],"type":"LineString"}
}
