{
  "id": 2014685961,
  "type": "Feature",
  "properties": {
    "geom:area": 0,
    "geom:bbox": "-123.315360,37.635870,-122.416570,38.492310",
    "geom:latitude": 38.02495070798163,
    "geom:longitude": -122.89775391012755,
    "src:alt_label": "swim-takeoff",
    "src:geom": "swim",
    "swim:elevations": [
      473,
      732,
      920,
      1135,
      1304,
      1515,
      1877,
      2051,
      2551,
      2839,
      2934,
      3055,
      3286,
      3450,
      3875,
      3956,
      4297,
      4738,
      4794,
      5221,
      5422,
      5745,
      5932,
      6187,
      6462,
      6523
    ],
    "swim:geom": "takeoff",
    "swim:timestamps": [
      1769904238,
      1769904265,
      1769904289,
      1769904325,
      1769904352,
      1769904376,
      1769904414,
      1769904433,
      1769904475,
      1769904505,
      1769904517,
      1769904530,
      1769904552,
      1769904576,
      1769904622,
      1769904631,
      1769904663,
      1769904717,
      1769904723,
      1769904768,
      1769904792,
      1769904837,
      1769904858,
      1769904891,
      1769904928,
      1769904931
    ],
    "wof:geomhash": "06d2a716dbdae02b8f59c0d81bf2012e",
    "wof:id": 2014685961,
    "wof:repo": "sfomuseum-data-flights-2026-01"
  },
  "bbox": [
    -123.31536,
    37.63587,
    -122.41657,
    38.49231
  ],
  "geometry": {"coordinates":[[-122.41657,37.63587],[-122.44315,37.64798],[-122.46866,37.65937],[-122.50833,37.67757],[-122.53971,37.69607],[-122.5693,37.71363],[-122.61938,37.74334],[-122.6454,37.75861],[-122.70595,37.79424],[-122.75015,37.821],[-122.76687,37.83373],[-122.78218,37.85036],[-122.80544,37.88072],[-122.83299,37.91542],[-122.88802,37.98237],[-122.89941,37.99589],[-122.94031,38.04467],[-123.01183,38.12986],[-123.0199,38.13953],[-123.08132,38.21324],[-123.11474,38.25308],[-123.17867,38.32908],[-123.20899,38.36501],[-123.25725,38.42222],[-123.31186,38.48803],[-123.31536,38.49231]],"type":"LineString"}
}
