{
  "id": 2014686129,
  "type": "Feature",
  "properties": {
    "geom:area": 0,
    "geom:bbox": "-122.421170,36.760470,-121.247280,37.702670",
    "geom:latitude": 37.24002998805929,
    "geom:longitude": -121.89123204278415,
    "src:alt_label": "swim-takeoff",
    "src:geom": "swim",
    "swim:elevations": [
      122,
      213,
      609,
      789,
      1161,
      1284,
      1359,
      1636,
      1724,
      2261,
      2660,
      3201,
      3307,
      3554,
      3570,
      3741,
      3804,
      4336,
      4758,
      5144,
      5436,
      5450,
      5682,
      5763,
      6036,
      6298,
      6581,
      6946,
      6988,
      7167,
      7185,
      7321,
      7679,
      7776,
      8062,
      8214,
      8291
    ],
    "swim:geom": "takeoff",
    "swim:timestamps": [
      1769900248,
      1769900254,
      1769900287,
      1769900310,
      1769900365,
      1769900392,
      1769900404,
      1769900427,
      1769900432,
      1769900470,
      1769900498,
      1769900539,
      1769900559,
      1769900606,
      1769900612,
      1769900636,
      1769900642,
      1769900695,
      1769900728,
      1769900757,
      1769900787,
      1769900790,
      1769900811,
      1769900820,
      1769900853,
      1769900888,
      1769900919,
      1769900966,
      1769900972,
      1769900998,
      1769901001,
      1769901016,
      1769901058,
      1769901071,
      1769901112,
      1769901136,
      1769901154
    ],
    "wof:geomhash": "38b60c7c9afa45a3d7537ed1d8ef81c7",
    "wof:id": 2014686129,
    "wof:repo": "sfomuseum-data-flights-2026-01"
  },
  "bbox": [
    -122.42117,
    36.76047,
    -121.24728,
    37.70267
  ],
  "geometry": {"coordinates":[[-122.36875,37.62894],[-122.36606,37.63278],[-122.36294,37.6564],[-122.36306,37.67424],[-122.39778,37.70267],[-122.42098,37.68416],[-122.42117,37.67041],[-122.40239,37.64669],[-122.3972,37.64221],[-122.35445,37.60703],[-122.32535,37.58119],[-122.28279,37.54306],[-122.25967,37.52237],[-122.20023,37.46924],[-122.19205,37.46189],[-122.15821,37.43161],[-122.14962,37.42393],[-122.07273,37.35498],[-122.02082,37.31247],[-121.97062,37.27706],[-121.91929,37.2407],[-121.91417,37.23709],[-121.87819,37.21164],[-121.86271,37.20068],[-121.80533,37.15997],[-121.74302,37.11563],[-121.68711,37.07582],[-121.60149,37.01483],[-121.5904,37.00693],[-121.54306,36.97307],[-121.53742,36.96906],[-121.50925,36.94883],[-121.42962,36.89182],[-121.40423,36.87384],[-121.32732,36.8179],[-121.28144,36.78507],[-121.24728,36.76047]],"type":"LineString"}
}
