{
  "id": 2014683649,
  "type": "Feature",
  "properties": {
    "geom:area": 0,
    "geom:bbox": "-122.364690,37.631110,-121.284580,38.401750",
    "geom:latitude": 38.025874714046424,
    "geom:longitude": -121.83314183565801,
    "src:alt_label": "swim-takeoff",
    "src:geom": "swim",
    "swim:elevations": [
      183,
      756,
      840,
      1029,
      1181,
      1234,
      1738,
      1850,
      2500,
      2616,
      2845,
      2947,
      3251,
      3509,
      3739,
      3902,
      4107,
      4364,
      4476,
      4942,
      5188,
      5441,
      5464,
      5615,
      5920,
      6077,
      6214,
      6490,
      6764,
      6871,
      6938
    ],
    "swim:geom": "takeoff",
    "swim:timestamps": [
      1769849324,
      1769849368,
      1769849376,
      1769849394,
      1769849423,
      1769849430,
      1769849488,
      1769849498,
      1769849546,
      1769849556,
      1769849576,
      1769849585,
      1769849621,
      1769849666,
      1769849690,
      1769849707,
      1769849728,
      1769849752,
      1769849763,
      1769849807,
      1769849831,
      1769849859,
      1769849871,
      1769849889,
      1769849927,
      1769849949,
      1769849972,
      1769850011,
      1769850044,
      1769850056,
      1769850064
    ],
    "wof:geomhash": "f89cc559480d04f835a0e68cee8410a4",
    "wof:id": 2014683649,
    "wof:repo": "sfomuseum-data-flights-2026-01"
  },
  "bbox": [
    -122.36469,
    37.63111,
    -121.28458,
    38.40175
  ],
  "geometry": {"coordinates":[[-122.36469,37.63111],[-122.33161,37.65388],[-122.32472,37.65739],[-122.30909,37.66613],[-122.28259,37.68154],[-122.2753,37.6858],[-122.20627,37.72627],[-122.19667,37.73646],[-122.15093,37.78764],[-122.14079,37.799],[-122.12127,37.82083],[-122.11211,37.83094],[-122.07416,37.87205],[-122.00756,37.92095],[-121.96835,37.94747],[-121.9395,37.967],[-121.90479,37.99066],[-121.86303,38.01905],[-121.84397,38.03183],[-121.76725,38.0833],[-121.72602,38.11103],[-121.67579,38.14486],[-121.65432,38.15923],[-121.62139,38.18139],[-121.55318,38.22705],[-121.51206,38.25452],[-121.46719,38.28452],[-121.39314,38.33405],[-121.32676,38.37615],[-121.30119,38.39171],[-121.28458,38.40175]],"type":"LineString"}
}
