{
  "id": 2014685573,
  "type": "Feature",
  "properties": {
    "geom:area": 0,
    "geom:bbox": "-122.366280,37.628750,-121.815030,38.511560",
    "geom:latitude": 38.0502846520093,
    "geom:longitude": -122.07832582641285,
    "src:alt_label": "swim-takeoff",
    "src:geom": "swim",
    "swim:elevations": [
      152,
      530,
      630,
      976,
      1131,
      1308,
      1631,
      1945,
      2491,
      2679,
      3090,
      3326,
      3441,
      3689,
      3915,
      4160,
      4524,
      4979,
      5212,
      5352,
      5671,
      5794,
      6079
    ],
    "swim:geom": "takeoff",
    "swim:timestamps": [
      1769882545,
      1769882574,
      1769882582,
      1769882623,
      1769882661,
      1769882692,
      1769882716,
      1769882741,
      1769882784,
      1769882799,
      1769882832,
      1769882875,
      1769882900,
      1769882925,
      1769882948,
      1769882973,
      1769883012,
      1769883054,
      1769883085,
      1769883100,
      1769883146,
      1769883160,
      1769883199
    ],
    "wof:geomhash": "c0f38d3dacffe0e6f990e2db7f2823a9",
    "wof:id": 2014685573,
    "wof:repo": "sfomuseum-data-flights-2026-01"
  },
  "bbox": [
    -122.36628,
    37.62875,
    -121.81503,
    38.51156
  ],
  "geometry": {"coordinates":[[-122.36628,37.62875],[-122.34856,37.64549],[-122.34226,37.64906],[-122.30974,37.6668],[-122.27196,37.68714],[-122.2338,37.70786],[-122.21102,37.73274],[-122.20653,37.76522],[-122.19755,37.8231],[-122.19402,37.84382],[-122.17912,37.88854],[-122.14352,37.9481],[-122.12121,37.98686],[-122.09865,38.02586],[-122.07618,38.06476],[-122.05234,38.10586],[-122.01317,38.17321],[-121.97065,38.2462],[-121.93916,38.29995],[-121.92241,38.3285],[-121.87347,38.41194],[-121.85774,38.43881],[-121.81503,38.51156]],"type":"LineString"}
}
