{
  "id": 2014683197,
  "type": "Feature",
  "properties": {
    "geom:area": 0,
    "geom:bbox": "-122.363830,37.632220,-121.308160,37.954210",
    "geom:latitude": 37.83257719012453,
    "geom:longitude": -121.85022018487948,
    "src:alt_label": "swim-takeoff",
    "src:geom": "swim",
    "swim:elevations": [
      244,
      565,
      845,
      1056,
      1570,
      1982,
      2164,
      2529,
      2886,
      3184,
      3326,
      3693,
      4117,
      4205,
      4618,
      5082,
      5527,
      5693,
      5882,
      6163,
      6344
    ],
    "swim:geom": "takeoff",
    "swim:timestamps": [
      1769865921,
      1769865947,
      1769865980,
      1769866006,
      1769866048,
      1769866075,
      1769866087,
      1769866116,
      1769866144,
      1769866177,
      1769866208,
      1769866249,
      1769866285,
      1769866294,
      1769866326,
      1769866362,
      1769866408,
      1769866428,
      1769866448,
      1769866487,
      1769866509
    ],
    "wof:geomhash": "251b9bcd5c32b93d9946e398227f457c",
    "wof:id": 2014683197,
    "wof:repo": "sfomuseum-data-flights-2026-01"
  },
  "bbox": [
    -122.36383,
    37.63222,
    -121.30816,
    37.95421
  ],
  "geometry": {"coordinates":[[-122.36383,37.63222],[-122.34513,37.64779],[-122.31214,37.66549],[-122.28269,37.68141],[-122.22838,37.71086],[-122.19274,37.72938],[-122.17604,37.738],[-122.13644,37.75849],[-122.09618,37.77948],[-122.04687,37.80518],[-121.99241,37.82904],[-121.90631,37.84475],[-121.82688,37.85953],[-121.80655,37.8632],[-121.73402,37.87662],[-121.65372,37.89137],[-121.54784,37.91075],[-121.50178,37.91912],[-121.4556,37.92748],[-121.36133,37.94453],[-121.30816,37.95421]],"type":"LineString"}
}
