{
  "id": 2014682305,
  "type": "Feature",
  "properties": {
    "geom:area": 0,
    "geom:bbox": "-122.362290,36.737630,-121.889620,37.615980",
    "geom:latitude": 37.22642732347232,
    "geom:longitude": -122.075001742251,
    "src:alt_label": "swim-approach",
    "src:geom": "swim",
    "swim:elevations": [
      4665,
      4321,
      4062,
      3776,
      3566,
      3397,
      2956,
      2710,
      2532,
      2452,
      2438,
      2438,
      2438,
      2342,
      2214,
      2025,
      1901,
      1601,
      1447,
      1261,
      1159,
      974,
      832,
      617,
      392,
      277,
      263,
      111,
      67
    ],
    "swim:geom": "approach",
    "swim:timestamps": [
      1769890788,
      1769890828,
      1769890857,
      1769890886,
      1769890907,
      1769890927,
      1769890972,
      1769891008,
      1769891032,
      1769891051,
      1769891095,
      1769891119,
      1769891131,
      1769891185,
      1769891200,
      1769891218,
      1769891231,
      1769891261,
      1769891306,
      1769891336,
      1769891351,
      1769891384,
      1769891405,
      1769891444,
      1769891488,
      1769891515,
      1769891521,
      1769891560,
      1769891588
    ],
    "wof:geomhash": "414f3ba96cbb6d00b1929d78cb1d247c",
    "wof:id": 2014682305,
    "wof:repo": "sfomuseum-data-flights-2026-01"
  },
  "bbox": [
    -122.36229,
    36.73763,
    -121.88962,
    37.61598
  ],
  "geometry": {"coordinates":[[-121.88962,36.73763],[-121.91221,36.8057],[-121.92506,36.85192],[-121.93848,36.89948],[-121.94806,36.93328],[-121.95817,36.96395],[-121.98485,37.03232],[-122.00459,37.08344],[-122.01754,37.11638],[-122.02765,37.14214],[-122.05061,37.20093],[-122.06295,37.23226],[-122.06903,37.24773],[-122.09641,37.31782],[-122.10381,37.33676],[-122.11243,37.35871],[-122.11862,37.37434],[-122.13132,37.41107],[-122.14956,37.46407],[-122.16012,37.49684],[-122.16517,37.51253],[-122.17639,37.5463],[-122.19381,37.56204],[-122.23759,37.57517],[-122.28189,37.5891],[-122.30525,37.59594],[-122.31006,37.59726],[-122.34121,37.60691],[-122.36229,37.61598]],"type":"LineString"}
}
