{
  "id": 2014685635,
  "type": "Feature",
  "properties": {
    "geom:area": 0,
    "geom:bbox": "-122.467530,36.736170,-121.459780,37.711680",
    "geom:latitude": 37.22636547838673,
    "geom:longitude": -122.0653144695218,
    "src:alt_label": "swim-takeoff",
    "src:geom": "swim",
    "swim:elevations": [
      152,
      477,
      884,
      1260,
      2074,
      2675,
      3153,
      3613,
      3882,
      4299,
      4610,
      5009,
      5570,
      6199,
      6487,
      7144,
      7641,
      7819,
      8353,
      8468,
      8923,
      9068,
      9471,
      9544,
      9837,
      10145,
      10312,
      10665
    ],
    "swim:geom": "takeoff",
    "swim:timestamps": [
      1769868677,
      1769868709,
      1769868736,
      1769868756,
      1769868796,
      1769868827,
      1769868849,
      1769868894,
      1769868916,
      1769868945,
      1769868967,
      1769868996,
      1769869029,
      1769869073,
      1769869098,
      1769869155,
      1769869196,
      1769869213,
      1769869258,
      1769869269,
      1769869315,
      1769869330,
      1769869377,
      1769869390,
      1769869420,
      1769869453,
      1769869470,
      1769869516
    ],
    "wof:geomhash": "c1be4a22659935860b69bcde09581f3a",
    "wof:id": 2014685635,
    "wof:repo": "sfomuseum-data-flights-2026-01"
  },
  "bbox": [
    -122.46753,
    36.73617,
    -121.45978,
    37.71168
  ],
  "geometry": {"coordinates":[[-122.36781,37.63033],[-122.36372,37.6553],[-122.36189,37.68143],[-122.36949,37.69983],[-122.41745,37.71168],[-122.44306,37.68913],[-122.44663,37.66589],[-122.45493,37.6122],[-122.46026,37.58029],[-122.46753,37.53675],[-122.46582,37.50064],[-122.43232,37.45791],[-122.37712,37.41778],[-122.30204,37.3632],[-122.25831,37.33092],[-122.15467,37.25427],[-122.07934,37.19848],[-122.04707,37.17404],[-121.9619,37.11073],[-121.9406,37.09498],[-121.85371,37.03033],[-121.82464,37.00868],[-121.73196,36.9411],[-121.70648,36.92209],[-121.64912,36.87928],[-121.58456,36.82969],[-121.54984,36.80467],[-121.45978,36.73617]],"type":"LineString"}
}
