{
  "id": 2014682563,
  "type": "Feature",
  "properties": {
    "geom:area": 0,
    "geom:bbox": "-122.667200,37.541540,-122.067970,38.510620",
    "geom:latitude": 37.87456948073684,
    "geom:longitude": -122.43506225361986,
    "src:alt_label": "swim-approach",
    "src:geom": "swim",
    "swim:elevations": [
      6694,
      6521,
      6424,
      6273,
      6032,
      5967,
      5881,
      5751,
      5631,
      5532,
      5379,
      5272,
      5135,
      4985,
      4716,
      4513,
      4035,
      3921,
      3547,
      3458,
      3352,
      3353,
      3276,
      3117,
      2925,
      2401,
      2181,
      1858,
      1838,
      1829,
      1764,
      1559,
      1544,
      1399,
      1128,
      1076,
      651,
      578,
      549,
      522,
      473,
      316,
      153,
      78,
      0
    ],
    "swim:geom": "approach",
    "swim:timestamps": [
      1769850944,
      1769850980,
      1769851001,
      1769851028,
      1769851077,
      1769851087,
      1769851107,
      1769851132,
      1769851158,
      1769851176,
      1769851220,
      1769851243,
      1769851262,
      1769851277,
      1769851304,
      1769851324,
      1769851376,
      1769851385,
      1769851431,
      1769851445,
      1769851466,
      1769851495,
      1769851527,
      1769851542,
      1769851560,
      1769851604,
      1769851620,
      1769851651,
      1769851708,
      1769851723,
      1769851754,
      1769851782,
      1769851786,
      1769851811,
      1769851853,
      1769851861,
      1769851917,
      1769851929,
      1769851956,
      1769851974,
      1769851985,
      1769852021,
      1769852067,
      1769852084,
      1769852104
    ],
    "wof:geomhash": "cd13634c7e661232e4853b8401853572",
    "wof:id": 2014682563,
    "wof:repo": "sfomuseum-data-flights-2026-01"
  },
  "bbox": [
    -122.6672,
    37.54154,
    -122.06797,
    38.51062
  ],
  "geometry": {"coordinates":[[-122.52599,38.51062],[-122.56062,38.46078],[-122.56828,38.42764],[-122.57729,38.38392],[-122.59245,38.30719],[-122.59582,38.28998],[-122.60194,38.25873],[-122.60996,38.21814],[-122.61825,38.17632],[-122.62405,38.1466],[-122.63755,38.07794],[-122.64487,38.04091],[-122.65084,38.0103],[-122.65534,37.98744],[-122.6635,37.94581],[-122.6672,37.91524],[-122.61602,37.84642],[-122.60361,37.83457],[-122.54668,37.78073],[-122.53159,37.76653],[-122.50834,37.74451],[-122.47215,37.71749],[-122.41918,37.7014],[-122.3961,37.69445],[-122.36813,37.68567],[-122.3002,37.66346],[-122.27653,37.65533],[-122.23038,37.63976],[-122.15442,37.61419],[-122.1359,37.60809],[-122.09763,37.59535],[-122.0696,37.57742],[-122.06797,37.57349],[-122.07471,37.54904],[-122.12399,37.54154],[-122.13309,37.54445],[-122.19963,37.56442],[-122.21131,37.56805],[-122.23859,37.57611],[-122.25596,37.58137],[-122.26709,37.58465],[-122.29895,37.59405],[-122.33382,37.60454],[-122.34566,37.60865],[-122.35869,37.61392]],"type":"LineString"}
}
