{
  "id": 2014685889,
  "type": "Feature",
  "properties": {
    "geom:area": 0,
    "geom:bbox": "-122.549140,36.721060,-122.235800,37.701750",
    "geom:latitude": 37.22106276045541,
    "geom:longitude": -122.44428052501182,
    "src:alt_label": "swim-takeoff",
    "src:geom": "swim",
    "swim:elevations": [
      152,
      750,
      1036,
      1088,
      1418,
      1814,
      2063,
      2527,
      2780,
      3204,
      3271,
      3625,
      3985,
      4331,
      4477,
      5026,
      5384,
      5668,
      5997,
      6190,
      6360,
      6628,
      6924,
      7180,
      7362,
      7528,
      7779
    ],
    "swim:geom": "takeoff",
    "swim:timestamps": [
      1769879706,
      1769879753,
      1769879781,
      1769879797,
      1769879842,
      1769879869,
      1769879884,
      1769879911,
      1769879926,
      1769879961,
      1769879973,
      1769880025,
      1769880057,
      1769880088,
      1769880098,
      1769880142,
      1769880173,
      1769880202,
      1769880237,
      1769880258,
      1769880277,
      1769880312,
      1769880350,
      1769880387,
      1769880414,
      1769880437,
      1769880468
    ],
    "wof:geomhash": "59f8f93bee3f81b8f29966dc9a42f248",
    "wof:id": 2014685889,
    "wof:repo": "sfomuseum-data-flights-2026-01"
  },
  "bbox": [
    -122.54914,
    36.72106,
    -122.2358,
    37.70175
  ],
  "geometry": {"coordinates":[[-122.36767,37.63144],[-122.36286,37.66788],[-122.36492,37.69068],[-122.37619,37.70175],[-122.42507,37.68571],[-122.43304,37.65352],[-122.43637,37.63535],[-122.44423,37.60329],[-122.4488,37.5839],[-122.45728,37.53935],[-122.46061,37.5233],[-122.47618,37.44439],[-122.48727,37.39199],[-122.49803,37.33863],[-122.50158,37.32064],[-122.51659,37.24546],[-122.52688,37.19335],[-122.53713,37.14185],[-122.54914,37.08132],[-122.54542,37.04353],[-122.52597,37.01375],[-122.47351,36.9616],[-122.41691,36.9045],[-122.36199,36.84909],[-122.31966,36.80647],[-122.28392,36.77044],[-122.2358,36.72106]],"type":"LineString"}
}
