{
  "id": 2014685611,
  "type": "Feature",
  "properties": {
    "geom:area": 0,
    "geom:bbox": "-122.554100,36.725360,-122.247570,37.711250",
    "geom:latitude": 37.23339811549182,
    "geom:longitude": -122.45020068144035,
    "src:alt_label": "swim-takeoff",
    "src:geom": "swim",
    "swim:elevations": [
      213,
      530,
      991,
      1269,
      1597,
      2164,
      2809,
      2891,
      3344,
      3691,
      4337,
      5037,
      5464,
      5661,
      5963,
      6134,
      6640,
      7060,
      7415,
      7552,
      8036,
      8289,
      8618,
      8689,
      8982,
      9182,
      9274,
      9595,
      9722
    ],
    "swim:geom": "takeoff",
    "swim:timestamps": [
      1769880021,
      1769880046,
      1769880088,
      1769880117,
      1769880142,
      1769880172,
      1769880208,
      1769880213,
      1769880258,
      1769880277,
      1769880316,
      1769880358,
      1769880387,
      1769880398,
      1769880417,
      1769880429,
      1769880468,
      1769880501,
      1769880531,
      1769880544,
      1769880590,
      1769880613,
      1769880653,
      1769880667,
      1769880708,
      1769880743,
      1769880752,
      1769880798,
      1769880812
    ],
    "wof:geomhash": "f8375322626ac8fee2273538577767ee",
    "wof:id": 2014685611,
    "wof:repo": "sfomuseum-data-flights-2026-01"
  },
  "bbox": [
    -122.5541,
    36.72536,
    -122.24757,
    37.71125
  ],
  "geometry": {"coordinates":[[-122.36867,37.62942],[-122.36539,37.64764],[-122.3617,37.68786],[-122.387,37.71125],[-122.4238,37.70474],[-122.44045,37.6708],[-122.44694,37.62735],[-122.44787,37.62099],[-122.45942,37.56143],[-122.46508,37.53514],[-122.47694,37.4794],[-122.48814,37.41758],[-122.49589,37.37515],[-122.49903,37.35786],[-122.50431,37.32925],[-122.5077,37.31123],[-122.5188,37.2516],[-122.52824,37.20031],[-122.53714,37.15291],[-122.54116,37.13129],[-122.5541,37.05594],[-122.53867,37.01827],[-122.4836,36.9626],[-122.46465,36.94338],[-122.40548,36.88392],[-122.35229,36.83053],[-122.33867,36.81709],[-122.26825,36.74615],[-122.24757,36.72536]],"type":"LineString"}
}
