{
  "id": 2014686013,
  "type": "Feature",
  "properties": {
    "geom:area": 0,
    "geom:bbox": "-122.469450,36.727480,-121.289930,37.703100",
    "geom:latitude": 37.202943712057696,
    "geom:longitude": -121.98814255529516,
    "src:alt_label": "swim-takeoff",
    "src:geom": "swim",
    "swim:elevations": [
      183,
      380,
      687,
      1099,
      1431,
      1869,
      2456,
      2793,
      3349,
      3485,
      3855,
      4212,
      4485,
      4674,
      5094,
      5302,
      5787,
      5861,
      6181,
      6562,
      6664,
      7116,
      7394,
      7436,
      7753,
      7854,
      8154,
      8283,
      8486,
      8543,
      8785,
      8954,
      8968
    ],
    "swim:geom": "takeoff",
    "swim:timestamps": [
      1769859926,
      1769859942,
      1769859973,
      1769860015,
      1769860070,
      1769860101,
      1769860138,
      1769860161,
      1769860196,
      1769860217,
      1769860256,
      1769860288,
      1769860315,
      1769860331,
      1769860369,
      1769860386,
      1769860436,
      1769860445,
      1769860482,
      1769860522,
      1769860536,
      1769860578,
      1769860619,
      1769860625,
      1769860676,
      1769860694,
      1769860738,
      1769860758,
      1769860797,
      1769860807,
      1769860853,
      1769860888,
      1769860894
    ],
    "wof:geomhash": "ad8ac7f07d4fe782a9f6d7631b5fb96f",
    "wof:id": 2014686013,
    "wof:repo": "sfomuseum-data-flights-2026-01"
  },
  "bbox": [
    -122.46945,
    36.72748,
    -121.28993,
    37.7031
  ],
  "geometry": {"coordinates":[[-122.36694,37.63219],[-122.36304,37.64415],[-122.36264,37.66913],[-122.37485,37.7031],[-122.4364,37.69124],[-122.44429,37.65338],[-122.45251,37.60737],[-122.45786,37.57737],[-122.46619,37.53356],[-122.46945,37.50507],[-122.43095,37.45831],[-122.38343,37.42373],[-122.34234,37.3933],[-122.31884,37.37533],[-122.26126,37.3318],[-122.23436,37.31206],[-122.15636,37.25476],[-122.14113,37.24364],[-122.08165,37.19942],[-122.01568,37.15119],[-121.98977,37.13647],[-121.90763,37.09534],[-121.82942,37.0563],[-121.81585,37.04956],[-121.71289,36.99894],[-121.67621,36.98092],[-121.58409,36.93484],[-121.54099,36.9134],[-121.46243,36.86837],[-121.44246,36.85423],[-121.36247,36.78714],[-121.30056,36.73621],[-121.28993,36.72748]],"type":"LineString"}
}
