{
  "id": 2014682497,
  "type": "Feature",
  "properties": {
    "geom:area": 0,
    "geom:bbox": "-122.759040,37.546620,-122.110340,38.197080",
    "geom:latitude": 37.76874865550196,
    "geom:longitude": -122.44119833534354,
    "src:alt_label": "swim-approach",
    "src:geom": "swim",
    "swim:elevations": [
      6418,
      5955,
      5622,
      5576,
      5034,
      4787,
      4648,
      4211,
      3949,
      3687,
      3354,
      3353,
      3356,
      3267,
      3083,
      2863,
      2718,
      2331,
      2077,
      1963,
      1609,
      1351,
      1113,
      1066,
      767,
      608,
      550,
      549,
      401,
      336,
      189,
      29
    ],
    "swim:geom": "approach",
    "swim:timestamps": [
      1769878776,
      1769878821,
      1769878855,
      1769878860,
      1769878918,
      1769878941,
      1769878957,
      1769878997,
      1769879025,
      1769879051,
      1769879095,
      1769879123,
      1769879138,
      1769879176,
      1769879206,
      1769879237,
      1769879253,
      1769879302,
      1769879330,
      1769879341,
      1769879384,
      1769879417,
      1769879448,
      1769879461,
      1769879511,
      1769879538,
      1769879564,
      1769879604,
      1769879636,
      1769879650,
      1769879685,
      1769879722
    ],
    "wof:geomhash": "7b0c63151956fe96e71c3062718090ca",
    "wof:id": 2014682497,
    "wof:repo": "sfomuseum-data-flights-2026-01"
  },
  "bbox": [
    -122.75904,
    37.54662,
    -122.11034,
    38.19708
  ],
  "geometry": {"coordinates":[[-122.75904,38.19708],[-122.7399,38.12853],[-122.72529,38.07793],[-122.72319,38.07073],[-122.69792,37.9853],[-122.68802,37.95173],[-122.68103,37.92755],[-122.64491,37.87287],[-122.60971,37.83938],[-122.57822,37.80944],[-122.52312,37.75839],[-122.49291,37.72964],[-122.47625,37.71805],[-122.42328,37.7013],[-122.38292,37.68897],[-122.34273,37.67669],[-122.32107,37.67027],[-122.25863,37.65132],[-122.22408,37.6408],[-122.2112,37.63682],[-122.15709,37.61984],[-122.12169,37.60274],[-122.11034,37.57479],[-122.11277,37.56237],[-122.15727,37.54662],[-122.18392,37.55587],[-122.20903,37.56489],[-122.24913,37.57918],[-122.28006,37.58873],[-122.2937,37.59256],[-122.32375,37.60154],[-122.35434,37.61241]],"type":"LineString"}
}
