{
  "id": 2014685959,
  "type": "Feature",
  "properties": {
    "geom:area": 0,
    "geom:bbox": "-122.533700,36.724750,-122.158130,37.688700",
    "geom:latitude": 37.22263362039435,
    "geom:longitude": -122.41857116382701,
    "src:alt_label": "swim-takeoff",
    "src:geom": "swim",
    "swim:elevations": [
      213,
      603,
      745,
      995,
      1222,
      1548,
      1641,
      2588,
      2900,
      3412,
      3502,
      3953,
      4284,
      4553,
      5280,
      5526,
      6130,
      6252,
      6358,
      6787,
      7071,
      7373,
      7709,
      7918,
      8223
    ],
    "swim:geom": "takeoff",
    "swim:timestamps": [
      1769857610,
      1769857642,
      1769857655,
      1769857675,
      1769857707,
      1769857736,
      1769857743,
      1769857792,
      1769857811,
      1769857849,
      1769857861,
      1769857916,
      1769857936,
      1769857954,
      1769858016,
      1769858045,
      1769858092,
      1769858101,
      1769858109,
      1769858153,
      1769858181,
      1769858216,
      1769858259,
      1769858286,
      1769858333
    ],
    "wof:geomhash": "8bbdb02dc9d833f6aac4d455a48d2c2e",
    "wof:id": 2014685959,
    "wof:repo": "sfomuseum-data-flights-2026-01"
  },
  "bbox": [
    -122.5337,
    36.72475,
    -122.15813,
    37.6887
  ],
  "geometry": {"coordinates":[[-122.36686,37.63239],[-122.36283,37.65731],[-122.36308,37.66859],[-122.37356,37.68349],[-122.41142,37.6887],[-122.45162,37.67697],[-122.45809,37.66996],[-122.46713,37.60946],[-122.47014,37.58619],[-122.47903,37.53615],[-122.48195,37.51919],[-122.49652,37.43002],[-122.50168,37.39634],[-122.50631,37.36489],[-122.52481,37.25484],[-122.5337,37.20272],[-122.51873,37.11653],[-122.50692,37.10272],[-122.49488,37.09019],[-122.43135,37.02161],[-122.3895,36.9763],[-122.33749,36.92021],[-122.27234,36.84954],[-122.23211,36.80511],[-122.15813,36.72475]],"type":"LineString"}
}
