{
  "id": 2014684231,
  "type": "Feature",
  "properties": {
    "geom:area": 0,
    "geom:bbox": "-122.527250,37.625140,-121.246220,38.017180",
    "geom:latitude": 37.87074686389009,
    "geom:longitude": -121.98222489228215,
    "src:alt_label": "swim-takeoff",
    "src:geom": "swim",
    "swim:elevations": [
      152,
      335,
      469,
      762,
      883,
      1410,
      1716,
      2087,
      2301,
      2673,
      2903,
      3088,
      3442,
      3490,
      3649,
      4004,
      4045,
      4478,
      4689,
      5081,
      5257,
      5444,
      5495,
      5738,
      6024,
      6215,
      6546,
      6627,
      6984,
      7302,
      7445
    ],
    "swim:geom": "takeoff",
    "swim:timestamps": [
      1769852466,
      1769852482,
      1769852504,
      1769852548,
      1769852556,
      1769852593,
      1769852616,
      1769852646,
      1769852665,
      1769852698,
      1769852717,
      1769852735,
      1769852786,
      1769852791,
      1769852807,
      1769852845,
      1769852851,
      1769852903,
      1769852924,
      1769852958,
      1769852975,
      1769852995,
      1769853005,
      1769853033,
      1769853070,
      1769853097,
      1769853143,
      1769853151,
      1769853189,
      1769853226,
      1769853244
    ],
    "wof:geomhash": "7552013272e54d8413aaa1ca0db5ae3d",
    "wof:id": 2014684231,
    "wof:repo": "sfomuseum-data-flights-2026-01"
  },
  "bbox": [
    -122.52725,
    37.62514,
    -121.24622,
    38.01718
  ],
  "geometry": {"coordinates":[[-122.39044,37.62514],[-122.40659,37.63187],[-122.42917,37.64163],[-122.48216,37.66457],[-122.49238,37.66903],[-122.52471,37.70298],[-122.52594,37.73053],[-122.52725,37.76815],[-122.52299,37.79188],[-122.48211,37.8187],[-122.45129,37.82318],[-122.42081,37.82679],[-122.32737,37.83811],[-122.31679,37.83942],[-122.28607,37.84318],[-122.20595,37.85363],[-122.19407,37.85531],[-122.07784,37.87059],[-122.02845,37.87689],[-121.951,37.88646],[-121.91099,37.89109],[-121.86244,37.90011],[-121.84031,37.90452],[-121.77327,37.9176],[-121.68544,37.9346],[-121.61799,37.94746],[-121.5016,37.96935],[-121.48262,37.9729],[-121.38598,37.9911],[-121.29107,38.00888],[-121.24622,38.01718]],"type":"LineString"}
}
