{
  "id": 2014680629,
  "type": "Feature",
  "properties": {
    "geom:area": 0,
    "geom:bbox": "-122.811770,37.465040,-122.139640,38.507700",
    "geom:latitude": 37.85589794895973,
    "geom:longitude": -122.51879567380192,
    "src:alt_label": "swim-approach",
    "src:geom": "swim",
    "swim:elevations": [
      8862,
      8646,
      8537,
      8046,
      7810,
      7268,
      7048,
      6746,
      6445,
      5855,
      5789,
      5252,
      4907,
      4557,
      4368,
      3804,
      3703,
      3364,
      3353,
      3353,
      3353,
      3353,
      3325,
      3222,
      3027,
      2724,
      2610,
      2408,
      2086,
      1725,
      1611,
      1235,
      1179,
      1007,
      841,
      741,
      598,
      474,
      284,
      275,
      66,
      166
    ],
    "swim:geom": "approach",
    "swim:timestamps": [
      1769881738,
      1769881761,
      1769881771,
      1769881811,
      1769881837,
      1769881884,
      1769881903,
      1769881927,
      1769881953,
      1769882005,
      1769882012,
      1769882059,
      1769882086,
      1769882116,
      1769882134,
      1769882184,
      1769882194,
      1769882247,
      1769882278,
      1769882298,
      1769882326,
      1769882342,
      1769882366,
      1769882387,
      1769882424,
      1769882458,
      1769882469,
      1769882490,
      1769882526,
      1769882568,
      1769882586,
      1769882637,
      1769882643,
      1769882676,
      1769882709,
      1769882724,
      1769882748,
      1769882773,
      1769882817,
      1769882820,
      1769882875,
      1769882894
    ],
    "wof:geomhash": "2a02ed7feda77b72be572e2d6d74fb25",
    "wof:id": 2014680629,
    "wof:repo": "sfomuseum-data-flights-2026-01"
  },
  "bbox": [
    -122.81177,
    37.46504,
    -122.13964,
    38.5077
  ],
  "geometry": {"coordinates":[[-122.81177,38.5077],[-122.80564,38.46695],[-122.80299,38.44927],[-122.79239,38.38169],[-122.78552,38.33809],[-122.7732,38.26154],[-122.76867,38.23131],[-122.75824,38.1927],[-122.74624,38.15087],[-122.72254,38.06942],[-122.71947,38.05892],[-122.69858,37.98663],[-122.68625,37.94518],[-122.66917,37.90058],[-122.64915,37.87689],[-122.58526,37.8162],[-122.57269,37.80417],[-122.50796,37.74335],[-122.47463,37.71206],[-122.45308,37.69191],[-122.42305,37.66362],[-122.40664,37.64811],[-122.38383,37.62665],[-122.36514,37.60811],[-122.34412,37.57281],[-122.3127,37.5477],[-122.30139,37.53968],[-122.28059,37.52491],[-122.24539,37.5002],[-122.20298,37.47083],[-122.18093,37.46504],[-122.13964,37.50251],[-122.14107,37.50902],[-122.17132,37.53361],[-122.20705,37.54797],[-122.2224,37.55412],[-122.24581,37.56414],[-122.26739,37.57347],[-122.30386,37.5887],[-122.30621,37.5897],[-122.34812,37.60743],[-122.36209,37.61384]],"type":"LineString"}
}
