{
  "id": 2014682505,
  "type": "Feature",
  "properties": {
    "geom:area": 0,
    "geom:bbox": "-122.356530,37.491100,-121.253420,37.613330",
    "geom:latitude": 37.54643822306041,
    "geom:longitude": -121.80989577630189,
    "src:alt_label": "swim-approach",
    "src:geom": "swim",
    "swim:elevations": [
      5149,
      4926,
      4446,
      4222,
      4103,
      3770,
      3628,
      3444,
      3159,
      3128,
      2834,
      2727,
      2613,
      2419,
      2371,
      2256,
      2030,
      1912,
      1827,
      1795,
      1770,
      1584,
      1511,
      1371,
      1162,
      929,
      814,
      668,
      466,
      383,
      304,
      138,
      10
    ],
    "swim:geom": "approach",
    "swim:timestamps": [
      1769889500,
      1769889523,
      1769889565,
      1769889586,
      1769889601,
      1769889640,
      1769889661,
      1769889682,
      1769889718,
      1769889727,
      1769889775,
      1769889796,
      1769889822,
      1769889852,
      1769889860,
      1769889877,
      1769889925,
      1769889958,
      1769889980,
      1769889986,
      1769889992,
      1769890022,
      1769890034,
      1769890055,
      1769890091,
      1769890129,
      1769890162,
      1769890183,
      1769890210,
      1769890248,
      1769890264,
      1769890302,
      1769890330
    ],
    "wof:geomhash": "6acb6da1903ee19bd80527bd243e4978",
    "wof:id": 2014682505,
    "wof:repo": "sfomuseum-data-flights-2026-01"
  },
  "bbox": [
    -122.35653,
    37.4911,
    -121.25342,
    37.61333
  ],
  "geometry": {"coordinates":[[-121.25342,37.59405],[-121.29346,37.58871],[-121.36508,37.58098],[-121.4013,37.57698],[-121.42697,37.57407],[-121.49391,37.56619],[-121.52961,37.56205],[-121.56504,37.5578],[-121.62536,37.55031],[-121.63984,37.54704],[-121.71384,37.52962],[-121.74319,37.52269],[-121.77737,37.51423],[-121.81763,37.5045],[-121.82723,37.50221],[-121.85048,37.49662],[-121.91432,37.4911],[-121.95802,37.49221],[-121.98639,37.49459],[-121.994,37.49626],[-122.00139,37.49843],[-122.03807,37.51061],[-122.05284,37.51542],[-122.07864,37.52391],[-122.12191,37.53808],[-122.16671,37.55266],[-122.20215,37.56418],[-122.22351,37.5711],[-122.24979,37.57946],[-122.28536,37.59025],[-122.29994,37.59438],[-122.33324,37.60436],[-122.35653,37.61333]],"type":"LineString"}
}
