{
  "id": 2014682375,
  "type": "Feature",
  "properties": {
    "geom:area": 0,
    "geom:bbox": "-122.358090,37.491640,-121.254480,37.613810",
    "geom:latitude": 37.546659205513485,
    "geom:longitude": -121.81111055517846,
    "src:alt_label": "swim-approach",
    "src:geom": "swim",
    "swim:elevations": [
      4703,
      4394,
      4158,
      3905,
      3488,
      3420,
      3142,
      3077,
      2992,
      2699,
      2477,
      2437,
      2316,
      2158,
      2059,
      1904,
      1829,
      1712,
      1625,
      1398,
      1292,
      816,
      619,
      547,
      419,
      244,
      140,
      71,
      0
    ],
    "swim:geom": "approach",
    "swim:timestamps": [
      1769858806,
      1769858841,
      1769858865,
      1769858893,
      1769858937,
      1769858945,
      1769858998,
      1769859022,
      1769859040,
      1769859071,
      1769859106,
      1769859120,
      1769859150,
      1769859176,
      1769859198,
      1769859224,
      1769859266,
      1769859296,
      1769859312,
      1769859346,
      1769859361,
      1769859413,
      1769859444,
      1769859458,
      1769859491,
      1769859533,
      1769859568,
      1769859578,
      1769859597
    ],
    "wof:geomhash": "28013cd5997291d297263aac4359366f",
    "wof:id": 2014682375,
    "wof:repo": "sfomuseum-data-flights-2026-01"
  },
  "bbox": [
    -122.35809,
    37.49164,
    -121.25448,
    37.61381
  ],
  "geometry": {"coordinates":[[-121.25448,37.59394],[-121.32066,37.58576],[-121.36751,37.5807],[-121.41935,37.57495],[-121.49881,37.56562],[-121.51412,37.56384],[-121.60816,37.55268],[-121.64659,37.54563],[-121.67243,37.53941],[-121.71765,37.52863],[-121.77005,37.51616],[-121.78971,37.51143],[-121.83331,37.5009],[-121.87199,37.49249],[-121.90406,37.49164],[-121.94457,37.49273],[-122.00614,37.50063],[-122.04449,37.51303],[-122.06586,37.51998],[-122.1083,37.53376],[-122.12776,37.54004],[-122.18848,37.55977],[-122.2227,37.5708],[-122.23724,37.57555],[-122.27056,37.58592],[-122.30593,37.59622],[-122.33498,37.60511],[-122.34327,37.60793],[-122.35809,37.61381]],"type":"LineString"}
}
