{
  "id": 2014682469,
  "type": "Feature",
  "properties": {
    "geom:area": 0,
    "geom:bbox": "-122.844250,37.408730,-122.118220,38.485140",
    "geom:latitude": 37.81650286144914,
    "geom:longitude": -122.49547935784327,
    "src:alt_label": "swim-approach",
    "src:geom": "swim",
    "swim:elevations": [
      7742,
      7491,
      7369,
      7203,
      6954,
      6669,
      6389,
      6181,
      6077,
      5863,
      5751,
      5700,
      5394,
      5169,
      5017,
      4692,
      4169,
      4037,
      3916,
      3781,
      3513,
      3372,
      3353,
      3353,
      3353,
      3353,
      3376,
      3311,
      3029,
      2979,
      2883,
      2713,
      2414,
      2258,
      1944,
      1825,
      1837,
      1806,
      1740,
      1319,
      1248,
      1219,
      1124,
      1083,
      943,
      790,
      745,
      492,
      427,
      261,
      113,
      90
    ],
    "swim:geom": "approach",
    "swim:timestamps": [
      1769849998,
      1769850024,
      1769850038,
      1769850056,
      1769850083,
      1769850114,
      1769850145,
      1769850167,
      1769850182,
      1769850204,
      1769850216,
      1769850223,
      1769850263,
      1769850290,
      1769850307,
      1769850343,
      1769850388,
      1769850402,
      1769850413,
      1769850422,
      1769850462,
      1769850494,
      1769850536,
      1769850566,
      1769850572,
      1769850578,
      1769850604,
      1769850647,
      1769850688,
      1769850699,
      1769850712,
      1769850732,
      1769850768,
      1769850784,
      1769850823,
      1769850848,
      1769850878,
      1769850921,
      1769850935,
      1769850980,
      1769850991,
      1769851020,
      1769851067,
      1769851080,
      1769851099,
      1769851132,
      1769851140,
      1769851191,
      1769851203,
      1769851243,
      1769851284,
      1769851291
    ],
    "wof:geomhash": "7b422b22707d1499ce86929b364064ac",
    "wof:id": 2014682469,
    "wof:repo": "sfomuseum-data-flights-2026-01"
  },
  "bbox": [
    -122.84425,
    37.40873,
    -122.11822,
    38.48514
  ],
  "geometry": {"coordinates":[[-122.84425,38.48514],[-122.83088,38.44092],[-122.8244,38.41902],[-122.81546,38.38881],[-122.80276,38.34587],[-122.78762,38.2943],[-122.77307,38.24406],[-122.76289,38.20879],[-122.7562,38.18567],[-122.74554,38.14935],[-122.73988,38.13002],[-122.73667,38.11903],[-122.71799,38.05454],[-122.70561,38.01168],[-122.69811,37.98585],[-122.68217,37.93053],[-122.63903,37.86738],[-122.62178,37.85119],[-122.60775,37.83799],[-122.59596,37.82681],[-122.54775,37.78158],[-122.51442,37.74994],[-122.47533,37.71276],[-122.44739,37.68657],[-122.4418,37.68135],[-122.43619,37.67603],[-122.412,37.6532],[-122.37246,37.61545],[-122.34833,37.57469],[-122.34153,37.56384],[-122.33325,37.55046],[-122.32095,37.53086],[-122.29954,37.49595],[-122.29001,37.4804],[-122.26654,37.44328],[-122.24019,37.42951],[-122.20878,37.4194],[-122.16334,37.40873],[-122.14963,37.41475],[-122.12835,37.45167],[-122.12346,37.46159],[-122.11822,37.48674],[-122.15092,37.52306],[-122.16234,37.53055],[-122.1822,37.53982],[-122.21414,37.55334],[-122.22245,37.55683],[-122.2715,37.57741],[-122.2824,37.58204],[-122.31348,37.59513],[-122.34243,37.60736],[-122.34745,37.6095]],"type":"LineString"}
}
