{
  "id": 2014684701,
  "type": "Feature",
  "properties": {
    "geom:area": 0,
    "geom:bbox": "-122.367530,37.626560,-121.257710,38.417660",
    "geom:latitude": 38.03292086390712,
    "geom:longitude": -121.82240264742406,
    "src:alt_label": "swim-takeoff",
    "src:geom": "swim",
    "swim:elevations": [
      152,
      315,
      855,
      943,
      1452,
      2189,
      2712,
      3059,
      3528,
      3617,
      4008,
      4392,
      5069,
      5745,
      6275,
      6525,
      6901,
      7061,
      7458,
      7579,
      7964,
      8217,
      8461
    ],
    "swim:geom": "takeoff",
    "swim:timestamps": [
      1769868746,
      1769868755,
      1769868807,
      1769868816,
      1769868849,
      1769868894,
      1769868922,
      1769868945,
      1769868988,
      1769868996,
      1769869033,
      1769869063,
      1769869108,
      1769869155,
      1769869196,
      1769869221,
      1769869258,
      1769869269,
      1769869315,
      1769869330,
      1769869361,
      1769869394,
      1769869420
    ],
    "wof:geomhash": "52a521b43ee492fa17590b40bdf3cac1",
    "wof:id": 2014684701,
    "wof:repo": "sfomuseum-data-flights-2026-01"
  },
  "bbox": [
    -122.36753,
    37.62656,
    -121.25771,
    38.41766
  ],
  "geometry": {"coordinates":[[-122.36753,37.62656],[-122.3633,37.63272],[-122.32203,37.65933],[-122.31253,37.66468],[-122.27483,37.68561],[-122.21784,37.71683],[-122.18812,37.74612],[-122.16567,37.77117],[-122.11712,37.82498],[-122.1076,37.8355],[-122.05735,37.88709],[-122.00358,37.92479],[-121.91795,37.98174],[-121.82811,38.04188],[-121.74811,38.09599],[-121.69741,38.13019],[-121.61944,38.18241],[-121.59562,38.19841],[-121.49744,38.26421],[-121.46379,38.28668],[-121.39428,38.33252],[-121.31772,38.38135],[-121.25771,38.41766]],"type":"LineString"}
}
