{
  "id": 2014680673,
  "type": "Feature",
  "properties": {
    "geom:area": 0,
    "geom:bbox": "-122.352100,36.746880,-121.892290,37.609070",
    "geom:latitude": 37.21816292617181,
    "geom:longitude": -122.07307942583304,
    "src:alt_label": "swim-approach",
    "src:geom": "swim",
    "swim:elevations": [
      5248,
      4911,
      4787,
      4321,
      4147,
      3670,
      3449,
      3193,
      3120,
      2937,
      2761,
      2626,
      2320,
      2282,
      2120,
      1890,
      1799,
      1642,
      1218,
      985,
      738,
      662,
      553,
      425,
      336,
      242,
      186,
      93,
      53
    ],
    "swim:geom": "approach",
    "swim:timestamps": [
      1769896704,
      1769896736,
      1769896748,
      1769896793,
      1769896811,
      1769896858,
      1769896880,
      1769896906,
      1769896930,
      1769896975,
      1769897001,
      1769897020,
      1769897064,
      1769897081,
      1769897116,
      1769897155,
      1769897174,
      1769897191,
      1769897231,
      1769897258,
      1769897305,
      1769897320,
      1769897341,
      1769897398,
      1769897425,
      1769897449,
      1769897464,
      1769897491,
      1769897503
    ],
    "wof:geomhash": "cb8738893d9bb5357e0e47d0a56b157f",
    "wof:id": 2014680673,
    "wof:repo": "sfomuseum-data-flights-2026-01"
  },
  "bbox": [
    -122.3521,
    36.74688,
    -121.89229,
    37.60907
  ],
  "geometry": {"coordinates":[[-121.89229,36.74688],[-121.91117,36.80321],[-121.91711,36.82425],[-121.93898,36.90195],[-121.94758,36.93244],[-121.97541,37.00927],[-121.98846,37.04279],[-122.00482,37.08432],[-122.01857,37.12016],[-122.04277,37.18207],[-122.05627,37.21597],[-122.0663,37.24169],[-122.08873,37.29894],[-122.09699,37.32007],[-122.11361,37.36169],[-122.12959,37.40534],[-122.13609,37.42455],[-122.14225,37.44247],[-122.15941,37.48012],[-122.17826,37.50242],[-122.20664,37.53621],[-122.21506,37.54597],[-122.229,37.55663],[-122.27398,37.57634],[-122.29375,37.58454],[-122.31205,37.59224],[-122.32333,37.59693],[-122.34321,37.60535],[-122.3521,37.60907]],"type":"LineString"}
}
