{
  "id": 2014684325,
  "type": "Feature",
  "properties": {
    "geom:area": 0,
    "geom:bbox": "-122.517050,37.625810,-122.392030,37.670730",
    "geom:latitude": 37.65047966016646,
    "geom:longitude": -122.45375178213594,
    "src:alt_label": "swim-takeoff",
    "src:geom": "swim",
    "swim:elevations": [
      183,
      593,
      656,
      1234
    ],
    "swim:geom": "takeoff",
    "swim:timestamps": [
      1769930435,
      1769930488,
      1769930497,
      1769930544
    ],
    "wof:geomhash": "676dd26ab66f40a797d84b46bab532ae",
    "wof:id": 2014684325,
    "wof:repo": "sfomuseum-data-flights-2026-01"
  },
  "bbox": [
    -122.51705,
    37.62581,
    -122.39203,
    37.67073
  ],
  "geometry": {"coordinates":[[-122.39203,37.62581],[-122.4451,37.64909],[-122.45549,37.65356],[-122.51705,37.67073]],"type":"LineString"}
}
