{
  "id": 2014682471,
  "type": "Feature",
  "properties": {
    "geom:area": 0,
    "geom:bbox": "-122.360310,37.492390,-121.275620,37.615250",
    "geom:latitude": 37.54594745760435,
    "geom:longitude": -121.82287297791656,
    "src:alt_label": "swim-approach",
    "src:geom": "swim",
    "swim:elevations": [
      4516,
      4235,
      4061,
      3766,
      3452,
      3311,
      3170,
      3025,
      2754,
      2560,
      2470,
      2261,
      2166,
      1946,
      1924,
      1671,
      1391,
      1193,
      1159,
      893,
      852,
      791,
      702,
      663,
      466,
      422,
      302,
      252,
      83,
      0
    ],
    "swim:geom": "approach",
    "swim:timestamps": [
      1769881761,
      1769881792,
      1769881811,
      1769881843,
      1769881880,
      1769881894,
      1769881927,
      1769881963,
      1769881999,
      1769882031,
      1769882059,
      1769882094,
      1769882108,
      1769882158,
      1769882164,
      1769882207,
      1769882247,
      1769882275,
      1769882284,
      1769882338,
      1769882347,
      1769882359,
      1769882387,
      1769882400,
      1769882458,
      1769882472,
      1769882509,
      1769882523,
      1769882565,
      1769882582
    ],
    "wof:geomhash": "611e2aa1c39150cc2181e8c905970d57",
    "wof:id": 2014682471,
    "wof:repo": "sfomuseum-data-flights-2026-01"
  },
  "bbox": [
    -122.36031,
    37.49239,
    -121.27562,
    37.61525
  ],
  "geometry": {"coordinates":[[-121.27562,37.5909],[-121.33576,37.58414],[-121.37121,37.58042],[-121.43105,37.57361],[-121.49883,37.56562],[-121.52379,37.56267],[-121.58463,37.55552],[-121.64441,37.54616],[-121.70299,37.53217],[-121.75274,37.52021],[-121.79628,37.50983],[-121.84526,37.49804],[-121.86588,37.49334],[-121.94144,37.49239],[-121.94969,37.49264],[-122.00916,37.50149],[-122.05736,37.51729],[-122.08675,37.52684],[-122.0963,37.52996],[-122.15337,37.54846],[-122.16227,37.55128],[-122.17407,37.55506],[-122.19955,37.56326],[-122.21009,37.56672],[-122.25827,37.58215],[-122.27077,37.58584],[-122.30202,37.59501],[-122.31346,37.59842],[-122.34707,37.60929],[-122.36031,37.61525]],"type":"LineString"}
}
