{
  "id": 2014681723,
  "type": "Feature",
  "properties": {
    "geom:area": 0,
    "geom:bbox": "-122.356720,37.490980,-121.292750,37.613250",
    "geom:latitude": 37.54487688425277,
    "geom:longitude": -121.82943686451607,
    "src:alt_label": "swim-approach",
    "src:geom": "swim",
    "swim:elevations": [
      4616,
      4461,
      4012,
      3896,
      3372,
      3171,
      3160,
      2860,
      2530,
      2468,
      2438,
      2438,
      2249,
      2094,
      1965,
      1870,
      1829,
      1582,
      1503,
      1083,
      971,
      910,
      854,
      670,
      567,
      399,
      328,
      211,
      123,
      52,
      0
    ],
    "swim:geom": "approach",
    "swim:timestamps": [
      1769898957,
      1769898972,
      1769899013,
      1769899024,
      1769899075,
      1769899105,
      1769899114,
      1769899168,
      1769899198,
      1769899210,
      1769899249,
      1769899269,
      1769899311,
      1769899342,
      1769899369,
      1769899387,
      1769899421,
      1769899464,
      1769899476,
      1769899527,
      1769899554,
      1769899578,
      1769899599,
      1769899637,
      1769899658,
      1769899697,
      1769899718,
      1769899751,
      1769899772,
      1769899796,
      1769899802
    ],
    "wof:geomhash": "3fd6d3b77d3d5e6d8678b55e82f1b19a",
    "wof:id": 2014681723,
    "wof:repo": "sfomuseum-data-flights-2026-01"
  },
  "bbox": [
    -122.35672,
    37.49098,
    -121.29275,
    37.61325
  ],
  "geometry": {"coordinates":[[-121.29275,37.58903],[-121.32098,37.58572],[-121.39868,37.57725],[-121.42041,37.5748],[-121.5124,37.56428],[-121.56162,37.55841],[-121.57543,37.55672],[-121.65396,37.54372],[-121.69738,37.53339],[-121.71446,37.52938],[-121.76634,37.51694],[-121.79236,37.51071],[-121.84846,37.49726],[-121.88984,37.49098],[-121.92644,37.49244],[-121.95056,37.49298],[-121.99465,37.49653],[-122.04795,37.51436],[-122.06226,37.51903],[-122.11981,37.53767],[-122.14821,37.54686],[-122.17314,37.55493],[-122.19458,37.56194],[-122.23128,37.57375],[-122.25074,37.58006],[-122.28256,37.58945],[-122.29817,37.59406],[-122.32195,37.6011],[-122.33645,37.60538],[-122.35265,37.61167],[-122.35672,37.61325]],"type":"LineString"}
}
