{
  "id": 2014682587,
  "type": "Feature",
  "properties": {
    "geom:area": 0,
    "geom:bbox": "-122.357010,37.491080,-121.246190,37.613580",
    "geom:latitude": 37.546659025875634,
    "geom:longitude": -121.80653466039807,
    "src:alt_label": "swim-approach",
    "src:geom": "swim",
    "swim:elevations": [
      4958,
      4930,
      4599,
      4322,
      4011,
      3802,
      3690,
      3412,
      3258,
      2898,
      2787,
      2707,
      2370,
      2218,
      2119,
      1922,
      1847,
      1733,
      1502,
      1461,
      1354,
      1020,
      889,
      884,
      761,
      552,
      452,
      353,
      246,
      97,
      0
    ],
    "swim:geom": "approach",
    "swim:timestamps": [
      1769893945,
      1769893954,
      1769894002,
      1769894028,
      1769894064,
      1769894085,
      1769894101,
      1769894132,
      1769894162,
      1769894210,
      1769894241,
      1769894253,
      1769894300,
      1769894322,
      1769894340,
      1769894390,
      1769894412,
      1769894433,
      1769894456,
      1769894465,
      1769894496,
      1769894548,
      1769894572,
      1769894593,
      1769894626,
      1769894668,
      1769894695,
      1769894718,
      1769894746,
      1769894788,
      1769894806
    ],
    "wof:geomhash": "5d2db59880bcf125fc950e013143949f",
    "wof:id": 2014682587,
    "wof:repo": "sfomuseum-data-flights-2026-01"
  },
  "bbox": [
    -122.35701,
    37.49108,
    -121.24619,
    37.61358
  ],
  "geometry": {"coordinates":[[-121.24619,37.59496],[-121.26324,37.59271],[-121.34728,37.58302],[-121.39097,37.57785],[-121.45007,37.57096],[-121.48655,37.56677],[-121.51336,37.56361],[-121.56502,37.55769],[-121.6152,37.55168],[-121.69382,37.53399],[-121.74143,37.52271],[-121.75905,37.51851],[-121.82705,37.5022],[-121.85861,37.49462],[-121.88428,37.49108],[-121.95166,37.49302],[-121.98019,37.49399],[-122.00559,37.50049],[-122.03523,37.51016],[-122.04652,37.51384],[-122.08224,37.5252],[-122.13545,37.54237],[-122.15922,37.55008],[-122.17941,37.55644],[-122.21211,37.5671],[-122.25206,37.57997],[-122.27426,37.58662],[-122.29175,37.59183],[-122.31252,37.59816],[-122.34433,37.60829],[-122.35701,37.61358]],"type":"LineString"}
}
