{
  "id": 2014685965,
  "type": "Feature",
  "properties": {
    "geom:area": 0,
    "geom:bbox": "-122.442680,36.747840,-121.507160,37.708540",
    "geom:latitude": 37.23770862523474,
    "geom:longitude": -122.06437616711769,
    "src:alt_label": "swim-takeoff",
    "src:geom": "swim",
    "swim:elevations": [
      152,
      539,
      652,
      889,
      1145,
      1267,
      1566,
      1907,
      2449,
      2894,
      3277,
      3668,
      3812,
      4448,
      4724,
      4991,
      5425,
      5779,
      6220,
      6474,
      6629,
      6841,
      7056,
      7348,
      7561,
      7825,
      7911,
      8074,
      8333,
      8507,
      8717,
      8804
    ],
    "swim:geom": "takeoff",
    "swim:timestamps": [
      1769852093,
      1769852119,
      1769852133,
      1769852155,
      1769852188,
      1769852217,
      1769852244,
      1769852264,
      1769852296,
      1769852321,
      1769852353,
      1769852386,
      1769852401,
      1769852452,
      1769852474,
      1769852498,
      1769852534,
      1769852572,
      1769852608,
      1769852632,
      1769852646,
      1769852665,
      1769852685,
      1769852714,
      1769852745,
      1769852786,
      1769852798,
      1769852824,
      1769852867,
      1769852891,
      1769852933,
      1769852949
    ],
    "wof:geomhash": "bc6426cf76586ebd0ff5c0d2ff3b535e",
    "wof:id": 2014685965,
    "wof:repo": "sfomuseum-data-flights-2026-01"
  },
  "bbox": [
    -122.44268,
    36.74784,
    -121.50716,
    37.70854
  ],
  "geometry": {"coordinates":[[-122.36844,37.62975],[-122.36389,37.64881],[-122.36391,37.65968],[-122.36245,37.67831],[-122.37441,37.70358],[-122.4115,37.70854],[-122.44018,37.68606],[-122.44268,37.6607],[-122.43836,37.61973],[-122.43443,37.58728],[-122.42836,37.54579],[-122.42002,37.49871],[-122.41062,37.4787],[-122.33628,37.41915],[-122.303,37.39393],[-122.26543,37.36522],[-122.20701,37.32111],[-122.14698,37.27495],[-122.08755,37.22984],[-122.04699,37.19844],[-122.02496,37.18001],[-121.99519,37.15471],[-121.96386,37.1283],[-121.91671,37.08904],[-121.86671,37.04718],[-121.79735,36.98998],[-121.77671,36.97231],[-121.73089,36.93512],[-121.65495,36.87217],[-121.6125,36.83657],[-121.53668,36.77281],[-121.50716,36.74784]],"type":"LineString"}
}
