{
  "id": 2014681243,
  "type": "Feature",
  "properties": {
    "geom:area": 0,
    "geom:bbox": "-122.358960,37.491510,-121.304060,37.614310",
    "geom:latitude": 37.54456511452741,
    "geom:longitude": -121.83623611455387,
    "src:alt_label": "swim-approach",
    "src:geom": "swim",
    "swim:elevations": [
      4445,
      4085,
      3994,
      3695,
      3450,
      3135,
      3019,
      2767,
      2561,
      2529,
      2341,
      2165,
      2088,
      1950,
      1915,
      1812,
      1578,
      1444,
      1225,
      1050,
      781,
      766,
      644,
      507,
      395,
      272,
      150,
      33,
      0
    ],
    "swim:geom": "approach",
    "swim:timestamps": [
      1769881939,
      1769881975,
      1769881984,
      1769882015,
      1769882044,
      1769882094,
      1769882128,
      1769882158,
      1769882188,
      1769882200,
      1769882247,
      1769882278,
      1769882301,
      1769882332,
      1769882342,
      1769882359,
      1769882387,
      1769882403,
      1769882430,
      1769882463,
      1769882517,
      1769882520,
      1769882560,
      1769882604,
      1769882627,
      1769882661,
      1769882697,
      1769882724,
      1769882730
    ],
    "wof:geomhash": "5ebdcb0dcaa9c84fb9fbc475960f1113",
    "wof:id": 2014681243,
    "wof:repo": "sfomuseum-data-flights-2026-01"
  },
  "bbox": [
    -122.35896,
    37.49151,
    -121.30406,
    37.61431
  ],
  "geometry": {"coordinates":[[-121.30406,37.58748],[-121.3735,37.58009],[-121.39107,37.57814],[-121.44969,37.57143],[-121.50319,37.56513],[-121.59263,37.55456],[-121.64801,37.54537],[-121.69467,37.53427],[-121.74024,37.5232],[-121.75891,37.5187],[-121.82882,37.50194],[-121.87278,37.49244],[-121.90795,37.49151],[-121.95466,37.49282],[-121.96868,37.49337],[-121.9914,37.49647],[-122.02707,37.50737],[-122.04788,37.51412],[-122.08144,37.52505],[-122.12058,37.53789],[-122.17897,37.55673],[-122.18211,37.55772],[-122.2221,37.57063],[-122.26509,37.58436],[-122.28468,37.59004],[-122.31082,37.59774],[-122.33656,37.60538],[-122.35478,37.61255],[-122.35896,37.61431]],"type":"LineString"}
}
