{
  "id": 2014686209,
  "type": "Feature",
  "properties": {
    "geom:area": 0,
    "geom:bbox": "-122.445120,36.726350,-121.274950,37.706480",
    "geom:latitude": 37.220124588703634,
    "geom:longitude": -121.93932433560539,
    "src:alt_label": "swim-takeoff",
    "src:geom": "swim",
    "swim:elevations": [
      451,
      694,
      1067,
      1196,
      1397,
      1564,
      2040,
      2396,
      3113,
      3428,
      3456,
      4018,
      4591,
      4739,
      5018,
      5286,
      5863,
      6193,
      6479,
      6810,
      7263,
      7753,
      7980,
      8297,
      8447,
      8601,
      8697,
      8915,
      9089,
      9536,
      9927,
      9983,
      10058,
      10035
    ],
    "swim:geom": "takeoff",
    "swim:timestamps": [
      1769895628,
      1769895646,
      1769895680,
      1769895706,
      1769895732,
      1769895748,
      1769895778,
      1769895797,
      1769895835,
      1769895866,
      1769895870,
      1769895921,
      1769895957,
      1769895967,
      1769895985,
      1769896000,
      1769896039,
      1769896063,
      1769896087,
      1769896117,
      1769896156,
      1769896196,
      1769896214,
      1769896244,
      1769896266,
      1769896293,
      1769896308,
      1769896344,
      1769896368,
      1769896408,
      1769896438,
      1769896446,
      1769896495,
      1769896521
    ],
    "wof:geomhash": "9db005864799726500af41b9ffd8f74d",
    "wof:id": 2014686209,
    "wof:repo": "sfomuseum-data-flights-2026-01"
  },
  "bbox": [
    -122.44512,
    36.72635,
    -121.27495,
    37.70648
  ],
  "geometry": {"coordinates":[[-122.36463,37.64112],[-122.36477,37.65443],[-122.36382,37.67943],[-122.37104,37.70128],[-122.40155,37.70648],[-122.42,37.69473],[-122.42951,37.65893],[-122.43239,37.63619],[-122.44512,37.59058],[-122.43311,37.55337],[-122.42849,37.54892],[-122.3526,37.4966],[-122.29692,37.45679],[-122.28121,37.44568],[-122.25261,37.42551],[-122.22843,37.40836],[-122.16515,37.36374],[-122.12545,37.33568],[-122.08561,37.30738],[-122.03417,37.27102],[-121.96524,37.22215],[-121.89517,37.17236],[-121.86304,37.14947],[-121.80955,37.11122],[-121.76826,37.08179],[-121.71787,37.04579],[-121.68933,37.0254],[-121.62053,36.97587],[-121.57293,36.942],[-121.49265,36.88472],[-121.43498,36.84279],[-121.41946,36.83144],[-121.32391,36.76194],[-121.27495,36.72635]],"type":"LineString"}
}
