{
  "id": 2014685239,
  "type": "Feature",
  "properties": {
    "geom:area": 0,
    "geom:bbox": "-122.368030,37.626310,-121.455800,38.501150",
    "geom:latitude": 38.058265684279846,
    "geom:longitude": -121.9083672611169,
    "src:alt_label": "swim-takeoff",
    "src:geom": "swim",
    "swim:elevations": [
      152,
      398,
      698,
      1072,
      1159,
      1424,
      2142,
      2520,
      2811,
      3202,
      3375,
      3461,
      3576,
      3935,
      4375,
      4730,
      4905,
      5187,
      5522,
      5736,
      5772,
      5917,
      6249,
      6556,
      6728,
      6803
    ],
    "swim:geom": "takeoff",
    "swim:timestamps": [
      1769848278,
      1769848293,
      1769848326,
      1769848378,
      1769848392,
      1769848420,
      1769848466,
      1769848493,
      1769848516,
      1769848554,
      1769848584,
      1769848599,
      1769848623,
      1769848659,
      1769848702,
      1769848734,
      1769848747,
      1769848772,
      1769848816,
      1769848840,
      1769848845,
      1769848862,
      1769848910,
      1769848949,
      1769848970,
      1769848980
    ],
    "wof:geomhash": "ab4fd7b9af5b2b4903e41185429f018d",
    "wof:id": 2014685239,
    "wof:repo": "sfomuseum-data-flights-2026-01"
  },
  "bbox": [
    -122.36803,
    37.62631,
    -121.4558,
    38.50115
  ],
  "geometry": {"coordinates":[[-122.36803,37.62631],[-122.36098,37.63582],[-122.33711,37.651],[-122.28635,37.67896],[-122.2705,37.68816],[-122.23547,37.70853],[-122.18493,37.75118],[-122.15869,37.7802],[-122.13691,37.80426],[-122.09731,37.84831],[-122.06433,37.8851],[-122.04562,37.9058],[-122.01467,37.93971],[-121.96523,37.99369],[-121.90602,38.05835],[-121.86001,38.1087],[-121.84036,38.13015],[-121.80347,38.17044],[-121.73912,38.24053],[-121.70301,38.27983],[-121.69513,38.28843],[-121.66864,38.31717],[-121.59298,38.39807],[-121.52199,38.45788],[-121.47805,38.48767],[-121.4558,38.50115]],"type":"LineString"}
}
