{
  "id": 2014684597,
  "type": "Feature",
  "properties": {
    "geom:area": 0,
    "geom:bbox": "-123.330890,37.626690,-122.393830,38.509580",
    "geom:latitude": 38.02637016289807,
    "geom:longitude": -122.89601159952561,
    "src:alt_label": "swim-takeoff",
    "src:geom": "swim",
    "swim:elevations": [
      122,
      457,
      1032,
      1141,
      1212,
      1755,
      1854,
      2475,
      2600,
      2970,
      3391,
      3770,
      4130,
      4168,
      4585,
      4966,
      5399,
      5603,
      5904,
      6213,
      6406,
      6822,
      7041,
      7132
    ],
    "swim:geom": "takeoff",
    "swim:timestamps": [
      1769861617,
      1769861641,
      1769861697,
      1769861723,
      1769861734,
      1769861788,
      1769861796,
      1769861841,
      1769861851,
      1769861880,
      1769861932,
      1769861968,
      1769861998,
      1769862002,
      1769862038,
      1769862074,
      1769862117,
      1769862143,
      1769862175,
      1769862215,
      1769862246,
      1769862297,
      1769862325,
      1769862337
    ],
    "wof:geomhash": "5685670b191a647e821c9e023c1efdc4",
    "wof:id": 2014684597,
    "wof:repo": "sfomuseum-data-flights-2026-01"
  },
  "bbox": [
    -123.33089,
    37.62669,
    -122.39383,
    38.50958
  ],
  "geometry": {"coordinates":[[-122.39383,37.62669],[-122.4182,37.63722],[-122.47862,37.66392],[-122.50924,37.67808],[-122.52264,37.68592],[-122.5942,37.72816],[-122.60529,37.73478],[-122.66968,37.77264],[-122.68395,37.78115],[-122.72632,37.80599],[-122.79118,37.86467],[-122.83385,37.91645],[-122.86954,37.95988],[-122.87437,37.96575],[-122.91936,38.01969],[-122.96521,38.07443],[-123.02094,38.14121],[-123.05483,38.18174],[-123.09846,38.23379],[-123.15281,38.29836],[-123.19694,38.35097],[-123.27227,38.43936],[-123.31328,38.48811],[-123.33089,38.50958]],"type":"LineString"}
}
