{
  "id": 2014686139,
  "type": "Feature",
  "properties": {
    "geom:area": 0,
    "geom:bbox": "-122.369110,37.624140,-121.272890,37.940480",
    "geom:latitude": 37.77803860055365,
    "geom:longitude": -121.82255825945266,
    "src:alt_label": "swim-takeoff",
    "src:geom": "swim",
    "swim:elevations": [
      122,
      472,
      834,
      1120,
      1407,
      1447,
      1740,
      2114,
      2461,
      3084,
      3434,
      3627,
      4252,
      4518,
      4708,
      5405,
      5739,
      6068,
      6261,
      6687,
      6905,
      7218,
      7264
    ],
    "swim:geom": "takeoff",
    "swim:timestamps": [
      1769903182,
      1769903205,
      1769903238,
      1769903268,
      1769903307,
      1769903310,
      1769903337,
      1769903361,
      1769903379,
      1769903413,
      1769903444,
      1769903468,
      1769903517,
      1769903538,
      1769903553,
      1769903607,
      1769903637,
      1769903667,
      1769903685,
      1769903728,
      1769903752,
      1769903785,
      1769903791
    ],
    "wof:geomhash": "f8ad76b21b69c71350a02aadbcdea239",
    "wof:id": 2014686139,
    "wof:repo": "sfomuseum-data-flights-2026-01"
  },
  "bbox": [
    -122.36911,
    37.62414,
    -121.27289,
    37.94048
  ],
  "geometry": {"coordinates":[[-122.36911,37.62414],[-122.35638,37.63728],[-122.3322,37.65218],[-122.3032,37.65545],[-122.25567,37.65967],[-122.25155,37.66006],[-122.211,37.6636],[-122.17178,37.66894],[-122.14311,37.67815],[-122.08889,37.69445],[-122.03495,37.71025],[-121.9901,37.72363],[-121.89223,37.75378],[-121.84882,37.76721],[-121.817,37.77692],[-121.69935,37.81268],[-121.63281,37.83273],[-121.56543,37.85287],[-121.5243,37.86527],[-121.42473,37.89518],[-121.36718,37.91235],[-121.2876,37.93615],[-121.27289,37.94048]],"type":"LineString"}
}
