{
  "id": 2014679625,
  "type": "Feature",
  "properties": {
    "geom:area": 0,
    "geom:bbox": "-122.347510,37.491300,-121.245000,37.609480",
    "geom:latitude": 37.546186450903804,
    "geom:longitude": -121.8009678289036,
    "src:alt_label": "swim-approach",
    "src:geom": "swim",
    "swim:elevations": [
      4793,
      4555,
      4319,
      4080,
      3842,
      3688,
      3536,
      3413,
      3329,
      2990,
      2875,
      2685,
      2527,
      2416,
      2221,
      2065,
      1987,
      1864,
      1835,
      1829,
      1572,
      1433,
      1301,
      1113,
      986,
      908,
      630,
      518,
      460,
      384,
      294,
      204,
      89
    ],
    "swim:geom": "approach",
    "swim:timestamps": [
      1769893133,
      1769893161,
      1769893192,
      1769893225,
      1769893257,
      1769893279,
      1769893297,
      1769893315,
      1769893327,
      1769893377,
      1769893395,
      1769893426,
      1769893451,
      1769893463,
      1769893496,
      1769893524,
      1769893546,
      1769893580,
      1769893597,
      1769893621,
      1769893665,
      1769893680,
      1769893699,
      1769893725,
      1769893757,
      1769893772,
      1769893826,
      1769893852,
      1769893865,
      1769893885,
      1769893905,
      1769893925,
      1769893954
    ],
    "wof:geomhash": "f6a86e4ee112dfac4d8ca262d7fe1577",
    "wof:id": 2014679625,
    "wof:repo": "sfomuseum-data-flights-2026-01"
  },
  "bbox": [
    -122.34751,
    37.4913,
    -121.245,
    37.60948
  ],
  "geometry": {"coordinates":[[-121.245,37.59512],[-121.29834,37.58815],[-121.35633,37.58204],[-121.41555,37.57538],[-121.47259,37.56877],[-121.51121,37.56417],[-121.5423,37.56063],[-121.57311,37.55692],[-121.59344,37.55445],[-121.6744,37.53883],[-121.70246,37.53222],[-121.75119,37.52052],[-121.78846,37.51166],[-121.80655,37.50738],[-121.85674,37.49525],[-121.89856,37.4913],[-121.93137,37.49229],[-121.97803,37.49376],[-121.99922,37.49816],[-122.02536,37.50671],[-122.07062,37.52125],[-122.08666,37.5265],[-122.10728,37.53326],[-122.13507,37.54257],[-122.16726,37.55295],[-122.18207,37.55764],[-122.23654,37.57511],[-122.2601,37.58269],[-122.27148,37.58594],[-122.28824,37.59084],[-122.30603,37.59614],[-122.32352,37.60098],[-122.34751,37.60948]],"type":"LineString"}
}
