{
  "id": 2014682523,
  "type": "Feature",
  "properties": {
    "geom:area": 0,
    "geom:bbox": "-122.353440,36.721410,-121.877650,37.609640",
    "geom:latitude": 37.206293700065004,
    "geom:longitude": -122.06813269845422,
    "src:alt_label": "swim-approach",
    "src:geom": "swim",
    "swim:elevations": [
      5302,
      4932,
      4905,
      4432,
      4032,
      3806,
      3482,
      3248,
      3109,
      3024,
      2801,
      2735,
      2587,
      2483,
      2278,
      2153,
      1960,
      1910,
      1630,
      1569,
      1291,
      1032,
      797,
      735,
      562,
      425,
      260,
      189,
      43
    ],
    "swim:geom": "approach",
    "swim:timestamps": [
      1769885753,
      1769885788,
      1769885791,
      1769885838,
      1769885878,
      1769885902,
      1769885937,
      1769885961,
      1769885998,
      1769886024,
      1769886057,
      1769886069,
      1769886091,
      1769886105,
      1769886133,
      1769886147,
      1769886175,
      1769886181,
      1769886232,
      1769886244,
      1769886282,
      1769886323,
      1769886358,
      1769886370,
      1769886410,
      1769886438,
      1769886472,
      1769886492,
      1769886526
    ],
    "wof:geomhash": "54daa7559cb5c27afe89a8bc28484665",
    "wof:id": 2014682523,
    "wof:repo": "sfomuseum-data-flights-2026-01"
  },
  "bbox": [
    -122.35344,
    36.72141,
    -121.87765,
    37.60964
  ],
  "geometry": {"coordinates":[[-121.87765,36.72141],[-121.9052,36.78164],[-121.90671,36.78696],[-121.93001,36.8696],[-121.9488,36.93728],[-121.96302,36.97727],[-121.98477,37.03335],[-121.99899,37.06966],[-122.02026,37.1243],[-122.03457,37.16075],[-122.05171,37.20434],[-122.05784,37.22003],[-122.06885,37.24816],[-122.076,37.2664],[-122.08999,37.3022],[-122.09707,37.3198],[-122.11136,37.35608],[-122.11435,37.36361],[-122.13643,37.42651],[-122.14174,37.44184],[-122.1612,37.48522],[-122.18718,37.52229],[-122.2106,37.54909],[-122.22257,37.55377],[-122.25957,37.57025],[-122.28515,37.58109],[-122.31258,37.5924],[-122.32791,37.5987],[-122.35344,37.60964]],"type":"LineString"}
}
