{
  "id": 2014686181,
  "type": "Feature",
  "properties": {
    "geom:area": 0,
    "geom:bbox": "-122.366190,37.628470,-121.435880,38.514550",
    "geom:latitude": 38.0675590079368,
    "geom:longitude": -121.8983796120291,
    "src:alt_label": "swim-takeoff",
    "src:geom": "swim",
    "swim:elevations": [
      152,
      667,
      691,
      1025,
      1219,
      1913,
      2286,
      2756,
      3079,
      3137,
      3438,
      3614,
      3964,
      4259,
      4706,
      4937,
      5405,
      5557,
      5881,
      6078,
      6427,
      6593,
      6864,
      7220,
      7281
    ],
    "swim:geom": "takeoff",
    "swim:timestamps": [
      1769866790,
      1769866827,
      1769866831,
      1769866865,
      1769866893,
      1769866948,
      1769866973,
      1769867008,
      1769867038,
      1769867049,
      1769867083,
      1769867106,
      1769867134,
      1769867164,
      1769867205,
      1769867225,
      1769867268,
      1769867290,
      1769867322,
      1769867347,
      1769867392,
      1769867416,
      1769867449,
      1769867489,
      1769867496
    ],
    "wof:geomhash": "96ea265cef24c2e55fba6a59b27b08ec",
    "wof:id": 2014686181,
    "wof:repo": "sfomuseum-data-flights-2026-01"
  },
  "bbox": [
    -122.36619,
    37.62847,
    -121.43588,
    38.51455
  ],
  "geometry": {"coordinates":[[-122.36619,37.62847],[-122.33941,37.64847],[-122.33591,37.65027],[-122.3042,37.66844],[-122.27442,37.68601],[-122.20669,37.72671],[-122.18303,37.75338],[-122.14775,37.79156],[-122.11653,37.82572],[-122.10348,37.83985],[-122.06359,37.88424],[-122.03449,37.91634],[-121.99844,37.95623],[-121.95843,38.0002],[-121.90263,38.06148],[-121.87411,38.09268],[-121.81309,38.15942],[-121.78225,38.19303],[-121.73506,38.24447],[-121.69939,38.28335],[-121.63092,38.35783],[-121.59411,38.39781],[-121.53661,38.45048],[-121.45283,38.50415],[-121.43588,38.51455]],"type":"LineString"}
}
