{
  "id": 2014685861,
  "type": "Feature",
  "properties": {
    "geom:area": 0,
    "geom:bbox": "-122.537900,37.307280,-121.273610,37.729850",
    "geom:latitude": 37.52416521503387,
    "geom:longitude": -121.99885001644515,
    "src:alt_label": "swim-takeoff",
    "src:geom": "swim",
    "swim:elevations": [
      244,
      382,
      677,
      1044,
      1139,
      1384,
      1541,
      2390,
      2681,
      2951,
      3374,
      3706,
      4070,
      4618,
      5055,
      5324,
      5623,
      6090,
      6174,
      6633,
      6686,
      7072,
      7445,
      7643,
      7796,
      8226,
      8386,
      8554,
      8738,
      8887
    ],
    "swim:geom": "takeoff",
    "swim:timestamps": [
      1769865172,
      1769865182,
      1769865211,
      1769865246,
      1769865265,
      1769865294,
      1769865305,
      1769865358,
      1769865376,
      1769865394,
      1769865426,
      1769865463,
      1769865490,
      1769865532,
      1769865562,
      1769865580,
      1769865610,
      1769865657,
      1769865668,
      1769865717,
      1769865725,
      1769865763,
      1769865797,
      1769865825,
      1769865843,
      1769865898,
      1769865923,
      1769865947,
      1769865980,
      1769866002
    ],
    "wof:geomhash": "23f44a06337f7c5849aeb85ef510453d",
    "wof:id": 2014685861,
    "wof:repo": "sfomuseum-data-flights-2026-01"
  },
  "bbox": [
    -122.5379,
    37.30728,
    -121.27361,
    37.72985
  ],
  "geometry": {"coordinates":[[-122.3645,37.63594],[-122.36252,37.64386],[-122.36232,37.66705],[-122.3695,37.69753],[-122.38939,37.70827],[-122.42854,37.72362],[-122.44501,37.72985],[-122.52484,37.72167],[-122.5379,37.70132],[-122.53456,37.67866],[-122.49496,37.65028],[-122.42735,37.63087],[-122.37551,37.61754],[-122.29356,37.59486],[-122.2345,37.57831],[-122.19862,37.5685],[-122.13974,37.55225],[-122.04487,37.52584],[-122.02369,37.51988],[-121.91936,37.49086],[-121.90265,37.48615],[-121.81912,37.46263],[-121.74374,37.44143],[-121.68218,37.42396],[-121.64152,37.41234],[-121.51637,37.37695],[-121.46013,37.36057],[-121.40342,37.34461],[-121.32558,37.32235],[-121.27361,37.30728]],"type":"LineString"}
}
