{
  "id": 2014684707,
  "type": "Feature",
  "properties": {
    "geom:area": 0,
    "geom:bbox": "-122.449400,36.722390,-121.452920,37.711090",
    "geom:latitude": 37.21221259923303,
    "geom:longitude": -122.0583577719758,
    "src:alt_label": "swim-takeoff",
    "src:geom": "swim",
    "swim:elevations": [
      122,
      428,
      580,
      696,
      1103,
      1616,
      1727,
      2209,
      2615,
      2740,
      3072,
      3268,
      3408,
      3546,
      3871,
      3976,
      4617,
      4998,
      5480,
      5877,
      6659,
      6914,
      7217,
      7368,
      7694,
      8177,
      8297,
      8444,
      8700,
      8787,
      8870,
      9123,
      9157,
      9361,
      9467,
      9785
    ],
    "swim:geom": "takeoff",
    "swim:timestamps": [
      1769885877,
      1769885898,
      1769885922,
      1769885947,
      1769885998,
      1769886028,
      1769886036,
      1769886066,
      1769886091,
      1769886100,
      1769886124,
      1769886147,
      1769886172,
      1769886191,
      1769886232,
      1769886241,
      1769886293,
      1769886320,
      1769886355,
      1769886373,
      1769886410,
      1769886434,
      1769886466,
      1769886484,
      1769886513,
      1769886565,
      1769886580,
      1769886606,
      1769886648,
      1769886660,
      1769886677,
      1769886715,
      1769886721,
      1769886763,
      1769886790,
      1769886837
    ],
    "wof:geomhash": "856ae1b2a0080cc7aacacdac351ee937",
    "wof:id": 2014684707,
    "wof:repo": "sfomuseum-data-flights-2026-01"
  },
  "bbox": [
    -122.4494,
    36.72239,
    -121.45292,
    37.71109
  ],
  "geometry": {"coordinates":[[-122.37064,37.62639],[-122.36387,37.63995],[-122.36205,37.65731],[-122.36147,37.67968],[-122.40996,37.71109],[-122.44566,37.68913],[-122.4494,37.67992],[-122.4465,37.64329],[-122.44174,37.61321],[-122.44034,37.60225],[-122.43642,37.57247],[-122.43187,37.54326],[-122.42584,37.50755],[-122.42121,37.48003],[-122.39945,37.41568],[-122.38569,37.40291],[-122.30092,37.34168],[-122.25625,37.30948],[-122.19813,37.2675],[-122.17003,37.24721],[-122.11754,37.20928],[-122.08378,37.1847],[-122.0375,37.15089],[-122.01158,37.13206],[-121.96915,37.10111],[-121.89434,37.04655],[-121.872,37.03028],[-121.83325,37.002],[-121.76852,36.95452],[-121.748,36.9405],[-121.72162,36.92194],[-121.65873,36.87573],[-121.64878,36.86865],[-121.57909,36.81768],[-121.5326,36.78324],[-121.45292,36.72239]],"type":"LineString"}
}
