{
  "id": 2014686089,
  "type": "Feature",
  "properties": {
    "geom:area": 0,
    "geom:bbox": "-122.367140,37.627360,-121.273900,38.113820",
    "geom:latitude": 37.887557718787654,
    "geom:longitude": -121.82905693423649,
    "src:alt_label": "swim-takeoff",
    "src:geom": "swim",
    "swim:elevations": [
      183,
      493,
      920,
      1066,
      1204,
      1495,
      1704,
      2418,
      2929,
      3124,
      3421,
      3528,
      4012,
      4199,
      4614,
      4953,
      5229,
      5629,
      5939,
      6139,
      6217,
      6562,
      6743
    ],
    "swim:geom": "takeoff",
    "swim:timestamps": [
      1769877942,
      1769877961,
      1769878009,
      1769878036,
      1769878065,
      1769878101,
      1769878113,
      1769878157,
      1769878192,
      1769878206,
      1769878247,
      1769878268,
      1769878315,
      1769878331,
      1769878369,
      1769878399,
      1769878422,
      1769878463,
      1769878497,
      1769878523,
      1769878532,
      1769878576,
      1769878599
    ],
    "wof:geomhash": "6b483d65f4db1619978f5d41703419bd",
    "wof:id": 2014686089,
    "wof:repo": "sfomuseum-data-flights-2026-01"
  },
  "bbox": [
    -122.36714,
    37.62736,
    -121.2739,
    38.11382
  ],
  "geometry": {"coordinates":[[-122.36714,37.62736],[-122.35688,37.63887],[-122.32053,37.65947],[-122.29777,37.67199],[-122.26918,37.68874],[-122.22347,37.71331],[-122.20676,37.72208],[-122.14618,37.75315],[-122.0963,37.77901],[-122.07535,37.78973],[-122.01102,37.82281],[-121.97303,37.83922],[-121.88108,37.8755],[-121.84786,37.88862],[-121.7699,37.91937],[-121.70899,37.94338],[-121.66068,37.96247],[-121.57367,37.9968],[-121.50174,38.02505],[-121.44557,38.0469],[-121.42627,38.05448],[-121.32691,38.09315],[-121.2739,38.11382]],"type":"LineString"}
}
