{
  "id": 2014682825,
  "type": "Feature",
  "properties": {
    "geom:area": 0,
    "geom:bbox": "-122.757370,37.427100,-122.164460,38.456830",
    "geom:latitude": 37.851693571881775,
    "geom:longitude": -122.49525501959843,
    "src:alt_label": "swim-approach",
    "src:geom": "swim",
    "swim:elevations": [
      7986,
      7743,
      7337,
      7109,
      6851,
      6712,
      6445,
      6083,
      5771,
      5452,
      4980,
      4355,
      3941,
      3700,
      3604,
      3422,
      3360,
      3353,
      3353,
      3353,
      3262,
      3121,
      2769,
      2474,
      1799,
      1495,
      1338,
      1180,
      1030,
      918,
      914,
      699,
      610,
      417,
      332,
      206,
      24
    ],
    "swim:geom": "approach",
    "swim:timestamps": [
      1769876255,
      1769876282,
      1769876330,
      1769876362,
      1769876392,
      1769876408,
      1769876441,
      1769876478,
      1769876510,
      1769876543,
      1769876591,
      1769876654,
      1769876697,
      1769876723,
      1769876733,
      1769876763,
      1769876817,
      1769876841,
      1769876866,
      1769876892,
      1769876933,
      1769876956,
      1769876987,
      1769877012,
      1769877074,
      1769877114,
      1769877139,
      1769877170,
      1769877194,
      1769877227,
      1769877250,
      1769877298,
      1769877310,
      1769877330,
      1769877367,
      1769877402,
      1769877444
    ],
    "wof:geomhash": "e8d31eeaf52d241b922048e378969ea2",
    "wof:id": 2014682825,
    "wof:repo": "sfomuseum-data-flights-2026-01"
  },
  "bbox": [
    -122.75737,
    37.4271,
    -122.16446,
    38.45683
  ],
  "geometry": {"coordinates":[[-122.52944,38.45683],[-122.56587,38.42135],[-122.62726,38.36123],[-122.66665,38.32276],[-122.70492,38.28566],[-122.72546,38.26567],[-122.75737,38.22062],[-122.75048,38.16283],[-122.73603,38.11472],[-122.72103,38.06558],[-122.69982,37.99284],[-122.66836,37.89888],[-122.61585,37.84467],[-122.58265,37.8137],[-122.56951,37.80149],[-122.53126,37.7656],[-122.47062,37.70848],[-122.44513,37.68449],[-122.42079,37.66152],[-122.39607,37.6381],[-122.35962,37.60075],[-122.34867,37.57704],[-122.33107,37.5446],[-122.31596,37.51968],[-122.27623,37.45956],[-122.24329,37.4271],[-122.21077,37.42938],[-122.18378,37.45617],[-122.17021,37.48189],[-122.16446,37.5175],[-122.18157,37.53832],[-122.23843,37.56103],[-122.25039,37.56587],[-122.26874,37.5738],[-122.30106,37.58751],[-122.32731,37.59852],[-122.35719,37.61112]],"type":"LineString"}
}
