{
  "id": 2014685987,
  "type": "Feature",
  "properties": {
    "geom:area": 0,
    "geom:bbox": "-122.524580,37.626500,-121.269310,37.972430",
    "geom:latitude": 37.86437463201515,
    "geom:longitude": -121.99649142763383,
    "src:alt_label": "swim-takeoff",
    "src:geom": "swim",
    "swim:elevations": [
      152,
      213,
      755,
      915,
      975,
      1045,
      1165,
      1642,
      2083,
      2540,
      2865,
      3025,
      3089,
      3208,
      3359,
      3813,
      4107,
      4237,
      4466,
      4625,
      4820,
      5372,
      5519,
      5687,
      5752,
      5815,
      5974,
      6191,
      6318,
      6522,
      6872,
      7050,
      7152,
      7226
    ],
    "swim:geom": "takeoff",
    "swim:timestamps": [
      1769849274,
      1769849280,
      1769849331,
      1769849352,
      1769849376,
      1769849388,
      1769849402,
      1769849444,
      1769849480,
      1769849513,
      1769849541,
      1769849556,
      1769849563,
      1769849585,
      1769849612,
      1769849660,
      1769849690,
      1769849704,
      1769849728,
      1769849744,
      1769849760,
      1769849817,
      1769849843,
      1769849865,
      1769849871,
      1769849880,
      1769849903,
      1769849937,
      1769849955,
      1769849978,
      1769850015,
      1769850038,
      1769850053,
      1769850064
    ],
    "wof:geomhash": "ba68d7649b1f820ad2c1e3dfa7021e07",
    "wof:id": 2014685987,
    "wof:repo": "sfomuseum-data-flights-2026-01"
  },
  "bbox": [
    -122.52458,
    37.6265,
    -121.26931,
    37.97243
  ],
  "geometry": {"coordinates":[[-122.3935,37.6265],[-122.39914,37.62889],[-122.45277,37.65174],[-122.47558,37.66127],[-122.50399,37.67423],[-122.51615,37.68476],[-122.52363,37.69952],[-122.52458,37.7525],[-122.51914,37.7994],[-122.47862,37.8276],[-122.43142,37.83572],[-122.40577,37.83844],[-122.39356,37.83976],[-122.35437,37.84427],[-122.30276,37.85106],[-122.20378,37.86246],[-122.13985,37.87048],[-122.10916,37.87435],[-122.05698,37.88068],[-122.02188,37.88492],[-121.98523,37.88926],[-121.85807,37.90433],[-121.80074,37.91109],[-121.74919,37.91712],[-121.73534,37.91878],[-121.71573,37.92107],[-121.66162,37.92744],[-121.58067,37.93674],[-121.53661,37.94187],[-121.47903,37.94852],[-121.38893,37.95886],[-121.33428,37.96506],[-121.29766,37.96925],[-121.26931,37.97243]],"type":"LineString"}
}
