{
  "id": 2014683725,
  "type": "Feature",
  "properties": {
    "geom:area": 0,
    "geom:bbox": "-122.447500,36.746460,-121.244890,37.707690",
    "geom:latitude": 37.237232826926174,
    "geom:longitude": -121.91616067278123,
    "src:alt_label": "swim-takeoff",
    "src:geom": "swim",
    "swim:elevations": [
      402,
      552,
      763,
      835,
      1366,
      1744,
      2016,
      2908,
      3208,
      3404,
      3453,
      3923,
      4239,
      4837,
      4911,
      5560,
      5716,
      6021,
      6244,
      6555,
      6718,
      7026,
      7285,
      7643,
      7934,
      8018,
      8150,
      8389,
      8493,
      8552,
      8779,
      8944,
      9079,
      9140,
      9323
    ],
    "swim:geom": "takeoff",
    "swim:timestamps": [
      1769899916,
      1769899944,
      1769899974,
      1769899986,
      1769900025,
      1769900052,
      1769900070,
      1769900123,
      1769900155,
      1769900188,
      1769900194,
      1769900233,
      1769900259,
      1769900304,
      1769900310,
      1769900362,
      1769900374,
      1769900401,
      1769900423,
      1769900459,
      1769900476,
      1769900509,
      1769900536,
      1769900573,
      1769900606,
      1769900615,
      1769900630,
      1769900666,
      1769900686,
      1769900701,
      1769900750,
      1769900784,
      1769900805,
      1769900814,
      1769900841
    ],
    "wof:geomhash": "bb2ed3ffb89ce28478fae67d76b9627c",
    "wof:id": 2014683725,
    "wof:repo": "sfomuseum-data-flights-2026-01"
  },
  "bbox": [
    -122.4475,
    36.74646,
    -121.24489,
    37.70769
  ],
  "geometry": {"coordinates":[[-122.36169,37.64434],[-122.36235,37.66787],[-122.3694,37.69921],[-122.38276,37.70769],[-122.43449,37.69552],[-122.445,37.66334],[-122.4475,37.64094],[-122.41893,37.58384],[-122.38107,37.55627],[-122.33713,37.52418],[-122.32862,37.51795],[-122.27303,37.47757],[-122.23435,37.44932],[-122.16715,37.40024],[-122.1579,37.39376],[-122.07743,37.33808],[-122.0588,37.32506],[-122.01669,37.29538],[-121.98081,37.27002],[-121.92341,37.22954],[-121.89408,37.20891],[-121.83987,37.17068],[-121.79379,37.13802],[-121.7305,37.09318],[-121.67469,37.05336],[-121.65922,37.04261],[-121.63316,37.02429],[-121.57087,36.97968],[-121.536,36.95514],[-121.50945,36.93623],[-121.41872,36.87167],[-121.35418,36.82468],[-121.31416,36.79606],[-121.29694,36.7836],[-121.24489,36.74646]],"type":"LineString"}
}
