{
  "id": 2014682507,
  "type": "Feature",
  "properties": {
    "geom:area": 0,
    "geom:bbox": "-122.307270,37.491440,-121.256680,37.596720",
    "geom:latitude": 37.543579554994466,
    "geom:longitude": -121.78625260250007,
    "src:alt_label": "swim-approach",
    "src:geom": "swim",
    "swim:elevations": [
      4638,
      4298,
      4024,
      3861,
      3639,
      3315,
      3162,
      3081,
      3078,
      2888,
      2727,
      2628,
      2366,
      2173,
      2070,
      1918,
      1830,
      1829,
      1691,
      1525,
      1442,
      1324,
      1019,
      852,
      699,
      487,
      427,
      386,
      276
    ],
    "swim:geom": "approach",
    "swim:timestamps": [
      1769869545,
      1769869581,
      1769869613,
      1769869630,
      1769869655,
      1769869692,
      1769869713,
      1769869746,
      1769869754,
      1769869794,
      1769869817,
      1769869832,
      1769869881,
      1769869912,
      1769869932,
      1769869966,
      1769870000,
      1769870016,
      1769870046,
      1769870072,
      1769870092,
      1769870117,
      1769870156,
      1769870177,
      1769870197,
      1769870233,
      1769870248,
      1769870254,
      1769870284
    ],
    "wof:geomhash": "06839b938bfae8496df6be3789a44491",
    "wof:id": 2014682507,
    "wof:repo": "sfomuseum-data-flights-2026-01"
  },
  "bbox": [
    -122.30727,
    37.49144,
    -121.25668,
    37.59672
  ],
  "geometry": {"coordinates":[[-121.25668,37.59383],[-121.32669,37.58547],[-121.38656,37.57864],[-121.41855,37.57468],[-121.4643,37.56938],[-121.53121,37.56163],[-121.56816,37.55733],[-121.62385,37.55081],[-121.63625,37.54814],[-121.69527,37.53393],[-121.73047,37.52554],[-121.75305,37.52013],[-121.82681,37.50248],[-121.87104,37.49244],[-121.90001,37.49144],[-121.95213,37.49286],[-122.00076,37.49883],[-122.02256,37.50594],[-122.06188,37.51861],[-122.0943,37.52919],[-122.11893,37.53721],[-122.14763,37.5466],[-122.18897,37.55982],[-122.21099,37.56692],[-122.23052,37.57313],[-122.2649,37.58413],[-122.27735,37.58763],[-122.28276,37.58911],[-122.30727,37.59672]],"type":"LineString"}
}
