{
  "id": 2014682681,
  "type": "Feature",
  "properties": {
    "geom:area": 0,
    "geom:bbox": "-122.351150,37.492130,-121.265190,37.610990",
    "geom:latitude": 37.54561992438873,
    "geom:longitude": -121.8128648774902,
    "src:alt_label": "swim-approach",
    "src:geom": "swim",
    "swim:elevations": [
      4635,
      4422,
      4082,
      3964,
      3638,
      3447,
      3174,
      2970,
      2776,
      2672,
      2558,
      2498,
      2300,
      2175,
      1920,
      1826,
      1829,
      1529,
      1359,
      1147,
      894,
      753,
      501,
      488,
      387,
      272,
      66,
      59
    ],
    "swim:geom": "approach",
    "swim:timestamps": [
      1769860945,
      1769860967,
      1769861004,
      1769861016,
      1769861053,
      1769861073,
      1769861117,
      1769861157,
      1769861184,
      1769861200,
      1769861217,
      1769861227,
      1769861277,
      1769861299,
      1769861336,
      1769861366,
      1769861375,
      1769861421,
      1769861447,
      1769861480,
      1769861517,
      1769861541,
      1769861578,
      1769861601,
      1769861625,
      1769861648,
      1769861697,
      1769861701
    ],
    "wof:geomhash": "a649f09f5207d387ef0a803802ca9c8e",
    "wof:id": 2014682681,
    "wof:repo": "sfomuseum-data-flights-2026-01"
  },
  "bbox": [
    -122.35115,
    37.49213,
    -121.26519,
    37.61099
  ],
  "geometry": {"coordinates":[[-121.26519,37.59244],[-121.30934,37.58725],[-121.37988,37.57951],[-121.40217,37.57688],[-121.46928,37.56892],[-121.50632,37.56466],[-121.58553,37.5553],[-121.65222,37.5441],[-121.69603,37.53369],[-121.72107,37.52792],[-121.7485,37.52136],[-121.76386,37.51767],[-121.83671,37.50001],[-121.86788,37.49299],[-121.92319,37.49213],[-121.96679,37.49325],[-121.98014,37.49396],[-122.04404,37.51261],[-122.07797,37.5238],[-122.12214,37.5382],[-122.16958,37.55352],[-122.19924,37.56326],[-122.2419,37.57673],[-122.2652,37.58424],[-122.28698,37.59057],[-122.30774,37.59673],[-122.34812,37.60974],[-122.35115,37.61099]],"type":"LineString"}
}
