{
  "id": 2014682827,
  "type": "Feature",
  "properties": {
    "geom:area": 0,
    "geom:bbox": "-123.498620,36.965590,-122.161570,37.611480",
    "geom:latitude": 37.28010131784626,
    "geom:longitude": -122.74415231004147,
    "src:alt_label": "swim-approach",
    "src:geom": "swim",
    "swim:elevations": [
      5489,
      5259,
      5106,
      4835,
      4540,
      4432,
      4055,
      3716,
      3362,
      3292,
      3217,
      3175,
      3047,
      3048,
      3048,
      3048,
      3048,
      3048,
      3048,
      2973,
      2687,
      2619,
      2345,
      2275,
      2163,
      2105,
      2005,
      1550,
      1438,
      1287,
      1136,
      871,
      729,
      548,
      549,
      453,
      292,
      265,
      187,
      83,
      57
    ],
    "swim:geom": "approach",
    "swim:timestamps": [
      1769927390,
      1769927415,
      1769927430,
      1769927454,
      1769927485,
      1769927493,
      1769927532,
      1769927566,
      1769927604,
      1769927621,
      1769927648,
      1769927671,
      1769927719,
      1769927751,
      1769927772,
      1769927817,
      1769927845,
      1769927865,
      1769927881,
      1769927914,
      1769927963,
      1769927973,
      1769928021,
      1769928036,
      1769928058,
      1769928076,
      1769928093,
      1769928144,
      1769928159,
      1769928201,
      1769928224,
      1769928260,
      1769928275,
      1769928322,
      1769928340,
      1769928379,
      1769928418,
      1769928425,
      1769928447,
      1769928474,
      1769928481
    ],
    "wof:geomhash": "a01ed7e7b3140cfdf39cc6e17aed51ef",
    "wof:id": 2014682827,
    "wof:repo": "sfomuseum-data-flights-2026-01"
  },
  "bbox": [
    -123.49862,
    36.96559,
    -122.16157,
    37.61148
  ],
  "geometry": {"coordinates":[[-123.49862,36.96559],[-123.44459,36.99054],[-123.41241,37.00509],[-123.36166,37.02871],[-123.29743,37.05857],[-123.27939,37.06689],[-123.20038,37.1031],[-123.13225,37.13454],[-123.05882,37.16834],[-123.0263,37.18321],[-122.97782,37.20543],[-122.93793,37.22363],[-122.86087,37.25689],[-122.80993,37.27002],[-122.7757,37.27818],[-122.70214,37.2952],[-122.65529,37.30617],[-122.62306,37.31369],[-122.59714,37.3197],[-122.54243,37.33239],[-122.46188,37.35092],[-122.44543,37.3547],[-122.36674,37.37291],[-122.34293,37.37841],[-122.30889,37.38625],[-122.28215,37.39236],[-122.25808,37.3978],[-122.20449,37.43242],[-122.19052,37.44361],[-122.16157,37.47666],[-122.16346,37.49614],[-122.17871,37.52363],[-122.18643,37.53442],[-122.22601,37.55819],[-122.24318,37.56529],[-122.27799,37.58016],[-122.30692,37.5924],[-122.31244,37.59468],[-122.32782,37.60133],[-122.34737,37.60943],[-122.35228,37.61148]],"type":"LineString"}
}
