{
  "id": 2014681251,
  "type": "Feature",
  "properties": {
    "geom:area": 0,
    "geom:bbox": "-122.759160,37.455200,-122.158230,38.501310",
    "geom:latitude": 37.88637802713066,
    "geom:longitude": -122.50102884769274,
    "src:alt_label": "swim-approach",
    "src:geom": "swim",
    "swim:elevations": [
      8197,
      8075,
      7728,
      7466,
      7150,
      6870,
      6795,
      6612,
      6530,
      6215,
      6017,
      5534,
      5469,
      5218,
      4976,
      4740,
      4595,
      4337,
      4198,
      3818,
      3627,
      3353,
      3353,
      3353,
      3353,
      3281,
      3240,
      2989,
      2679,
      2569,
      2393,
      2040,
      1795,
      1695,
      1499,
      1399,
      1203,
      1054,
      835,
      578,
      425,
      260,
      210,
      58
    ],
    "swim:geom": "approach",
    "swim:timestamps": [
      1769847928,
      1769847942,
      1769847980,
      1769848008,
      1769848042,
      1769848074,
      1769848083,
      1769848104,
      1769848114,
      1769848152,
      1769848175,
      1769848226,
      1769848232,
      1769848262,
      1769848290,
      1769848317,
      1769848334,
      1769848366,
      1769848382,
      1769848427,
      1769848454,
      1769848493,
      1769848521,
      1769848551,
      1769848563,
      1769848616,
      1769848623,
      1769848659,
      1769848703,
      1769848720,
      1769848740,
      1769848783,
      1769848816,
      1769848831,
      1769848853,
      1769848871,
      1769848913,
      1769848938,
      1769848967,
      1769848999,
      1769849023,
      1769849063,
      1769849075,
      1769849117
    ],
    "wof:geomhash": "092a28ff1ff396ba2d16077de07dc2cd",
    "wof:id": 2014681251,
    "wof:repo": "sfomuseum-data-flights-2026-01"
  },
  "bbox": [
    -122.75916,
    37.4552,
    -122.15823,
    38.50131
  ],
  "geometry": {"coordinates":[[-122.48301,38.50131],[-122.50267,38.48273],[-122.55475,38.43217],[-122.59332,38.39421],[-122.63917,38.34964],[-122.68056,38.30939],[-122.69171,38.29846],[-122.71919,38.27168],[-122.73217,38.25897],[-122.75916,38.20507],[-122.75154,38.16884],[-122.72756,38.0864],[-122.72468,38.07668],[-122.71048,38.02825],[-122.69745,37.9833],[-122.68536,37.94159],[-122.67749,37.91618],[-122.64511,37.873],[-122.62644,37.85511],[-122.57211,37.80394],[-122.54101,37.7747],[-122.49754,37.73364],[-122.46769,37.70551],[-122.43412,37.67407],[-122.42173,37.66247],[-122.37156,37.61509],[-122.36599,37.60901],[-122.34428,37.57206],[-122.31895,37.52855],[-122.30952,37.51296],[-122.29791,37.49399],[-122.24864,37.47017],[-122.20749,37.45673],[-122.18797,37.4552],[-122.16732,37.47075],[-122.15823,37.48738],[-122.17705,37.52524],[-122.19692,37.54197],[-122.22447,37.5555],[-122.25784,37.56951],[-122.28022,37.57874],[-122.31232,37.59241],[-122.32033,37.59571],[-122.35004,37.60824]],"type":"LineString"}
}
