{
  "id": 2014682743,
  "type": "Feature",
  "properties": {
    "geom:area": 0,
    "geom:bbox": "-122.358690,36.719170,-121.875840,37.611700",
    "geom:latitude": 37.20699824936713,
    "geom:longitude": -122.06881089645485,
    "src:alt_label": "swim-approach",
    "src:geom": "swim",
    "swim:elevations": [
      4735,
      4524,
      3685,
      3473,
      3106,
      2753,
      2634,
      2469,
      2438,
      2438,
      2411,
      2179,
      2062,
      1810,
      1765,
      1566,
      1436,
      1124,
      945,
      824,
      691,
      455,
      310,
      222,
      121,
      0
    ],
    "swim:geom": "approach",
    "swim:timestamps": [
      1769875310,
      1769875332,
      1769875427,
      1769875461,
      1769875509,
      1769875556,
      1769875576,
      1769875604,
      1769875637,
      1769875658,
      1769875703,
      1769875736,
      1769875753,
      1769875794,
      1769875813,
      1769875858,
      1769875872,
      1769875916,
      1769875943,
      1769875970,
      1769875998,
      1769876031,
      1769876054,
      1769876076,
      1769876106,
      1769876130
    ],
    "wof:geomhash": "d7f8af74524b47b3047ee7b50dd1af3d",
    "wof:id": 2014682743,
    "wof:repo": "sfomuseum-data-flights-2026-01"
  },
  "bbox": [
    -122.35869,
    36.71917,
    -121.87584,
    37.6117
  ],
  "geometry": {"coordinates":[[-121.87584,36.71917],[-121.89612,36.75339],[-121.9405,36.90917],[-121.95601,36.96097],[-121.98373,37.03159],[-122.0091,37.09659],[-122.01973,37.12379],[-122.0339,37.16021],[-122.05132,37.2047],[-122.06216,37.23228],[-122.08501,37.29058],[-122.10199,37.33309],[-122.11036,37.35445],[-122.12899,37.4059],[-122.13672,37.42859],[-122.15654,37.47751],[-122.1657,37.49216],[-122.19537,37.53419],[-122.21767,37.55206],[-122.24244,37.56313],[-122.26429,37.57215],[-122.28893,37.58239],[-122.305,37.58909],[-122.3211,37.59618],[-122.34231,37.60488],[-122.35869,37.6117]],"type":"LineString"}
}
