{
  "id": 2014681181,
  "type": "Feature",
  "properties": {
    "geom:area": 0,
    "geom:bbox": "-122.359190,36.730190,-121.883470,37.612080",
    "geom:latitude": 37.21211887920855,
    "geom:longitude": -122.07182325209325,
    "src:alt_label": "swim-approach",
    "src:geom": "swim",
    "swim:elevations": [
      4890,
      4749,
      4413,
      4216,
      4033,
      3739,
      3621,
      3278,
      3136,
      3032,
      2766,
      2686,
      2541,
      2366,
      2145,
      1961,
      1871,
      1674,
      1586,
      1462,
      1115,
      893,
      676,
      525,
      358,
      192,
      55,
      0
    ],
    "swim:geom": "approach",
    "swim:timestamps": [
      1769869315,
      1769869330,
      1769869369,
      1769869394,
      1769869420,
      1769869453,
      1769869470,
      1769869513,
      1769869545,
      1769869574,
      1769869617,
      1769869630,
      1769869655,
      1769869692,
      1769869721,
      1769869746,
      1769869754,
      1769869794,
      1769869809,
      1769869832,
      1769869876,
      1769869901,
      1769869932,
      1769869962,
      1769869997,
      1769870033,
      1769870066,
      1769870078
    ],
    "wof:geomhash": "049907010f70449253ce132eb52f008f",
    "wof:id": 2014681181,
    "wof:repo": "sfomuseum-data-flights-2026-01"
  },
  "bbox": [
    -122.35919,
    36.73019,
    -121.88347,
    37.61208
  ],
  "geometry": {"coordinates":[[-121.88347,36.73019],[-121.89606,36.75463],[-121.91574,36.81989],[-121.92734,36.86069],[-121.93877,36.90105],[-121.95424,36.95461],[-121.96477,36.98172],[-121.9902,37.04717],[-122.00863,37.09371],[-122.02477,37.13557],[-122.04722,37.19282],[-122.05388,37.20981],[-122.0663,37.24173],[-122.08432,37.28792],[-122.09889,37.32445],[-122.11102,37.35538],[-122.11514,37.36575],[-122.13296,37.41615],[-122.13904,37.434],[-122.14912,37.46161],[-122.18309,37.50827],[-122.20517,37.53239],[-122.23139,37.5582],[-122.26362,37.57095],[-122.29394,37.58425],[-122.32398,37.5972],[-122.35028,37.60821],[-122.35919,37.61208]],"type":"LineString"}
}
