{
  "id": 2014679629,
  "type": "Feature",
  "properties": {
    "geom:area": 0,
    "geom:bbox": "-122.363710,37.491760,-121.254350,37.615880",
    "geom:latitude": 37.54671252664125,
    "geom:longitude": -121.81393005253504,
    "src:alt_label": "swim-approach",
    "src:geom": "swim",
    "swim:elevations": [
      4633,
      4330,
      4175,
      3935,
      3548,
      3464,
      3283,
      3169,
      3088,
      2788,
      2602,
      2467,
      2436,
      2320,
      2164,
      2056,
      2016,
      1867,
      1766,
      1608,
      1424,
      1066,
      814,
      741,
      577,
      554,
      544,
      515,
      364,
      210,
      90,
      0
    ],
    "swim:geom": "approach",
    "swim:timestamps": [
      1769887825,
      1769887858,
      1769887873,
      1769887901,
      1769887942,
      1769887951,
      1769887976,
      1769888003,
      1769888028,
      1769888064,
      1769888086,
      1769888125,
      1769888140,
      1769888155,
      1769888185,
      1769888218,
      1769888224,
      1769888254,
      1769888304,
      1769888323,
      1769888344,
      1769888383,
      1769888428,
      1769888452,
      1769888482,
      1769888502,
      1769888522,
      1769888531,
      1769888573,
      1769888607,
      1769888637,
      1769888665
    ],
    "wof:geomhash": "ae994cb9284e6582e7be1ea925d224e3",
    "wof:id": 2014679629,
    "wof:repo": "sfomuseum-data-flights-2026-01"
  },
  "bbox": [
    -122.36371,
    37.49176,
    -121.25435,
    37.61588
  ],
  "geometry": {"coordinates":[[-121.25435,37.5938],[-121.3184,37.58598],[-121.34819,37.58272],[-121.40142,37.57658],[-121.47806,37.56778],[-121.49475,37.56579],[-121.53921,37.55849],[-121.58853,37.55482],[-121.63012,37.5491],[-121.68821,37.5353],[-121.72247,37.52717],[-121.78232,37.51289],[-121.80406,37.50767],[-121.82592,37.50236],[-121.86967,37.49216],[-121.91613,37.49176],[-121.92423,37.492],[-121.96218,37.49292],[-122.02191,37.50539],[-122.04496,37.51289],[-122.06817,37.52065],[-122.10978,37.53402],[-122.15744,37.54934],[-122.18269,37.5576],[-122.21371,37.56782],[-122.23302,37.57405],[-122.25065,37.57981],[-122.25778,37.58216],[-122.29207,37.59218],[-122.31938,37.60037],[-122.34311,37.60761],[-122.36371,37.61588]],"type":"LineString"}
}
