{
  "id": 2014684735,
  "type": "Feature",
  "properties": {
    "geom:area": 0,
    "geom:bbox": "-122.358250,37.639790,-121.254720,38.120950",
    "geom:latitude": 37.894321093552406,
    "geom:longitude": -121.8128988449171,
    "src:alt_label": "swim-takeoff",
    "src:geom": "swim",
    "swim:elevations": [
      395,
      578,
      643,
      892,
      1089,
      1689,
      2456,
      2734,
      3170,
      3356,
      3743,
      4018,
      4531,
      4800,
      5215,
      5547,
      6026,
      6072,
      6531,
      6834,
      6876,
      7170,
      7531
    ],
    "swim:geom": "takeoff",
    "swim:timestamps": [
      1769851431,
      1769851454,
      1769851466,
      1769851488,
      1769851505,
      1769851542,
      1769851586,
      1769851604,
      1769851632,
      1769851655,
      1769851708,
      1769851728,
      1769851768,
      1769851786,
      1769851811,
      1769851844,
      1769851885,
      1769851893,
      1769851937,
      1769851959,
      1769851964,
      1769851991,
      1769852024
    ],
    "wof:geomhash": "a64c253539e10fb69bdd6424b258beff",
    "wof:id": 2014684735,
    "wof:repo": "sfomuseum-data-flights-2026-01"
  },
  "bbox": [
    -122.35825,
    37.63979,
    -121.25472,
    38.12095
  ],
  "geometry": {"coordinates":[[-122.35825,37.63979],[-122.34125,37.65048],[-122.32938,37.65664],[-122.30571,37.66922],[-122.28629,37.67969],[-122.23936,37.70494],[-122.17854,37.73603],[-122.1544,37.74861],[-122.11336,37.76959],[-122.07914,37.78732],[-121.98426,37.8341],[-121.94177,37.85132],[-121.85698,37.88414],[-121.81607,37.90043],[-121.76137,37.92238],[-121.68764,37.95161],[-121.59254,37.98907],[-121.57494,37.99592],[-121.46941,38.0373],[-121.41375,38.05908],[-121.40381,38.06295],[-121.33651,38.08917],[-121.25472,38.12095]],"type":"LineString"}
}
