{
  "id": 2014686377,
  "type": "Feature",
  "properties": {
    "geom:area": 0,
    "geom:bbox": "-123.288460,37.626140,-122.392670,38.518770",
    "geom:latitude": 38.02184559616995,
    "geom:longitude": -122.88596917079997,
    "src:alt_label": "swim-takeoff",
    "src:geom": "swim",
    "swim:elevations": [
      122,
      630,
      836,
      885,
      1222,
      1255,
      1690,
      1967,
      2399,
      2591,
      2872,
      3198,
      3289,
      3510,
      3762,
      4003,
      4266,
      4534,
      4576,
      4989,
      5283,
      5481,
      5701,
      5736,
      6088
    ],
    "swim:geom": "takeoff",
    "swim:timestamps": [
      1769860536,
      1769860583,
      1769860615,
      1769860625,
      1769860676,
      1769860680,
      1769860734,
      1769860758,
      1769860797,
      1769860816,
      1769860837,
      1769860884,
      1769860918,
      1769860945,
      1769860976,
      1769861004,
      1769861032,
      1769861061,
      1769861073,
      1769861117,
      1769861154,
      1769861188,
      1769861217,
      1769861222,
      1769861277
    ],
    "wof:geomhash": "e99eeff9997e719522551ca6936c4c37",
    "wof:id": 2014686377,
    "wof:repo": "sfomuseum-data-flights-2026-01"
  },
  "bbox": [
    -123.28846,
    37.62614,
    -122.39267,
    38.51877
  ],
  "geometry": {"coordinates":[[-122.39267,37.62614],[-122.43987,37.64695],[-122.47325,37.66151],[-122.48539,37.6668],[-122.54302,37.69808],[-122.5478,37.70089],[-122.61739,37.742],[-122.65053,37.7613],[-122.70313,37.79207],[-122.72978,37.80771],[-122.75761,37.82712],[-122.80472,37.8817],[-122.84189,37.92583],[-122.87417,37.96508],[-122.91208,38.01073],[-122.94752,38.05347],[-122.98284,38.09584],[-123.02146,38.14169],[-123.03712,38.1604],[-123.09718,38.23202],[-123.14383,38.29461],[-123.18423,38.35619],[-123.2181,38.40857],[-123.22418,38.41785],[-123.28846,38.51877]],"type":"LineString"}
}
