{
  "id": 2014686053,
  "type": "Feature",
  "properties": {
    "geom:area": 0,
    "geom:bbox": "-122.441590,36.727000,-121.259190,37.707060",
    "geom:latitude": 37.233174035089235,
    "geom:longitude": -121.91498864726094,
    "src:alt_label": "swim-takeoff",
    "src:geom": "swim",
    "swim:elevations": [
      274,
      641,
      1076,
      1239,
      1419,
      1866,
      2484,
      3195,
      3318,
      3355,
      3779,
      4120,
      4756,
      4896,
      5323,
      5782,
      6011,
      6303,
      6731,
      7145,
      7440,
      7642,
      7757,
      8168,
      8301,
      8603,
      8824,
      8995,
      9061,
      9391,
      9447,
      9449,
      9449,
      9449
    ],
    "swim:geom": "takeoff",
    "swim:timestamps": [
      1769847861,
      1769847893,
      1769847928,
      1769847950,
      1769847971,
      1769848001,
      1769848035,
      1769848074,
      1769848083,
      1769848087,
      1769848130,
      1769848152,
      1769848198,
      1769848207,
      1769848238,
      1769848275,
      1769848290,
      1769848311,
      1769848343,
      1769848378,
      1769848407,
      1769848430,
      1769848442,
      1769848493,
      1769848511,
      1769848554,
      1769848588,
      1769848613,
      1769848623,
      1769848656,
      1769848673,
      1769848702,
      1769848729,
      1769848747
    ],
    "wof:geomhash": "e618e79e5f0c7ac48d0a00401e8dabb1",
    "wof:id": 2014686053,
    "wof:repo": "sfomuseum-data-flights-2026-01"
  },
  "bbox": [
    -122.44159,
    36.727,
    -121.25919,
    37.70706
  ],
  "geometry": {"coordinates":[[-122.36492,37.63575],[-122.36358,37.65976],[-122.36269,37.68705],[-122.37689,37.70388],[-122.40505,37.70706],[-122.43347,37.67964],[-122.44159,37.63695],[-122.41519,37.59388],[-122.40428,37.58615],[-122.39916,37.58262],[-122.33824,37.53913],[-122.30537,37.5148],[-122.23511,37.46332],[-122.21988,37.45196],[-122.17129,37.41571],[-122.11134,37.37089],[-122.08615,37.35218],[-122.05182,37.32657],[-121.9995,37.2873],[-121.94091,37.24334],[-121.89299,37.20741],[-121.85395,37.17817],[-121.83213,37.16191],[-121.74023,37.09243],[-121.70879,37.0691],[-121.62802,37.00795],[-121.5641,36.95902],[-121.5149,36.92232],[-121.496,36.90826],[-121.43104,36.85889],[-121.39903,36.83392],[-121.34496,36.79354],[-121.29404,36.75388],[-121.25919,36.727]],"type":"LineString"}
}
