{
  "id": 2014684733,
  "type": "Feature",
  "properties": {
    "geom:area": 0,
    "geom:bbox": "-122.367690,37.626360,-121.254580,37.963840",
    "geom:latitude": 37.83671537807784,
    "geom:longitude": -121.82630449634098,
    "src:alt_label": "swim-takeoff",
    "src:geom": "swim",
    "swim:elevations": [
      183,
      568,
      773,
      1104,
      1630,
      2003,
      2360,
      2700,
      3193,
      3413,
      3745,
      4099,
      4156,
      4572,
      4965,
      5305,
      5478,
      5809,
      6024,
      6226,
      6511,
      6640
    ],
    "swim:geom": "takeoff",
    "swim:timestamps": [
      1769867916,
      1769867950,
      1769867972,
      1769868008,
      1769868055,
      1769868079,
      1769868104,
      1769868129,
      1769868169,
      1769868196,
      1769868237,
      1769868265,
      1769868274,
      1769868310,
      1769868340,
      1769868373,
      1769868394,
      1769868428,
      1769868463,
      1769868489,
      1769868526,
      1769868546
    ],
    "wof:geomhash": "66186d83a205bda2ab7f3d0b6ad7a0f7",
    "wof:id": 2014684733,
    "wof:repo": "sfomuseum-data-flights-2026-01"
  },
  "bbox": [
    -122.36769,
    37.62636,
    -121.25458,
    37.96384
  ],
  "geometry": {"coordinates":[[-122.36769,37.62636],[-122.34675,37.64333],[-122.3287,37.65416],[-122.2934,37.67477],[-122.2366,37.70583],[-122.20467,37.7227],[-122.17062,37.74048],[-122.13534,37.75835],[-122.07567,37.78914],[-122.03124,37.81201],[-121.95277,37.83551],[-121.89342,37.84624],[-121.8742,37.84973],[-121.79591,37.86453],[-121.73007,37.8774],[-121.65878,37.88979],[-121.61129,37.89879],[-121.5342,37.91302],[-121.45372,37.92776],[-121.39251,37.93892],[-121.30317,37.95508],[-121.25458,37.96384]],"type":"LineString"}
}
