{
  "id": 2014684723,
  "type": "Feature",
  "properties": {
    "geom:area": 0,
    "geom:bbox": "-122.467110,36.738420,-121.464180,37.706930",
    "geom:latitude": 37.2196503626539,
    "geom:longitude": -122.06024434237017,
    "src:alt_label": "swim-takeoff",
    "src:geom": "swim",
    "swim:elevations": [
      444,
      578,
      672,
      818,
      1032,
      1575,
      1818,
      2275,
      2555,
      3280,
      3402,
      3833,
      4050,
      4524,
      4801,
      5427,
      5807,
      6034,
      6491,
      6641,
      7090,
      7426,
      7511,
      7709,
      7974,
      8080,
      8415,
      8556,
      8672,
      8928,
      9114
    ],
    "swim:geom": "takeoff",
    "swim:timestamps": [
      1769864607,
      1769864629,
      1769864651,
      1769864675,
      1769864704,
      1769864750,
      1769864766,
      1769864801,
      1769864821,
      1769864866,
      1769864882,
      1769864928,
      1769864949,
      1769864989,
      1769865006,
      1769865052,
      1769865082,
      1769865102,
      1769865144,
      1769865161,
      1769865202,
      1769865235,
      1769865242,
      1769865265,
      1769865294,
      1769865310,
      1769865358,
      1769865381,
      1769865394,
      1769865422,
      1769865451
    ],
    "wof:geomhash": "baa227d28d67c6ce2cd902d6e2c6fee8",
    "wof:id": 2014684723,
    "wof:repo": "sfomuseum-data-flights-2026-01"
  },
  "bbox": [
    -122.46711,
    36.73842,
    -121.46418,
    37.70693
  ],
  "geometry": {"coordinates":[[-122.36203,37.6482],[-122.36186,37.66677],[-122.36259,37.68767],[-122.38353,37.70693],[-122.42456,37.70233],[-122.43751,37.65136],[-122.43857,37.6305],[-122.448,37.5879],[-122.45451,37.56225],[-122.46711,37.50546],[-122.46058,37.48446],[-122.39843,37.43381],[-122.36641,37.41065],[-122.30161,37.3629],[-122.2738,37.34223],[-122.19754,37.28633],[-122.1469,37.24906],[-122.11415,37.22449],[-122.04005,37.16929],[-122.00913,37.14636],[-121.93678,37.09258],[-121.8764,37.04748],[-121.8625,37.03707],[-121.82097,37.00593],[-121.76713,36.96557],[-121.73724,36.9439],[-121.64412,36.87506],[-121.60029,36.84213],[-121.57411,36.82245],[-121.52029,36.78189],[-121.46418,36.73842]],"type":"LineString"}
}
