{
  "id": 2014682309,
  "type": "Feature",
  "properties": {
    "geom:area": 0,
    "geom:bbox": "-122.347760,37.491900,-121.248560,37.609550",
    "geom:latitude": 37.546146230563835,
    "geom:longitude": -121.80282105266089,
    "src:alt_label": "swim-approach",
    "src:geom": "swim",
    "swim:elevations": [
      4566,
      4395,
      4161,
      3959,
      3760,
      3551,
      3485,
      3177,
      3139,
      3078,
      2928,
      2862,
      2564,
      2460,
      2294,
      2169,
      2012,
      1887,
      1858,
      1578,
      1436,
      1324,
      1066,
      955,
      760,
      630,
      575,
      452,
      376,
      311,
      187,
      133,
      69
    ],
    "swim:geom": "approach",
    "swim:timestamps": [
      1769887093,
      1769887114,
      1769887144,
      1769887171,
      1769887195,
      1769887224,
      1769887236,
      1769887283,
      1769887317,
      1769887333,
      1769887373,
      1769887384,
      1769887436,
      1769887467,
      1769887495,
      1769887525,
      1769887553,
      1769887588,
      1769887603,
      1769887640,
      1769887670,
      1769887682,
      1769887719,
      1769887750,
      1769887786,
      1769887825,
      1769887840,
      1769887879,
      1769887901,
      1769887924,
      1769887955,
      1769887971,
      1769887986
    ],
    "wof:geomhash": "6f854eebaf74343bc60e115f8687faac",
    "wof:id": 2014682309,
    "wof:repo": "sfomuseum-data-flights-2026-01"
  },
  "bbox": [
    -122.34776,
    37.4919,
    -121.24856,
    37.60955
  ],
  "geometry": {"coordinates":[[-121.24856,37.59461],[-121.28602,37.58989],[-121.33577,37.58447],[-121.37753,37.57958],[-121.41384,37.57541],[-121.45777,37.57025],[-121.47638,37.56803],[-121.54772,37.55976],[-121.59558,37.55417],[-121.61761,37.55133],[-121.67219,37.5394],[-121.68684,37.53593],[-121.75571,37.51945],[-121.79835,37.50931],[-121.83523,37.50041],[-121.87518,37.49217],[-121.91254,37.4919],[-121.95837,37.49309],[-121.97795,37.49401],[-122.02428,37.50651],[-122.05926,37.51789],[-122.07205,37.522],[-122.11135,37.53477],[-122.14273,37.54486],[-122.17891,37.5566],[-122.21358,37.5678],[-122.2272,37.57222],[-122.26146,37.58311],[-122.27953,37.58837],[-122.29816,37.59379],[-122.32344,37.60132],[-122.33633,37.60533],[-122.34776,37.60955]],"type":"LineString"}
}
