{
  "id": 2014685191,
  "type": "Feature",
  "properties": {
    "geom:area": 0,
    "geom:bbox": "-123.223190,37.629530,-122.362850,38.472310",
    "geom:latitude": 38.039405182175415,
    "geom:longitude": -122.78107546810978,
    "src:alt_label": "swim-takeoff",
    "src:geom": "swim",
    "swim:elevations": [
      152,
      608,
      794,
      1192,
      1328,
      1880,
      2273,
      3164,
      3257,
      3573,
      3652,
      4213,
      4315,
      4797,
      5047,
      5325,
      5701,
      6047,
      6171,
      6542,
      6917,
      7376,
      7468
    ],
    "swim:geom": "takeoff",
    "swim:timestamps": [
      1769865436,
      1769865466,
      1769865483,
      1769865528,
      1769865543,
      1769865580,
      1769865603,
      1769865657,
      1769865668,
      1769865713,
      1769865725,
      1769865777,
      1769865784,
      1769865825,
      1769865849,
      1769865873,
      1769865910,
      1769865947,
      1769865960,
      1769865997,
      1769866032,
      1769866072,
      1769866084
    ],
    "wof:geomhash": "90fac110a1e1990ae4d6a4a234bd181b",
    "wof:id": 2014685191,
    "wof:repo": "sfomuseum-data-flights-2026-01"
  },
  "bbox": [
    -123.22319,
    37.62953,
    -122.36285,
    38.47231
  ],
  "geometry": {"coordinates":[[-122.36564,37.62953],[-122.36285,37.65286],[-122.36558,37.66756],[-122.36317,37.71107],[-122.37464,37.72693],[-122.42691,37.74969],[-122.46176,37.7622],[-122.54415,37.79413],[-122.55802,37.80347],[-122.61845,37.85593],[-122.6347,37.87197],[-122.70993,37.94927],[-122.72041,37.96011],[-122.78315,38.02459],[-122.82024,38.06261],[-122.85867,38.10215],[-122.91982,38.16478],[-122.98168,38.22803],[-123.00341,38.25014],[-123.06791,38.31584],[-123.13,38.37859],[-123.20186,38.45033],[-123.22319,38.47231]],"type":"LineString"}
}
