{
  "id": 2014682545,
  "type": "Feature",
  "properties": {
    "geom:area": 0,
    "geom:bbox": "-122.360340,37.491850,-121.257020,37.614570",
    "geom:latitude": 37.54671724289048,
    "geom:longitude": -121.81355196351969,
    "src:alt_label": "swim-approach",
    "src:geom": "swim",
    "swim:elevations": [
      4829,
      4462,
      4284,
      3900,
      3815,
      3412,
      3281,
      3052,
      2816,
      2615,
      2557,
      2399,
      2317,
      2027,
      1949,
      1829,
      1747,
      1524,
      1509,
      1249,
      1189,
      1054,
      959,
      576,
      427,
      266,
      185,
      91,
      38
    ],
    "swim:geom": "approach",
    "swim:timestamps": [
      1769859022,
      1769859056,
      1769859076,
      1769859116,
      1769859124,
      1769859167,
      1769859185,
      1769859234,
      1769859266,
      1769859296,
      1769859312,
      1769859346,
      1769859361,
      1769859413,
      1769859432,
      1769859477,
      1769859491,
      1769859537,
      1769859544,
      1769859578,
      1769859597,
      1769859622,
      1769859636,
      1769859685,
      1769859715,
      1769859746,
      1769859773,
      1769859792,
      1769859813
    ],
    "wof:geomhash": "b7cba63265c3670bdbe0bbb8129c9f61",
    "wof:id": 2014682545,
    "wof:repo": "sfomuseum-data-flights-2026-01"
  },
  "bbox": [
    -122.36034,
    37.49185,
    -121.25702,
    37.61457
  ],
  "geometry": {"coordinates":[[-121.25702,37.59355],[-121.32523,37.58555],[-121.36269,37.58131],[-121.43802,37.57268],[-121.45268,37.57093],[-121.5321,37.56168],[-121.56541,37.55776],[-121.648,37.54519],[-121.69824,37.53326],[-121.74433,37.52226],[-121.76978,37.51609],[-121.81805,37.50454],[-121.84007,37.49923],[-121.91344,37.49185],[-121.9399,37.49247],[-122.00144,37.49904],[-122.01851,37.50466],[-122.07711,37.52364],[-122.08565,37.52639],[-122.1282,37.54012],[-122.1509,37.54753],[-122.17851,37.5565],[-122.19361,37.56128],[-122.24629,37.57838],[-122.27585,37.58721],[-122.30328,37.59531],[-122.32722,37.60244],[-122.34317,37.60762],[-122.36034,37.61457]],"type":"LineString"}
}
