{
  "id": 2014681231,
  "type": "Feature",
  "properties": {
    "geom:area": 0,
    "geom:bbox": "-122.353870,37.491940,-121.310100,37.612180",
    "geom:latitude": 37.544080523126475,
    "geom:longitude": -121.83656706087169,
    "src:alt_label": "swim-approach",
    "src:geom": "swim",
    "swim:elevations": [
      4706,
      4663,
      4134,
      3929,
      3546,
      3497,
      3228,
      3054,
      2802,
      2716,
      2474,
      2337,
      2068,
      1977,
      1830,
      1730,
      1384,
      1282,
      1067,
      925,
      765,
      548,
      549,
      414,
      388,
      272,
      192,
      96,
      43
    ],
    "swim:geom": "approach",
    "swim:timestamps": [
      1769855937,
      1769855941,
      1769855991,
      1769856011,
      1769856050,
      1769856060,
      1769856115,
      1769856135,
      1769856171,
      1769856195,
      1769856230,
      1769856248,
      1769856292,
      1769856312,
      1769856351,
      1769856364,
      1769856412,
      1769856425,
      1769856453,
      1769856472,
      1769856496,
      1769856534,
      1769856558,
      1769856592,
      1769856600,
      1769856628,
      1769856651,
      1769856676,
      1769856693
    ],
    "wof:geomhash": "b642506e478f01bac019b3a91a8b2c9b",
    "wof:id": 2014681231,
    "wof:repo": "sfomuseum-data-flights-2026-01"
  },
  "bbox": [
    -122.35387,
    37.49194,
    -121.3101,
    37.61218
  ],
  "geometry": {"coordinates":[[-121.3101,37.58706],[-121.31881,37.58612],[-121.41605,37.57517],[-121.45361,37.57095],[-121.52516,37.5625],[-121.54273,37.5605],[-121.63584,37.54827],[-121.66803,37.54032],[-121.72472,37.52692],[-121.76071,37.51837],[-121.81123,37.50631],[-121.83743,37.49993],[-121.90099,37.49194],[-121.93054,37.49267],[-121.98438,37.49476],[-122.00181,37.4993],[-122.06397,37.51951],[-122.08205,37.52535],[-122.11796,37.53697],[-122.14328,37.54521],[-122.17285,37.55483],[-122.21713,37.56907],[-122.24226,37.57712],[-122.27442,37.58687],[-122.28177,37.58899],[-122.30454,37.5957],[-122.32318,37.60069],[-122.34201,37.60707],[-122.35387,37.61218]],"type":"LineString"}
}
