{
  "id": 2014686303,
  "type": "Feature",
  "properties": {
    "geom:area": 0,
    "geom:bbox": "-122.467260,37.189670,-121.242950,37.718200",
    "geom:latitude": 37.39123099338187,
    "geom:longitude": -121.99054643284265,
    "src:alt_label": "swim-takeoff",
    "src:geom": "swim",
    "swim:elevations": [
      152,
      305,
      758,
      992,
      1237,
      1296,
      1752,
      2311,
      2576,
      3161,
      3240,
      3680,
      3715,
      3947,
      4041,
      4385,
      4602,
      5098,
      5344,
      5792,
      5881,
      6161,
      6183,
      6536,
      6649,
      7088,
      7500,
      7592,
      7692
    ],
    "swim:geom": "takeoff",
    "swim:timestamps": [
      1769859264,
      1769859275,
      1769859324,
      1769859346,
      1769859384,
      1769859396,
      1769859435,
      1769859473,
      1769859491,
      1769859533,
      1769859544,
      1769859593,
      1769859597,
      1769859622,
      1769859636,
      1769859681,
      1769859698,
      1769859746,
      1769859769,
      1769859834,
      1769859861,
      1769859895,
      1769859901,
      1769859953,
      1769859969,
      1769860015,
      1769860078,
      1769860101,
      1769860117
    ],
    "wof:geomhash": "6d069d5e8797e4257cedf52f6132e838",
    "wof:id": 2014686303,
    "wof:repo": "sfomuseum-data-flights-2026-01"
  },
  "bbox": [
    -122.46726,
    37.18967,
    -121.24295,
    37.7182
  ],
  "geometry": {"coordinates":[[-122.36922,37.62875],[-122.36567,37.63611],[-122.36243,37.67463],[-122.364,37.6931],[-122.39717,37.71781],[-122.41397,37.7182],[-122.45444,37.68784],[-122.45742,37.64082],[-122.45856,37.61867],[-122.46518,37.56564],[-122.46726,37.55129],[-122.45807,37.48169],[-122.45366,37.47655],[-122.41367,37.45314],[-122.38842,37.4417],[-122.29948,37.40428],[-122.26033,37.39634],[-122.15042,37.37532],[-122.0973,37.36462],[-121.9449,37.33395],[-121.88091,37.32063],[-121.80019,37.30405],[-121.78763,37.30148],[-121.65874,37.27518],[-121.61868,37.26701],[-121.50393,37.24355],[-121.34364,37.21062],[-121.28625,37.19874],[-121.24295,37.18967]],"type":"LineString"}
}
