{
  "id": 2014682333,
  "type": "Feature",
  "properties": {
    "geom:area": 0,
    "geom:bbox": "-122.351060,37.491150,-121.248070,37.611000",
    "geom:latitude": 37.546177293101834,
    "geom:longitude": -121.8043675751414,
    "src:alt_label": "swim-approach",
    "src:geom": "swim",
    "swim:elevations": [
      5415,
      5303,
      5060,
      4953,
      4933,
      4814,
      4695,
      4450,
      4118,
      3856,
      3792,
      3484,
      3277,
      3025,
      2849,
      2697,
      2546,
      2342,
      2153,
      1861,
      1555,
      1480,
      1270,
      1245,
      979,
      883,
      836,
      615,
      572,
      485,
      390,
      275,
      92,
      59
    ],
    "swim:geom": "approach",
    "swim:timestamps": [
      1769850326,
      1769850350,
      1769850380,
      1769850402,
      1769850413,
      1769850439,
      1769850458,
      1769850494,
      1769850536,
      1769850566,
      1769850575,
      1769850614,
      1769850643,
      1769850674,
      1769850695,
      1769850709,
      1769850727,
      1769850758,
      1769850804,
      1769850836,
      1769850868,
      1769850878,
      1769850924,
      1769850935,
      1769850988,
      1769851005,
      1769851032,
      1769851077,
      1769851087,
      1769851104,
      1769851121,
      1769851147,
      1769851194,
      1769851203
    ],
    "wof:geomhash": "971f73ddf8a3e306b7ab1590bd3c72b5",
    "wof:id": 2014682333,
    "wof:repo": "sfomuseum-data-flights-2026-01"
  },
  "bbox": [
    -122.35106,
    37.49115,
    -121.24807,
    37.611
  ],
  "geometry": {"coordinates":[[-121.24807,37.59467],[-121.29227,37.58881],[-121.34591,37.58301],[-121.38443,37.57861],[-121.40296,37.57652],[-121.44404,37.57184],[-121.47156,37.56856],[-121.52386,37.56236],[-121.58167,37.55574],[-121.62317,37.55052],[-121.63508,37.54797],[-121.68658,37.53577],[-121.72452,37.52678],[-121.76537,37.51696],[-121.79288,37.51048],[-121.81172,37.50597],[-121.83504,37.50027],[-121.87711,37.49115],[-121.93665,37.4925],[-121.97334,37.49266],[-122.00951,37.50152],[-122.02078,37.50552],[-122.07222,37.52206],[-122.08384,37.52577],[-122.14295,37.54521],[-122.16096,37.55117],[-122.19114,37.56047],[-122.23892,37.57491],[-122.25039,37.5787],[-122.26769,37.58458],[-122.28584,37.58989],[-122.30879,37.59639],[-122.34464,37.60846],[-122.35106,37.611]],"type":"LineString"}
}
