{
  "id": 2014685879,
  "type": "Feature",
  "properties": {
    "geom:area": 0,
    "geom:bbox": "-122.366030,37.628860,-121.280380,37.959120",
    "geom:latitude": 37.83485151501477,
    "geom:longitude": -121.83855177105886,
    "src:alt_label": "swim-takeoff",
    "src:geom": "swim",
    "swim:elevations": [
      152,
      416,
      727,
      1146,
      1316,
      1728,
      2177,
      2403,
      2808,
      3189,
      3325,
      3395,
      3734,
      3945,
      4262,
      4503,
      4980,
      5212,
      5430,
      5731,
      6023
    ],
    "swim:geom": "takeoff",
    "swim:timestamps": [
      1769867694,
      1769867709,
      1769867735,
      1769867779,
      1769867804,
      1769867842,
      1769867874,
      1769867891,
      1769867924,
      1769867969,
      1769867992,
      1769868004,
      1769868055,
      1769868075,
      1769868108,
      1769868129,
      1769868169,
      1769868191,
      1769868214,
      1769868248,
      1769868284
    ],
    "wof:geomhash": "33b95c25860ee16444a0167d2ae505e5",
    "wof:id": 2014685879,
    "wof:repo": "sfomuseum-data-flights-2026-01"
  },
  "bbox": [
    -122.36603,
    37.62886,
    -121.28038,
    37.95912
  ],
  "geometry": {"coordinates":[[-122.36603,37.62886],[-122.35858,37.63928],[-122.33642,37.65387],[-122.2939,37.67603],[-122.26524,37.69108],[-122.216,37.71672],[-122.17231,37.73967],[-122.14907,37.75165],[-122.10145,37.77631],[-122.03323,37.81154],[-121.99073,37.82874],[-121.96619,37.83425],[-121.85278,37.85478],[-121.80614,37.86321],[-121.72728,37.87794],[-121.67525,37.88748],[-121.575,37.90575],[-121.51907,37.91591],[-121.46121,37.92643],[-121.37459,37.94211],[-121.28038,37.95912]],"type":"LineString"}
}
