{
  "id": 2014680705,
  "type": "Feature",
  "properties": {
    "geom:area": 0,
    "geom:bbox": "-122.360760,36.722150,-121.878480,37.614420",
    "geom:latitude": 37.21781383269024,
    "geom:longitude": -122.06878518852369,
    "src:alt_label": "swim-approach",
    "src:geom": "swim",
    "swim:elevations": [
      5290,
      5129,
      5034,
      4861,
      4511,
      4260,
      4076,
      3772,
      3627,
      3367,
      3122,
      3051,
      2680,
      2620,
      2412,
      2408,
      2181,
      2018,
      1816,
      1766,
      1629,
      1360,
      1250,
      919,
      822,
      607,
      526,
      428,
      371,
      115,
      0,
      0
    ],
    "swim:geom": "approach",
    "swim:timestamps": [
      1769889118,
      1769889139,
      1769889158,
      1769889191,
      1769889236,
      1769889267,
      1769889288,
      1769889324,
      1769889338,
      1769889375,
      1769889413,
      1769889422,
      1769889478,
      1769889487,
      1769889532,
      1769889541,
      1769889595,
      1769889622,
      1769889658,
      1769889676,
      1769889710,
      1769889742,
      1769889759,
      1769889805,
      1769889818,
      1769889852,
      1769889868,
      1769889889,
      1769889905,
      1769889955,
      1769889980,
      1769889983
    ],
    "wof:geomhash": "5bd891e4867263e6c9e13c147c1af861",
    "wof:id": 2014680705,
    "wof:repo": "sfomuseum-data-flights-2026-01"
  },
  "bbox": [
    -122.36076,
    36.72215,
    -121.87848,
    37.61442
  ],
  "geometry": {"coordinates":[[-121.87848,36.72215],[-121.89706,36.7561],[-121.90662,36.78782],[-121.92129,36.83935],[-121.9403,36.90628],[-121.95277,36.95083],[-121.96401,36.97976],[-121.98289,37.02846],[-121.99047,37.04768],[-122.00895,37.09545],[-122.02854,37.14551],[-122.03283,37.15656],[-122.06143,37.22903],[-122.06599,37.24046],[-122.08775,37.29658],[-122.09184,37.30725],[-122.11293,37.36819],[-122.11617,37.39896],[-122.12005,37.43922],[-122.12187,37.45904],[-122.12804,37.49276],[-122.14784,37.51745],[-122.15882,37.52931],[-122.20247,37.55001],[-122.21496,37.5552],[-122.24798,37.56768],[-122.26328,37.57387],[-122.28394,37.58267],[-122.29813,37.58891],[-122.3388,37.60584],[-122.35821,37.61375],[-122.36076,37.61442]],"type":"LineString"}
}
