{
  "id": 2014682197,
  "type": "Feature",
  "properties": {
    "geom:area": 0,
    "geom:bbox": "-123.283170,37.408910,-122.141230,38.297810",
    "geom:latitude": 37.80577442185318,
    "geom:longitude": -122.60664300544613,
    "src:alt_label": "swim-approach",
    "src:geom": "swim",
    "swim:elevations": [
      7620,
      7559,
      7117,
      6947,
      6591,
      6118,
      5794,
      5621,
      5152,
      4761,
      4644,
      4379,
      4212,
      3984,
      3574,
      3449,
      3350,
      3355,
      3353,
      3353,
      3353,
      3353,
      3100,
      3014,
      2823,
      2600,
      2493,
      2389,
      2214,
      1797,
      1588,
      1374,
      1059,
      913,
      895,
      732,
      566,
      514,
      333,
      278,
      63,
      0
    ],
    "swim:geom": "approach",
    "swim:timestamps": [
      1769863378,
      1769863382,
      1769863427,
      1769863441,
      1769863475,
      1769863518,
      1769863547,
      1769863563,
      1769863613,
      1769863644,
      1769863653,
      1769863684,
      1769863725,
      1769863750,
      1769863796,
      1769863819,
      1769863858,
      1769863865,
      1769863894,
      1769863911,
      1769863938,
      1769863968,
      1769864008,
      1769864018,
      1769864049,
      1769864098,
      1769864121,
      1769864137,
      1769864166,
      1769864231,
      1769864257,
      1769864282,
      1769864327,
      1769864363,
      1769864394,
      1769864422,
      1769864455,
      1769864467,
      1769864508,
      1769864521,
      1769864575,
      1769864594
    ],
    "wof:geomhash": "2bee982d5a76cc2a3f2ff15d3b590196",
    "wof:id": 2014682197,
    "wof:repo": "sfomuseum-data-flights-2026-01"
  },
  "bbox": [
    -123.28317,
    37.40891,
    -122.14123,
    38.29781
  ],
  "geometry": {"coordinates":[[-123.28317,38.29781],[-123.27511,38.29253],[-123.18913,38.23687],[-123.16118,38.21857],[-123.09613,38.17631],[-123.01613,38.12426],[-122.96342,38.08985],[-122.93339,38.07037],[-122.84487,38.01242],[-122.78989,37.97628],[-122.77487,37.9664],[-122.72261,37.93192],[-122.65948,37.88613],[-122.6274,37.85608],[-122.56943,37.80144],[-122.5416,37.77527],[-122.49604,37.73223],[-122.48832,37.72494],[-122.45763,37.69617],[-122.44197,37.68147],[-122.41696,37.65787],[-122.39024,37.63258],[-122.35699,37.59658],[-122.35081,37.58605],[-122.33271,37.55499],[-122.30415,37.50632],[-122.29074,37.48344],[-122.28174,37.46811],[-122.26502,37.44021],[-122.19046,37.40891],[-122.15854,37.41256],[-122.14123,37.43459],[-122.14261,37.48134],[-122.15885,37.51867],[-122.18568,37.53922],[-122.21622,37.55206],[-122.24972,37.56611],[-122.26063,37.57065],[-122.29538,37.58529],[-122.30635,37.58989],[-122.34876,37.60764],[-122.36367,37.61395]],"type":"LineString"}
}
