{
  "id": 2014682467,
  "type": "Feature",
  "properties": {
    "geom:area": 0,
    "geom:bbox": "-122.358470,36.722280,-121.878130,37.614100",
    "geom:latitude": 37.20991079844428,
    "geom:longitude": -122.06969369574483,
    "src:alt_label": "swim-approach",
    "src:geom": "swim",
    "swim:elevations": [
      5053,
      4809,
      4645,
      4430,
      4164,
      3870,
      3753,
      3380,
      3200,
      3056,
      2796,
      2633,
      2438,
      2438,
      2414,
      2296,
      2178,
      1963,
      1769,
      1588,
      1479,
      1296,
      1186,
      1065,
      958,
      773,
      577,
      458,
      393,
      305,
      303,
      87,
      0
    ],
    "swim:geom": "approach",
    "swim:timestamps": [
      1769887373,
      1769887406,
      1769887424,
      1769887450,
      1769887486,
      1769887528,
      1769887541,
      1769887588,
      1769887609,
      1769887633,
      1769887663,
      1769887688,
      1769887738,
      1769887747,
      1769887768,
      1769887789,
      1769887810,
      1769887840,
      1769887873,
      1769887912,
      1769887930,
      1769887951,
      1769887971,
      1769888003,
      1769888019,
      1769888050,
      1769888086,
      1769888119,
      1769888137,
      1769888158,
      1769888161,
      1769888218,
      1769888238
    ],
    "wof:geomhash": "c2e2aeed65eba6102dc97ef927613bc3",
    "wof:id": 2014682467,
    "wof:repo": "sfomuseum-data-flights-2026-01"
  },
  "bbox": [
    -122.35847,
    36.72228,
    -121.87813,
    37.6141
  ],
  "geometry": {"coordinates":[[-121.87813,36.72228],[-121.90179,36.77154],[-121.90966,36.80003],[-121.92146,36.84156],[-121.93701,36.89698],[-121.95532,36.95932],[-121.96264,36.97806],[-121.98852,37.04415],[-122.00019,37.07397],[-122.01294,37.10691],[-122.02884,37.1476],[-122.04209,37.18113],[-122.06756,37.24675],[-122.07206,37.25822],[-122.08266,37.285],[-122.09342,37.31228],[-122.104,37.33832],[-122.11856,37.37438],[-122.13218,37.4145],[-122.14744,37.4581],[-122.15643,37.47655],[-122.16881,37.49604],[-122.18044,37.5128],[-122.19708,37.53611],[-122.2053,37.54671],[-122.22575,37.55918],[-122.25149,37.56943],[-122.27475,37.57882],[-122.28798,37.5844],[-122.3034,37.59086],[-122.30557,37.59177],[-122.34523,37.60858],[-122.35847,37.6141]],"type":"LineString"}
}
