{
  "id": 2014684721,
  "type": "Feature",
  "properties": {
    "geom:area": 0,
    "geom:bbox": "-122.604920,36.738690,-121.466100,37.826750",
    "geom:latitude": 37.34958398868731,
    "geom:longitude": -122.13854702698059,
    "src:alt_label": "swim-takeoff",
    "src:geom": "swim",
    "swim:elevations": [
      183,
      305,
      549,
      913,
      947,
      1069,
      1068,
      1067,
      1067,
      1067,
      1067,
      1067,
      1221,
      1642,
      1948,
      2952,
      3385,
      3612,
      3873,
      4057,
      4426,
      5377,
      5719,
      5939,
      6272,
      6450,
      7003,
      7188,
      7444,
      7993,
      8348,
      8540,
      8626,
      8767,
      8955,
      9072,
      9331
    ],
    "swim:geom": "takeoff",
    "swim:timestamps": [
      1769876125,
      1769876134,
      1769876160,
      1769876209,
      1769876239,
      1769876268,
      1769876282,
      1769876326,
      1769876350,
      1769876392,
      1769876408,
      1769876438,
      1769876471,
      1769876510,
      1769876532,
      1769876603,
      1769876654,
      1769876685,
      1769876718,
      1769876733,
      1769876763,
      1769876817,
      1769876841,
      1769876862,
      1769876895,
      1769876913,
      1769876968,
      1769876987,
      1769877012,
      1769877065,
      1769877114,
      1769877146,
      1769877173,
      1769877194,
      1769877227,
      1769877242,
      1769877277
    ],
    "wof:geomhash": "00aba8179d3fef51c8b9166f0c62f415",
    "wof:id": 2014684721,
    "wof:repo": "sfomuseum-data-flights-2026-01"
  },
  "bbox": [
    -122.60492,
    36.73869,
    -121.4661,
    37.82675
  ],
  "geometry": {"coordinates":[[-122.36664,37.63264],[-122.36328,37.63922],[-122.36389,37.6602],[-122.36072,37.70772],[-122.35812,37.73887],[-122.35563,37.76783],[-122.35692,37.78306],[-122.38366,37.82091],[-122.41108,37.82675],[-122.46342,37.82314],[-122.48144,37.81739],[-122.51136,37.80117],[-122.54803,37.78179],[-122.59566,37.75322],[-122.60492,37.72707],[-122.55732,37.64804],[-122.50811,37.58981],[-122.46443,37.55724],[-122.41554,37.51937],[-122.39344,37.50027],[-122.34538,37.46174],[-122.25911,37.39381],[-122.22067,37.36405],[-122.18711,37.3379],[-122.13367,37.29497],[-122.10378,37.27124],[-122.01026,37.1971],[-121.97734,37.17094],[-121.93362,37.13643],[-121.84143,37.06022],[-121.75883,36.9886],[-121.70248,36.94149],[-121.6534,36.90014],[-121.6156,36.86821],[-121.5552,36.81675],[-121.5289,36.79386],[-121.4661,36.73869]],"type":"LineString"}
}
