{
  "id": 2014684295,
  "type": "Feature",
  "properties": {
    "geom:area": 0,
    "geom:bbox": "-122.360940,37.634970,-122.210460,38.485350",
    "geom:latitude": 38.028663804640225,
    "geom:longitude": -122.23735308816474,
    "src:alt_label": "swim-takeoff",
    "src:geom": "swim",
    "swim:elevations": [
      340,
      612,
      972,
      1078,
      1544,
      2278,
      2627,
      2990,
      3060,
      3178,
      3444,
      3475,
      3826,
      4113,
      4661,
      4941,
      5326,
      5358,
      5839,
      6094,
      6375,
      6497
    ],
    "swim:geom": "takeoff",
    "swim:timestamps": [
      1769886982,
      1769887012,
      1769887045,
      1769887053,
      1769887087,
      1769887135,
      1769887159,
      1769887185,
      1769887198,
      1769887210,
      1769887228,
      1769887236,
      1769887270,
      1769887293,
      1769887342,
      1769887370,
      1769887406,
      1769887410,
      1769887467,
      1769887495,
      1769887525,
      1769887537
    ],
    "wof:geomhash": "6279608e60a487a03a742c29ae821cd2",
    "wof:id": 2014684295,
    "wof:repo": "sfomuseum-data-flights-2026-01"
  },
  "bbox": [
    -122.36094,
    37.63497,
    -122.21046,
    38.48535
  ],
  "geometry": {"coordinates":[[-122.36094,37.63497],[-122.33409,37.65136],[-122.29692,37.67215],[-122.28794,37.67773],[-122.24466,37.70294],[-122.21046,37.75664],[-122.21472,37.78953],[-122.21759,37.82616],[-122.21806,37.84618],[-122.21849,37.86503],[-122.2192,37.89373],[-122.21953,37.90674],[-122.22121,37.9662],[-122.2222,38.00528],[-122.22465,38.09471],[-122.22609,38.14819],[-122.22785,38.2165],[-122.22808,38.22558],[-122.2312,38.34027],[-122.23634,38.39755],[-122.24277,38.46006],[-122.24534,38.48535]],"type":"LineString"}
}
