{
  "id": 2014680733,
  "type": "Feature",
  "properties": {
    "geom:area": 0,
    "geom:bbox": "-122.804460,37.454090,-122.146450,38.499890",
    "geom:latitude": 37.84421544057852,
    "geom:longitude": -122.51365734012366,
    "src:alt_label": "swim-approach",
    "src:geom": "swim",
    "swim:elevations": [
      8561,
      8203,
      7927,
      7763,
      7211,
      6956,
      6486,
      6386,
      5753,
      5490,
      5424,
      5177,
      4953,
      4512,
      4189,
      4034,
      3885,
      3704,
      3509,
      3414,
      3353,
      3353,
      3353,
      3353,
      3075,
      2889,
      2636,
      2382,
      2138,
      1780,
      1425,
      1250,
      1128,
      909,
      886,
      817,
      756,
      679,
      277,
      220,
      91,
      29
    ],
    "swim:geom": "approach",
    "swim:timestamps": [
      1769853859,
      1769853891,
      1769853916,
      1769853932,
      1769853979,
      1769854001,
      1769854043,
      1769854051,
      1769854108,
      1769854132,
      1769854145,
      1769854166,
      1769854185,
      1769854226,
      1769854255,
      1769854271,
      1769854285,
      1769854304,
      1769854323,
      1769854344,
      1769854376,
      1769854386,
      1769854411,
      1769854440,
      1769854495,
      1769854517,
      1769854543,
      1769854568,
      1769854593,
      1769854633,
      1769854673,
      1769854694,
      1769854731,
      1769854763,
      1769854775,
      1769854794,
      1769854818,
      1769854830,
      1769854883,
      1769854896,
      1769854932,
      1769854956
    ],
    "wof:geomhash": "f1c595d5c7aa15eb8d6ab7b84971c930",
    "wof:id": 2014680733,
    "wof:repo": "sfomuseum-data-flights-2026-01"
  },
  "bbox": [
    -122.80446,
    37.45409,
    -122.14645,
    38.49989
  ],
  "geometry": {"coordinates":[[-122.80446,38.49989],[-122.79647,38.44018],[-122.79073,38.39751],[-122.78699,38.37023],[-122.77622,38.28987],[-122.77103,38.25159],[-122.75548,38.18397],[-122.75174,38.17098],[-122.72655,38.08259],[-122.71564,38.04549],[-122.70939,38.02448],[-122.70004,37.99218],[-122.69201,37.96412],[-122.67056,37.90293],[-122.63692,37.86534],[-122.61702,37.84624],[-122.60025,37.83006],[-122.57616,37.80734],[-122.55261,37.78551],[-122.52802,37.76249],[-122.49151,37.7278],[-122.48035,37.71721],[-122.45172,37.69044],[-122.42027,37.66094],[-122.36198,37.60422],[-122.34478,37.57809],[-122.32999,37.54609],[-122.31222,37.51661],[-122.29362,37.48829],[-122.23846,37.46353],[-122.1791,37.45409],[-122.15117,37.46946],[-122.14645,37.51283],[-122.18227,37.53664],[-122.19747,37.54345],[-122.21932,37.55292],[-122.24373,37.56334],[-122.2556,37.56816],[-122.30174,37.5875],[-122.31207,37.59209],[-122.33946,37.60378],[-122.35609,37.61074]],"type":"LineString"}
}
