{
  "id": 2014682451,
  "type": "Feature",
  "properties": {
    "geom:area": 0,
    "geom:bbox": "-122.086420,36.725960,-121.880740,37.293170",
    "geom:latitude": 37.0104269915903,
    "geom:longitude": -121.98052000608388,
    "src:alt_label": "swim-approach",
    "src:geom": "swim",
    "swim:elevations": [
      5088,
      4871,
      4485,
      4297,
      4072,
      3813,
      3495,
      3201,
      3112,
      3106,
      2878,
      2659,
      2619,
      2337
    ],
    "swim:geom": "approach",
    "swim:timestamps": [
      1769869912,
      1769869936,
      1769869977,
      1769869997,
      1769870021,
      1769870052,
      1769870092,
      1769870125,
      1769870156,
      1769870160,
      1769870212,
      1769870248,
      1769870254,
      1769870297
    ],
    "wof:geomhash": "dfd3dcb4a5da65ebbe51ff72659b004f",
    "wof:id": 2014682451,
    "wof:repo": "sfomuseum-data-flights-2026-01"
  },
  "bbox": [
    -122.08642,
    36.72596,
    -121.88074,
    37.29317
  ],
  "geometry": {"coordinates":[[-121.88074,36.72596],[-121.89987,36.76436],[-121.92019,36.83482],[-121.92936,36.86765],[-121.9407,36.90788],[-121.95535,36.9575],[-121.97898,37.01849],[-121.99876,37.06896],[-122.01621,37.11378],[-122.01844,37.11942],[-122.04457,37.18602],[-122.06236,37.23157],[-122.06547,37.23949],[-122.08642,37.29317]],"type":"LineString"}
}
