{
  "id": 2014679671,
  "type": "Feature",
  "properties": {
    "geom:area": 0,
    "geom:bbox": "-122.362910,37.491660,-121.251460,37.616590",
    "geom:latitude": 37.54707449546369,
    "geom:longitude": -121.81236215779788,
    "src:alt_label": "swim-approach",
    "src:geom": "swim",
    "swim:elevations": [
      4829,
      4527,
      4169,
      4076,
      3919,
      3556,
      3371,
      3169,
      2989,
      2880,
      2514,
      2499,
      2467,
      2392,
      2164,
      2039,
      1831,
      1829,
      1817,
      1529,
      1322,
      1006,
      851,
      729,
      545,
      518,
      441,
      321,
      201,
      114,
      0
    ],
    "swim:geom": "approach",
    "swim:timestamps": [
      1769848579,
      1769848613,
      1769848642,
      1769848651,
      1769848662,
      1769848697,
      1769848715,
      1769848747,
      1769848788,
      1769848802,
      1769848845,
      1769848853,
      1769848865,
      1769848901,
      1769848946,
      1769848970,
      1769849006,
      1769849020,
      1769849023,
      1769849052,
      1769849075,
      1769849123,
      1769849154,
      1769849174,
      1769849212,
      1769849241,
      1769849258,
      1769849292,
      1769849327,
      1769849352,
      1769849380
    ],
    "wof:geomhash": "134b905a2f54763637fa3ce28d209281",
    "wof:id": 2014679671,
    "wof:repo": "sfomuseum-data-flights-2026-01"
  },
  "bbox": [
    -122.36291,
    37.49166,
    -121.25146,
    37.61659
  ],
  "geometry": {"coordinates":[[-121.25146,37.59448],[-121.32072,37.58596],[-121.37601,37.57983],[-121.39327,37.57792],[-121.41457,37.5754],[-121.48112,37.56763],[-121.51494,37.56385],[-121.57307,37.55706],[-121.64181,37.54686],[-121.66425,37.54146],[-121.7321,37.5252],[-121.74486,37.52214],[-121.76294,37.5179],[-121.81449,37.50548],[-121.8795,37.49166],[-121.9152,37.49219],[-121.96917,37.4934],[-121.98952,37.4955],[-121.994,37.49657],[-122.03319,37.50943],[-122.06345,37.51936],[-122.12532,37.5395],[-122.16322,37.55168],[-122.18552,37.55889],[-122.22817,37.57266],[-122.25664,37.58185],[-122.27112,37.58606],[-122.29784,37.59396],[-122.32402,37.60115],[-122.34292,37.60768],[-122.36291,37.61659]],"type":"LineString"}
}
