{
  "id": 2014685655,
  "type": "Feature",
  "properties": {
    "geom:area": 0,
    "geom:bbox": "-122.539720,36.721060,-122.175780,37.698760",
    "geom:latitude": 37.23264289151077,
    "geom:longitude": -122.4338507022003,
    "src:alt_label": "swim-takeoff",
    "src:geom": "swim",
    "swim:elevations": [
      122,
      352,
      639,
      1078,
      1651,
      1973,
      2795,
      3278,
      3302,
      4505,
      5268,
      5717,
      6134,
      6514,
      7149,
      7940,
      8128,
      8559,
      9163,
      9452,
      9792,
      10141,
      10236,
      10446,
      10591,
      10910,
      11266,
      11618
    ],
    "swim:geom": "takeoff",
    "swim:timestamps": [
      1769926254,
      1769926268,
      1769926291,
      1769926318,
      1769926348,
      1769926364,
      1769926402,
      1769926437,
      1769926440,
      1769926495,
      1769926525,
      1769926552,
      1769926573,
      1769926594,
      1769926630,
      1769926677,
      1769926689,
      1769926713,
      1769926764,
      1769926791,
      1769926825,
      1769926853,
      1769926862,
      1769926883,
      1769926898,
      1769926933,
      1769926972,
      1769927008
    ],
    "wof:geomhash": "af273f95cb8c4d189b5235cf59d345e1",
    "wof:id": 2014685655,
    "wof:repo": "sfomuseum-data-flights-2026-01"
  },
  "bbox": [
    -122.53972,
    36.72106,
    -122.17578,
    37.69876
  ],
  "geometry": {"coordinates":[[-122.37111,37.62558],[-122.366,37.63516],[-122.3643,37.65321],[-122.37034,37.67727],[-122.40022,37.69195],[-122.41775,37.69876],[-122.46255,37.69405],[-122.48172,37.65301],[-122.48264,37.64871],[-122.49292,37.56235],[-122.49855,37.51514],[-122.5043,37.47351],[-122.50892,37.43916],[-122.51332,37.40466],[-122.52111,37.34341],[-122.53151,37.26291],[-122.53426,37.24222],[-122.53972,37.20078],[-122.5373,37.11181],[-122.50257,37.06903],[-122.4528,37.01689],[-122.41006,36.97134],[-122.39664,36.95696],[-122.36643,36.92483],[-122.34317,36.8998],[-122.29027,36.84335],[-122.23062,36.77981],[-122.17578,36.72106]],"type":"LineString"}
}
