{
  "id": 2014682287,
  "type": "Feature",
  "properties": {
    "geom:area": 0,
    "geom:bbox": "-122.360500,37.491440,-121.295590,37.615940",
    "geom:latitude": 37.54516356009864,
    "geom:longitude": -121.83306621750897,
    "src:alt_label": "swim-approach",
    "src:geom": "swim",
    "swim:elevations": [
      4562,
      4463,
      4236,
      4094,
      3643,
      3368,
      3289,
      3156,
      2986,
      2816,
      2729,
      2524,
      2360,
      2071,
      2037,
      1830,
      1739,
      1532,
      1400,
      1071,
      1029,
      724,
      566,
      520,
      325,
      205,
      81,
      205
    ],
    "swim:geom": "approach",
    "swim:timestamps": [
      1769883922,
      1769883931,
      1769883952,
      1769883967,
      1769884018,
      1769884048,
      1769884057,
      1769884099,
      1769884135,
      1769884159,
      1769884171,
      1769884208,
      1769884234,
      1769884282,
      1769884291,
      1769884340,
      1769884360,
      1769884390,
      1769884411,
      1769884465,
      1769884475,
      1769884528,
      1769884555,
      1769884567,
      1769884611,
      1769884641,
      1769884669,
      1769884688
    ],
    "wof:geomhash": "ebcc7753c96e83f95ef7aa0c2a1f2e1f",
    "wof:id": 2014682287,
    "wof:repo": "sfomuseum-data-flights-2026-01"
  },
  "bbox": [
    -122.3605,
    37.49144,
    -121.29559,
    37.61594
  ],
  "geometry": {"coordinates":[[-121.29559,37.58839],[-121.31367,37.58646],[-121.35565,37.58202],[-121.3845,37.57902],[-121.47894,37.56804],[-121.534,37.56146],[-121.5506,37.55947],[-121.62455,37.55045],[-121.68087,37.53737],[-121.71757,37.52871],[-121.73557,37.52438],[-121.79226,37.51073],[-121.83043,37.50163],[-121.90199,37.49144],[-121.91564,37.49183],[-121.9867,37.49525],[-122.01212,37.50253],[-122.04975,37.51472],[-122.07608,37.52328],[-122.14358,37.54509],[-122.15588,37.54906],[-122.21858,37.56918],[-122.24582,37.57801],[-122.25704,37.5818],[-122.29669,37.59351],[-122.32273,37.60114],[-122.34613,37.60878],[-122.3605,37.61594]],"type":"LineString"}
}
