{
  "id": 2014682339,
  "type": "Feature",
  "properties": {
    "geom:area": 0,
    "geom:bbox": "-122.358930,37.491510,-121.243410,37.614650",
    "geom:latitude": 37.547080624064094,
    "geom:longitude": -121.80621848184204,
    "src:alt_label": "swim-approach",
    "src:geom": "swim",
    "swim:elevations": [
      4999,
      4600,
      4352,
      4111,
      3980,
      3706,
      3369,
      3267,
      3170,
      2991,
      2702,
      2630,
      2549,
      2351,
      2164,
      2071,
      1946,
      1843,
      1617,
      1522,
      1373,
      1165,
      1022,
      942,
      693,
      664,
      555,
      428,
      346,
      179,
      0,
      0
    ],
    "swim:geom": "approach",
    "swim:timestamps": [
      1769887666,
      1769887701,
      1769887728,
      1769887750,
      1769887763,
      1769887789,
      1769887822,
      1769887843,
      1769887870,
      1769887906,
      1769887945,
      1769887955,
      1769887971,
      1769888007,
      1769888038,
      1769888053,
      1769888083,
      1769888107,
      1769888143,
      1769888158,
      1769888185,
      1769888218,
      1769888238,
      1769888254,
      1769888308,
      1769888314,
      1769888338,
      1769888362,
      1769888377,
      1769888425,
      1769888458,
      1769888461
    ],
    "wof:geomhash": "c9abc3c42ec3286139ac28dbf8e98a97",
    "wof:id": 2014682339,
    "wof:repo": "sfomuseum-data-flights-2026-01"
  },
  "bbox": [
    -122.35893,
    37.49151,
    -121.24341,
    37.61465
  ],
  "geometry": {"coordinates":[[-121.24341,37.59534],[-121.31355,37.58677],[-121.36518,37.58111],[-121.40661,37.57633],[-121.43138,37.57334],[-121.48018,37.56781],[-121.54073,37.56066],[-121.58064,37.55598],[-121.62687,37.55001],[-121.68406,37.53661],[-121.74343,37.52238],[-121.75894,37.5187],[-121.78295,37.51297],[-121.83612,37.5001],[-121.881,37.49151],[-121.90408,37.4916],[-121.94684,37.4926],[-121.98019,37.49405],[-122.02999,37.50826],[-122.04994,37.51477],[-122.08432,37.52586],[-122.1249,37.53907],[-122.14893,37.54678],[-122.16769,37.55301],[-122.22444,37.57135],[-122.23043,37.57323],[-122.25405,37.58093],[-122.2771,37.58763],[-122.29036,37.59156],[-122.33021,37.60318],[-122.35668,37.61346],[-122.35893,37.61465]],"type":"LineString"}
}
