{
  "id": 2014686161,
  "type": "Feature",
  "properties": {
    "geom:area": 0,
    "geom:bbox": "-122.383320,37.632360,-121.250080,37.993010",
    "geom:latitude": 37.93619941564265,
    "geom:longitude": -121.93630251250346,
    "src:alt_label": "swim-takeoff",
    "src:geom": "swim",
    "swim:elevations": [
      213,
      425,
      725,
      1095,
      1379,
      1720,
      2038,
      2416,
      2927,
      3204,
      3368,
      3597,
      4090,
      4642,
      4811,
      5059,
      5465,
      5655,
      6000,
      6205,
      6680,
      6875,
      7061,
      7353,
      7573,
      7872,
      8076
    ],
    "swim:geom": "takeoff",
    "swim:timestamps": [
      1769907838,
      1769907853,
      1769907874,
      1769907911,
      1769907952,
      1769907979,
      1769908003,
      1769908033,
      1769908075,
      1769908099,
      1769908117,
      1769908140,
      1769908176,
      1769908228,
      1769908246,
      1769908270,
      1769908315,
      1769908333,
      1769908366,
      1769908390,
      1769908438,
      1769908462,
      1769908484,
      1769908520,
      1769908547,
      1769908583,
      1769908613
    ],
    "wof:geomhash": "3c0c7674257870624af00007724a00e1",
    "wof:id": 2014686161,
    "wof:repo": "sfomuseum-data-flights-2026-01"
  },
  "bbox": [
    -122.38332,
    37.63236,
    -121.25008,
    37.99301
  ],
  "geometry": {"coordinates":[[-122.3635,37.63236],[-122.35373,37.64239],[-122.33595,37.6538],[-122.31421,37.6821],[-122.31832,37.72458],[-122.33755,37.75275],[-122.35356,37.78023],[-122.37152,37.81646],[-122.38332,37.87374],[-122.37381,37.90838],[-122.35789,37.93315],[-122.32374,37.95914],[-122.25288,37.97138],[-122.14453,37.98038],[-122.10602,37.98271],[-122.05367,37.98614],[-121.95452,37.99113],[-121.91407,37.99198],[-121.83942,37.99301],[-121.78445,37.99243],[-121.67255,37.99212],[-121.61641,37.9914],[-121.56621,37.99005],[-121.48003,37.98757],[-121.41445,37.98924],[-121.32418,37.99108],[-121.25008,37.99101]],"type":"LineString"}
}
