{
  "id": 2014682389,
  "type": "Feature",
  "properties": {
    "geom:area": 0,
    "geom:bbox": "-123.469810,36.978490,-122.181550,37.606150",
    "geom:latitude": 37.283262921311014,
    "geom:longitude": -122.73329836410412,
    "src:alt_label": "swim-approach",
    "src:geom": "swim",
    "swim:elevations": [
      5434,
      5243,
      5045,
      4686,
      4581,
      4328,
      4132,
      3723,
      3582,
      3356,
      3181,
      3075,
      3047,
      3045,
      2887,
      2807,
      2606,
      2387,
      2211,
      2068,
      1920,
      1829,
      1829,
      1829,
      1829,
      1829,
      1829,
      1829,
      1554,
      1462,
      1276,
      1173,
      1022,
      758,
      721,
      540,
      424,
      301,
      169,
      91
    ],
    "swim:geom": "approach",
    "swim:timestamps": [
      1769892807,
      1769892829,
      1769892850,
      1769892886,
      1769892896,
      1769892922,
      1769892942,
      1769892985,
      1769892999,
      1769893022,
      1769893066,
      1769893108,
      1769893133,
      1769893167,
      1769893195,
      1769893207,
      1769893236,
      1769893276,
      1769893306,
      1769893341,
      1769893364,
      1769893407,
      1769893434,
      1769893444,
      1769893460,
      1769893483,
      1769893518,
      1769893534,
      1769893588,
      1769893606,
      1769893640,
      1769893665,
      1769893690,
      1769893738,
      1769893747,
      1769893782,
      1769893809,
      1769893841,
      1769893876,
      1769893893
    ],
    "wof:geomhash": "616103a1e754676d0e7ad203de52255b",
    "wof:id": 2014682389,
    "wof:repo": "sfomuseum-data-flights-2026-01"
  },
  "bbox": [
    -123.46981,
    36.97849,
    -122.18155,
    37.60615
  ],
  "geometry": {"coordinates":[[-123.46981,36.97849],[-123.42369,36.99961],[-123.37922,37.02021],[-123.30508,37.05475],[-123.28355,37.06466],[-123.23075,37.08898],[-123.19032,37.10771],[-123.10496,37.14707],[-123.07906,37.15886],[-123.03452,37.17932],[-122.95241,37.21697],[-122.88193,37.24921],[-122.84234,37.26262],[-122.78674,37.27206],[-122.74144,37.27915],[-122.72235,37.28228],[-122.6773,37.28935],[-122.61526,37.30576],[-122.5759,37.33012],[-122.52992,37.35752],[-122.49925,37.37525],[-122.43459,37.37998],[-122.39547,37.37888],[-122.38114,37.37851],[-122.35933,37.37798],[-122.3272,37.37733],[-122.27693,37.37637],[-122.25418,37.37908],[-122.19499,37.41731],[-122.18978,37.43649],[-122.18476,37.47258],[-122.18155,37.49599],[-122.1876,37.51735],[-122.21204,37.55156],[-122.22015,37.55488],[-122.25342,37.56733],[-122.27734,37.57771],[-122.30397,37.58877],[-122.33094,37.60014],[-122.34499,37.60615]],"type":"LineString"}
}
