{
  "id": 2014686095,
  "type": "Feature",
  "properties": {
    "geom:area": 0,
    "geom:bbox": "-122.357070,37.639700,-121.244460,38.426690",
    "geom:latitude": 38.042660472141925,
    "geom:longitude": -121.80917207984307,
    "src:alt_label": "swim-takeoff",
    "src:geom": "swim",
    "swim:elevations": [
      424,
      539,
      1063,
      1207,
      1426,
      2111,
      2389,
      2726,
      3169,
      3286,
      3621,
      3811,
      4211,
      4546,
      4753,
      5368,
      5458,
      5664,
      6154,
      6404,
      6507,
      6916,
      7003,
      7454
    ],
    "swim:geom": "takeoff",
    "swim:timestamps": [
      1769867038,
      1769867045,
      1769867093,
      1769867111,
      1769867134,
      1769867188,
      1769867205,
      1769867229,
      1769867268,
      1769867286,
      1769867330,
      1769867352,
      1769867392,
      1769867420,
      1769867437,
      1769867489,
      1769867500,
      1769867520,
      1769867574,
      1769867601,
      1769867615,
      1769867663,
      1769867671,
      1769867725
    ],
    "wof:geomhash": "818b990bc9eea4bbe2f60da80a1e8ca3",
    "wof:id": 2014686095,
    "wof:repo": "sfomuseum-data-flights-2026-01"
  },
  "bbox": [
    -122.35707,
    37.6397,
    -121.24446,
    38.42669
  ],
  "geometry": {"coordinates":[[-122.35707,37.6397],[-122.35109,37.64347],[-122.30745,37.66723],[-122.29059,37.67673],[-122.26521,37.69112],[-122.20159,37.73218],[-122.18552,37.75016],[-122.16166,37.77617],[-122.1213,37.82053],[-122.10179,37.842],[-122.04154,37.89777],[-122.00335,37.92382],[-121.93094,37.97272],[-121.87789,38.00867],[-121.8463,38.03013],[-121.74567,38.09822],[-121.72248,38.11371],[-121.68366,38.13975],[-121.57435,38.21317],[-121.51817,38.25066],[-121.48922,38.26997],[-121.38483,38.33947],[-121.36791,38.35067],[-121.24446,38.42669]],"type":"LineString"}
}
