{
  "id": 2014683177,
  "type": "Feature",
  "properties": {
    "geom:area": 0,
    "geom:bbox": "-122.451700,36.949330,-121.246350,37.706220",
    "geom:latitude": 37.31182001033382,
    "geom:longitude": -121.9440855292695,
    "src:alt_label": "swim-takeoff",
    "src:geom": "swim",
    "swim:elevations": [
      122,
      452,
      699,
      822,
      894,
      1195,
      1529,
      1806,
      2426,
      2791,
      3220,
      3318,
      3429,
      3605,
      3870,
      4005,
      4613,
      4780,
      5198,
      5443,
      5853,
      5879,
      6322,
      6538,
      6681,
      6879,
      6938,
      7103,
      7344,
      7771,
      7906,
      8043,
      8210
    ],
    "swim:geom": "takeoff",
    "swim:timestamps": [
      1769902857,
      1769902877,
      1769902909,
      1769902933,
      1769902948,
      1769902977,
      1769903001,
      1769903019,
      1769903058,
      1769903085,
      1769903119,
      1769903137,
      1769903158,
      1769903187,
      1769903208,
      1769903223,
      1769903268,
      1769903289,
      1769903328,
      1769903352,
      1769903397,
      1769903400,
      1769903456,
      1769903478,
      1769903499,
      1769903526,
      1769903535,
      1769903559,
      1769903589,
      1769903637,
      1769903667,
      1769903688,
      1769903722
    ],
    "wof:geomhash": "e49eaa41d1f85635744590a89dd212d0",
    "wof:id": 2014683177,
    "wof:repo": "sfomuseum-data-flights-2026-01"
  },
  "bbox": [
    -122.4517,
    36.94933,
    -121.24635,
    37.70622
  ],
  "geometry": {"coordinates":[[-122.369,37.62889],[-122.36349,37.64383],[-122.36175,37.67072],[-122.36666,37.69417],[-122.3805,37.70622],[-122.4215,37.7061],[-122.44208,37.68225],[-122.4449,37.66027],[-122.4517,37.613],[-122.4342,37.58341],[-122.39253,37.55381],[-122.36952,37.53657],[-122.34061,37.51536],[-122.29744,37.48397],[-122.26492,37.46049],[-122.24151,37.44359],[-122.17146,37.39286],[-122.13797,37.36841],[-122.06643,37.32973],[-122.01992,37.30836],[-121.93111,37.26753],[-121.92517,37.26482],[-121.8112,37.21233],[-121.76574,37.19139],[-121.72313,37.17173],[-121.6667,37.1456],[-121.64765,37.13678],[-121.59657,37.11302],[-121.53232,37.08313],[-121.42973,37.03552],[-121.36577,37.00564],[-121.32028,36.9839],[-121.24635,36.94933]],"type":"LineString"}
}
