{
  "id": 2014682303,
  "type": "Feature",
  "properties": {
    "geom:area": 0,
    "geom:bbox": "-122.351400,37.491840,-121.243180,37.611260",
    "geom:latitude": 37.546609795311745,
    "geom:longitude": -121.80210503020042,
    "src:alt_label": "swim-approach",
    "src:geom": "swim",
    "swim:elevations": [
      5034,
      4993,
      4911,
      4593,
      4334,
      4254,
      3985,
      3517,
      3277,
      3143,
      3071,
      2831,
      2535,
      2338,
      2154,
      2027,
      1922,
      1775,
      1716,
      1567,
      1335,
      1250,
      1120,
      984,
      750,
      690,
      576,
      378,
      242,
      152,
      88,
      47
    ],
    "swim:geom": "approach",
    "swim:timestamps": [
      1769892327,
      1769892336,
      1769892348,
      1769892388,
      1769892415,
      1769892424,
      1769892450,
      1769892508,
      1769892538,
      1769892556,
      1769892575,
      1769892607,
      1769892652,
      1769892686,
      1769892716,
      1769892742,
      1769892772,
      1769892807,
      1769892815,
      1769892841,
      1769892883,
      1769892896,
      1769892922,
      1769892942,
      1769892988,
      1769893002,
      1769893025,
      1769893072,
      1769893099,
      1769893120,
      1769893136,
      1769893145
    ],
    "wof:geomhash": "561e1908f2b3660852ff56a600b1eacf",
    "wof:id": 2014682303,
    "wof:repo": "sfomuseum-data-flights-2026-01"
  },
  "bbox": [
    -122.3514,
    37.49184,
    -121.24318,
    37.61126
  ],
  "geometry": {"coordinates":[[-121.24318,37.59536],[-121.26033,37.59307],[-121.28263,37.59021],[-121.35337,37.58233],[-121.39929,37.57701],[-121.41379,37.57543],[-121.45769,37.57031],[-121.55367,37.55923],[-121.6039,37.55331],[-121.63371,37.54858],[-121.66239,37.54175],[-121.71247,37.52982],[-121.78109,37.51345],[-121.83008,37.50175],[-121.87407,37.49206],[-121.91282,37.49184],[-121.95464,37.493],[-121.99847,37.49796],[-122.00866,37.50131],[-122.03979,37.51142],[-122.0909,37.52796],[-122.10707,37.53329],[-122.1375,37.54318],[-122.16013,37.55054],[-122.20814,37.56596],[-122.22179,37.57041],[-122.24667,37.57841],[-122.29087,37.59169],[-122.31417,37.59853],[-122.33185,37.60375],[-122.3444,37.6083],[-122.3514,37.61126]],"type":"LineString"}
}
