{
  "id": 2014682739,
  "type": "Feature",
  "properties": {
    "geom:area": 0,
    "geom:bbox": "-122.360430,36.733430,-121.886070,37.612640",
    "geom:latitude": 37.215702089496396,
    "geom:longitude": -122.07295945445014,
    "src:alt_label": "swim-approach",
    "src:geom": "swim",
    "swim:elevations": [
      5109,
      4944,
      4735,
      4565,
      4390,
      4156,
      3933,
      3781,
      3522,
      3455,
      3075,
      2824,
      2627,
      2497,
      2418,
      2282,
      2113,
      2047,
      1703,
      1491,
      1299,
      1190,
      1061,
      950,
      866,
      635,
      513,
      443,
      311,
      231,
      112,
      0
    ],
    "swim:geom": "approach",
    "swim:timestamps": [
      1769887126,
      1769887141,
      1769887171,
      1769887192,
      1769887219,
      1769887248,
      1769887283,
      1769887304,
      1769887342,
      1769887354,
      1769887402,
      1769887430,
      1769887458,
      1769887480,
      1769887525,
      1769887541,
      1769887585,
      1769887591,
      1769887640,
      1769887670,
      1769887705,
      1769887725,
      1769887747,
      1769887768,
      1769887780,
      1769887825,
      1769887854,
      1769887870,
      1769887901,
      1769887924,
      1769887955,
      1769887976
    ],
    "wof:geomhash": "e7bb799bef9b408a291d3f12280e8c45",
    "wof:id": 2014682739,
    "wof:repo": "sfomuseum-data-flights-2026-01"
  },
  "bbox": [
    -122.36043,
    36.73343,
    -121.88607,
    37.61264
  ],
  "geometry": {"coordinates":[[-121.88607,36.73343],[-121.89718,36.7558],[-121.91152,36.80236],[-121.92051,36.8342],[-121.93152,36.87438],[-121.94322,36.91661],[-121.9592,36.96715],[-121.97036,36.99616],[-121.99031,37.04712],[-121.99654,37.06334],[-122.02195,37.12831],[-122.03708,37.16712],[-122.05237,37.20613],[-122.06382,37.2354],[-122.08705,37.29473],[-122.09547,37.31594],[-122.11645,37.36973],[-122.11914,37.37639],[-122.13671,37.42729],[-122.14671,37.45511],[-122.16095,37.48441],[-122.17218,37.50029],[-122.18406,37.51731],[-122.19554,37.53369],[-122.20241,37.54304],[-122.24108,37.56207],[-122.26601,37.57272],[-122.27872,37.57814],[-122.30301,37.58843],[-122.32052,37.5956],[-122.3447,37.60591],[-122.36043,37.61264]],"type":"LineString"}
}
