{
  "id": 2014681247,
  "type": "Feature",
  "properties": {
    "date:inception_lower": "2026-01-31",
    "date:inception_upper": "2026-01-31",
    "edtf:cessation": "",
    "edtf:inception": "2026-01-31",
    "flysfo:actual_timestamp": -1,
    "flysfo:airline": "DL",
    "flysfo:date": "2026-01-31",
    "flysfo:estimated_timestamp": 1769869140,
    "flysfo:event": "A",
    "flysfo:flight_number": "DL8841",
    "flysfo:gate": "",
    "flysfo:journey": "PDX-SFO",
    "flysfo:scheduled_timestamp": 1769864040,
    "flysfo:timestamp": 1769869140,
    "geom:area": 0,
    "geom:bbox": "-122.597389,37.617990,-122.370943,45.586144",
    "geom:latitude": 41.602067,
    "geom:longitude": -122.484166,
    "iata:airline": "DL",
    "icao:airline": "DAL",
    "lbl:latitude": 37.61799,
    "lbl:longitude": -122.370943,
    "sfomuseum:airline_id": 1159284261,
    "sfomuseum:arrival_id": 102527513,
    "sfomuseum:departure_id": 102532251,
    "sfomuseum:flight_id": "20260131-A-DAL-8841",
    "sfomuseum:flight_number": [
      "DAL8841",
      "DL8841"
    ],
    "sfomuseum:placetype": "flight",
    "src:geom": "flysfo",
    "wof:belongsto": [],
    "wof:country": "US",
    "wof:created": 1769961924,
    "wof:geomhash": "3af422147b92e6fa9912d38a57ea404a",
    "wof:hierarchy": [
      {
        "custom_id": 2014681247,
        "flight_id": 2014681247
      }
    ],
    "wof:id": 2014681247,
    "wof:involves": [
      102527513,
      102532251,
      1159284261,
      -1
    ],
    "wof:lastmodified": 1769961924,
    "wof:name": "DL8841 (PDX-SFO)",
    "wof:parent_id": -1,
    "wof:placetype": "custom",
    "wof:placetype_alt": [
      "flight"
    ],
    "wof:repo": "sfomuseum-data-flights-2026-01",
    "wof:superseded_by": [],
    "wof:supersedes": []
  },
  "bbox": [
    -122.597389,
    37.61799,
    -122.370943,
    45.586144
  ],
  "geometry": {"coordinates":[[-122.597389,45.586144],[-122.370943,37.61799]],"type":"MultiPoint"}
}
