{
  "id": 2014686035,
  "type": "Feature",
  "properties": {
    "geom:area": 0,
    "geom:bbox": "-122.363620,37.630340,-122.116330,38.513990",
    "geom:latitude": 38.03883284944308,
    "geom:longitude": -122.17823179751545,
    "src:alt_label": "swim-takeoff",
    "src:geom": "swim",
    "swim:elevations": [
      313,
      1101,
      1582,
      2190,
      2630,
      2898,
      3302,
      3603,
      4293,
      4615,
      5023,
      5369,
      5718,
      6076,
      6365,
      7059,
      7422,
      7565
    ],
    "swim:geom": "takeoff",
    "swim:timestamps": [
      1769876536,
      1769876591,
      1769876654,
      1769876697,
      1769876718,
      1769876733,
      1769876768,
      1769876794,
      1769876841,
      1769876862,
      1769876895,
      1769876926,
      1769876956,
      1769876987,
      1769877012,
      1769877074,
      1769877114,
      1769877135
    ],
    "wof:geomhash": "196d926aa82e5f40c173ebc6218ff21a",
    "wof:id": 2014686035,
    "wof:repo": "sfomuseum-data-flights-2026-01"
  },
  "bbox": [
    -122.36362,
    37.63034,
    -122.11633,
    38.51399
  ],
  "geometry": {"coordinates":[[-122.36362,37.63034],[-122.32476,37.65414],[-122.26813,37.68935],[-122.21666,37.72502],[-122.2092,37.75237],[-122.20558,37.77292],[-122.1969,37.82286],[-122.18986,37.86576],[-122.17694,37.9458],[-122.1711,37.98218],[-122.16154,38.04097],[-122.15216,38.09712],[-122.1429,38.15286],[-122.13274,38.21404],[-122.1245,38.26338],[-122.11633,38.38907],[-122.12194,38.47041],[-122.12491,38.51399]],"type":"LineString"}
}
