{
  "id": 2014685999,
  "type": "Feature",
  "properties": {
    "geom:area": 0,
    "geom:bbox": "-122.367530,37.626890,-121.244060,38.425550",
    "geom:latitude": 38.03784774540082,
    "geom:longitude": -121.81616670852354,
    "src:alt_label": "swim-takeoff",
    "src:geom": "swim",
    "swim:elevations": [
      122,
      396,
      983,
      1203,
      1375,
      1813,
      2508,
      3052,
      3194,
      3393,
      3698,
      4344,
      4538,
      5106,
      5548,
      6087,
      6521,
      6976,
      7154,
      7400,
      7715,
      8187,
      8636
    ],
    "swim:geom": "takeoff",
    "swim:timestamps": [
      1769859357,
      1769859371,
      1769859413,
      1769859435,
      1769859453,
      1769859491,
      1769859533,
      1769859568,
      1769859578,
      1769859609,
      1769859636,
      1769859685,
      1769859698,
      1769859734,
      1769859769,
      1769859813,
      1769859853,
      1769859895,
      1769859911,
      1769859933,
      1769859964,
      1769860015,
      1769860062
    ],
    "wof:geomhash": "16ff5ec950c435c948d90c47ea21fdbb",
    "wof:id": 2014685999,
    "wof:repo": "sfomuseum-data-flights-2026-01"
  },
  "bbox": [
    -122.36753,
    37.62689,
    -121.24406,
    38.42555
  ],
  "geometry": {"coordinates":[[-122.36753,37.62689],[-122.361,37.63672],[-122.32855,37.65736],[-122.30829,37.66832],[-122.28961,37.67861],[-122.24279,37.70374],[-122.19331,37.74076],[-122.15892,37.7797],[-122.14837,37.79159],[-122.11354,37.8302],[-122.07983,37.86684],[-121.9996,37.92804],[-121.97608,37.94394],[-121.91216,37.98709],[-121.8477,38.03044],[-121.76505,38.08579],[-121.68738,38.13726],[-121.60246,38.19392],[-121.57038,38.21533],[-121.52438,38.24613],[-121.46159,38.2881],[-121.35252,38.35996],[-121.24406,38.42555]],"type":"LineString"}
}
