{
  "id": 2014683645,
  "type": "Feature",
  "properties": {
    "geom:area": 0,
    "geom:bbox": "-122.359720,37.638030,-122.194200,38.511290",
    "geom:latitude": 38.041201257259715,
    "geom:longitude": -122.21383691264573,
    "src:alt_label": "swim-takeoff",
    "src:geom": "swim",
    "swim:elevations": [
      244,
      514,
      697,
      1066,
      1250,
      1333,
      1796,
      2168,
      2519,
      2749,
      3168,
      3350,
      3596,
      3819,
      4216,
      4595,
      4769,
      5237,
      5473,
      5626,
      5940,
      6191
    ],
    "swim:geom": "takeoff",
    "swim:timestamps": [
      1769882874,
      1769882897,
      1769882918,
      1769882960,
      1769882992,
      1769883006,
      1769883058,
      1769883088,
      1769883117,
      1769883137,
      1769883169,
      1769883204,
      1769883236,
      1769883257,
      1769883292,
      1769883325,
      1769883340,
      1769883381,
      1769883415,
      1769883432,
      1769883463,
      1769883489
    ],
    "wof:geomhash": "8562086ffb774162d9a417cff47bcc49",
    "wof:id": 2014683645,
    "wof:repo": "sfomuseum-data-flights-2026-01"
  },
  "bbox": [
    -122.35972,
    37.63803,
    -122.1942,
    38.51129
  ],
  "geometry": {"coordinates":[[-122.35972,37.63803],[-122.34141,37.64963],[-122.32308,37.65874],[-122.28641,37.67943],[-122.25356,37.69758],[-122.23643,37.70629],[-122.20636,37.76475],[-122.19974,37.804],[-122.19423,37.84337],[-122.1942,37.87088],[-122.1947,37.91719],[-122.19542,37.971],[-122.19579,38.02447],[-122.19601,38.06129],[-122.19658,38.12472],[-122.19704,38.18423],[-122.19724,38.21351],[-122.19788,38.29201],[-122.19836,38.35928],[-122.19858,38.3922],[-122.19891,38.45712],[-122.19925,38.51129]],"type":"LineString"}
}
