{
  "id": 2014682533,
  "type": "Feature",
  "properties": {
    "geom:area": 0,
    "geom:bbox": "-122.357330,36.722310,-121.878090,37.611250",
    "geom:latitude": 37.208485371639874,
    "geom:longitude": -122.06946634765521,
    "src:alt_label": "swim-approach",
    "src:geom": "swim",
    "swim:elevations": [
      5230,
      4923,
      4481,
      4330,
      3898,
      3596,
      3468,
      3204,
      3077,
      2905,
      2746,
      2711,
      2531,
      2371,
      2123,
      1814,
      1798,
      1670,
      1579,
      1372,
      1337,
      964,
      820,
      600,
      452,
      350,
      272,
      109,
      13
    ],
    "swim:geom": "approach",
    "swim:timestamps": [
      1769886703,
      1769886738,
      1769886778,
      1769886793,
      1769886833,
      1769886865,
      1769886881,
      1769886917,
      1769886953,
      1769886985,
      1769887012,
      1769887021,
      1769887045,
      1769887067,
      1769887099,
      1769887138,
      1769887141,
      1769887171,
      1769887192,
      1769887224,
      1769887232,
      1769887283,
      1769887304,
      1769887348,
      1769887373,
      1769887389,
      1769887413,
      1769887450,
      1769887474
    ],
    "wof:geomhash": "86fe1aff29495ad1037268caa540035b",
    "wof:id": 2014682533,
    "wof:repo": "sfomuseum-data-flights-2026-01"
  },
  "bbox": [
    -122.35733,
    36.72231,
    -121.87809,
    37.61125
  ],
  "geometry": {"coordinates":[[-121.87809,36.72231],[-121.90591,36.78377],[-121.92679,36.85805],[-121.93428,36.88491],[-121.95408,36.95451],[-121.97429,37.00638],[-121.98425,37.03214],[-122.0047,37.08421],[-122.02547,37.13745],[-122.04267,37.18147],[-122.05631,37.21626],[-122.06044,37.22664],[-122.07293,37.25834],[-122.08373,37.28614],[-122.1001,37.32758],[-122.11953,37.37694],[-122.12095,37.38063],[-122.13292,37.4165],[-122.14101,37.44012],[-122.15471,37.47321],[-122.1588,37.48145],[-122.19206,37.52895],[-122.20735,37.54731],[-122.25285,37.5674],[-122.27718,37.57767],[-122.29216,37.58384],[-122.31219,37.59232],[-122.33999,37.60388],[-122.35733,37.61125]],"type":"LineString"}
}
