{
  "id": 2014681719,
  "type": "Feature",
  "properties": {
    "geom:area": 0,
    "geom:bbox": "-122.353610,37.490720,-121.267150,37.614470",
    "geom:latitude": 37.545415029296905,
    "geom:longitude": -121.81562568305424,
    "src:alt_label": "swim-approach",
    "src:geom": "swim",
    "swim:elevations": [
      4783,
      4467,
      4164,
      4041,
      3619,
      3431,
      3249,
      3168,
      2880,
      2508,
      2439,
      2438,
      2285,
      2180,
      2073,
      1831,
      1814,
      1697,
      1608,
      1392,
      1149,
      973,
      939,
      899,
      646,
      522,
      504,
      369,
      283,
      242,
      114,
      19
    ],
    "swim:geom": "approach",
    "swim:timestamps": [
      1769895267,
      1769895296,
      1769895325,
      1769895335,
      1769895375,
      1769895393,
      1769895413,
      1769895428,
      1769895478,
      1769895508,
      1769895532,
      1769895557,
      1769895597,
      1769895616,
      1769895634,
      1769895688,
      1769895716,
      1769895736,
      1769895748,
      1769895778,
      1769895804,
      1769895838,
      1769895851,
      1769895879,
      1769895927,
      1769895954,
      1769895960,
      1769895988,
      1769896012,
      1769896024,
      1769896060,
      1769896087
    ],
    "wof:geomhash": "06e64c8420dd25100b1aa1c844d214e0",
    "wof:id": 2014681719,
    "wof:repo": "sfomuseum-data-flights-2026-01"
  },
  "bbox": [
    -122.35361,
    37.49072,
    -121.26715,
    37.61447
  ],
  "geometry": {"coordinates":[[-121.26715,37.59237],[-121.32238,37.58504],[-121.37686,37.57867],[-121.39595,37.5765],[-121.47135,37.56807],[-121.50534,37.56421],[-121.54389,37.55974],[-121.57057,37.55669],[-121.65555,37.54328],[-121.70474,37.53137],[-121.74335,37.52201],[-121.77981,37.51352],[-121.83735,37.49969],[-121.86427,37.49327],[-121.8899,37.49072],[-121.9652,37.49327],[-121.99992,37.49824],[-122.02396,37.50648],[-122.03811,37.51104],[-122.07352,37.52249],[-122.10386,37.53218],[-122.14305,37.54491],[-122.15654,37.54934],[-122.18584,37.55881],[-122.23432,37.57445],[-122.25989,37.58272],[-122.26516,37.58434],[-122.28792,37.59084],[-122.30627,37.59622],[-122.31528,37.59885],[-122.34211,37.60741],[-122.35361,37.61447]],"type":"LineString"}
}
