{
  "id": 2014679591,
  "type": "Feature",
  "properties": {
    "geom:area": 0,
    "geom:bbox": "-122.357960,37.491290,-121.260620,37.614190",
    "geom:latitude": 37.546323083879514,
    "geom:longitude": -121.81425507848627,
    "src:alt_label": "swim-approach",
    "src:geom": "swim",
    "swim:elevations": [
      4714,
      4633,
      4424,
      4308,
      4050,
      3882,
      3652,
      3388,
      3347,
      3128,
      3020,
      2749,
      2604,
      2375,
      2226,
      2076,
      2025,
      1931,
      1869,
      1676,
      1612,
      1374,
      1189,
      1030,
      833,
      640,
      522,
      488,
      332,
      241,
      211,
      133,
      29,
      90
    ],
    "swim:geom": "approach",
    "swim:timestamps": [
      1769895560,
      1769895570,
      1769895597,
      1769895613,
      1769895649,
      1769895673,
      1769895706,
      1769895742,
      1769895748,
      1769895778,
      1769895797,
      1769895838,
      1769895863,
      1769895897,
      1769895921,
      1769895951,
      1769895967,
      1769895988,
      1769896006,
      1769896045,
      1769896057,
      1769896096,
      1769896123,
      1769896153,
      1769896187,
      1769896217,
      1769896238,
      1769896260,
      1769896293,
      1769896314,
      1769896333,
      1769896348,
      1769896375,
      1769896380
    ],
    "wof:geomhash": "3a6cd70d20dfba254d461aec20ea1e71",
    "wof:id": 2014679591,
    "wof:repo": "sfomuseum-data-flights-2026-01"
  },
  "bbox": [
    -122.35796,
    37.49129,
    -121.26062,
    37.61419
  ],
  "geometry": {"coordinates":[[-121.26062,37.59314],[-121.28022,37.59054],[-121.32986,37.58496],[-121.35826,37.58192],[-121.42205,37.57439],[-121.46312,37.56976],[-121.51911,37.56329],[-121.57954,37.55619],[-121.5897,37.55496],[-121.63927,37.54718],[-121.66856,37.54026],[-121.73207,37.52513],[-121.76929,37.51626],[-121.81981,37.50426],[-121.8539,37.49575],[-121.89662,37.49129],[-121.91918,37.4922],[-121.94759,37.49304],[-121.97065,37.49363],[-122.01911,37.5048],[-122.03342,37.50939],[-122.07979,37.52441],[-122.11168,37.53486],[-122.14707,37.54634],[-122.18565,37.55873],[-122.21877,37.56919],[-122.23994,37.5762],[-122.26193,37.58324],[-122.29027,37.59215],[-122.30749,37.5963],[-122.3225,37.60001],[-122.3347,37.60412],[-122.35447,37.61246],[-122.35796,37.61419]],"type":"LineString"}
}
