{
  "id": 2014686291,
  "type": "Feature",
  "properties": {
    "geom:area": 0,
    "geom:bbox": "-123.484360,37.038110,-122.411190,37.665920",
    "geom:latitude": 37.37935842907025,
    "geom:longitude": -122.95425053073762,
    "src:alt_label": "swim-takeoff",
    "src:geom": "swim",
    "swim:elevations": [
      393,
      699,
      819,
      910,
      1012,
      1385,
      1566,
      1897,
      2375,
      3096,
      3301,
      3477,
      3517,
      3647,
      3739,
      4304,
      4637,
      4784,
      5046,
      5316,
      5381,
      5585,
      5816,
      6090,
      6233,
      6681,
      6741,
      7120,
      7179,
      7407,
      7437
    ],
    "swim:geom": "takeoff",
    "swim:timestamps": [
      1769902248,
      1769902278,
      1769902291,
      1769902336,
      1769902354,
      1769902378,
      1769902391,
      1769902415,
      1769902445,
      1769902498,
      1769902528,
      1769902552,
      1769902558,
      1769902577,
      1769902590,
      1769902642,
      1769902672,
      1769902683,
      1769902707,
      1769902734,
      1769902740,
      1769902764,
      1769902787,
      1769902818,
      1769902833,
      1769902883,
      1769902892,
      1769902939,
      1769902948,
      1769902975,
      1769902981
    ],
    "wof:geomhash": "e7b867109f23ebaf8665d7f9a5df1bb8",
    "wof:id": 2014686291,
    "wof:repo": "sfomuseum-data-flights-2026-01"
  },
  "bbox": [
    -123.48436,
    37.03811,
    -122.41119,
    37.66592
  ],
  "geometry": {"coordinates":[[-122.41119,37.63399],[-122.43992,37.64694],[-122.45261,37.65257],[-122.50902,37.66592],[-122.5333,37.65657],[-122.562,37.63765],[-122.57796,37.62719],[-122.60639,37.60863],[-122.64268,37.58562],[-122.70655,37.54458],[-122.74486,37.51973],[-122.7773,37.49816],[-122.7858,37.49257],[-122.81462,37.47424],[-122.83386,37.46202],[-122.91669,37.40912],[-122.96307,37.37878],[-122.9808,37.36734],[-123.01947,37.34237],[-123.06428,37.31308],[-123.07405,37.3067],[-123.11324,37.28109],[-123.15142,37.25613],[-123.20292,37.2227],[-123.2282,37.2062],[-123.31309,37.15062],[-123.32867,37.14045],[-123.40987,37.08712],[-123.42147,37.07938],[-123.47289,37.04553],[-123.48436,37.03811]],"type":"LineString"}
}
