{
  "id": 2014685907,
  "type": "Feature",
  "properties": {
    "geom:area": 0,
    "geom:bbox": "-122.523520,36.736930,-122.150790,37.676520",
    "geom:latitude": 37.205906412830586,
    "geom:longitude": -122.39917494298912,
    "src:alt_label": "swim-takeoff",
    "src:geom": "swim",
    "swim:elevations": [
      314,
      458,
      743,
      927,
      1174,
      1218,
      1923,
      2262,
      2813,
      3235,
      3513,
      4152,
      4534,
      4826,
      5456,
      5484,
      6090,
      6471,
      6838,
      7165,
      7227,
      7344,
      7693,
      7955,
      8481,
      8677,
      8842,
      8839
    ],
    "swim:geom": "takeoff",
    "swim:timestamps": [
      1769887192,
      1769887207,
      1769887228,
      1769887245,
      1769887283,
      1769887290,
      1769887339,
      1769887357,
      1769887389,
      1769887424,
      1769887458,
      1769887498,
      1769887525,
      1769887541,
      1769887588,
      1769887591,
      1769887637,
      1769887666,
      1769887701,
      1769887738,
      1769887747,
      1769887759,
      1769887795,
      1769887813,
      1769887854,
      1769887879,
      1769887912,
      1769887933
    ],
    "wof:geomhash": "f317befbe6d9cc90112f411b52103ea7",
    "wof:id": 2014685907,
    "wof:repo": "sfomuseum-data-flights-2026-01"
  },
  "bbox": [
    -122.52352,
    36.73693,
    -122.15079,
    37.67652
  ],
  "geometry": {"coordinates":[[-122.36453,37.63688],[-122.36353,37.64847],[-122.36295,37.66508],[-122.36958,37.67652],[-122.40611,37.67032],[-122.4102,37.66436],[-122.42248,37.60781],[-122.4276,37.58631],[-122.43632,37.54755],[-122.44644,37.50423],[-122.45866,37.45389],[-122.47296,37.39291],[-122.48316,37.35059],[-122.48891,37.32521],[-122.50643,37.25125],[-122.50764,37.24649],[-122.52352,37.17282],[-122.50381,37.12698],[-122.45827,37.07794],[-122.41059,37.02526],[-122.39862,37.01206],[-122.38246,36.99435],[-122.33374,36.94068],[-122.30968,36.91336],[-122.25514,36.85334],[-122.22257,36.8174],[-122.17926,36.76885],[-122.15079,36.73693]],"type":"LineString"}
}
