{
  "id": 2014684791,
  "type": "Feature",
  "properties": {
    "geom:area": 0,
    "geom:bbox": "-122.363320,37.632200,-122.115900,38.491210",
    "geom:latitude": 38.02842793356236,
    "geom:longitude": -122.17914131086182,
    "src:alt_label": "swim-takeoff",
    "src:geom": "swim",
    "swim:elevations": [
      393,
      622,
      877,
      996,
      1185,
      1423,
      1862,
      2337,
      2676,
      3139,
      3283,
      3338,
      3649,
      4186,
      4212,
      4713,
      4841,
      5165,
      5433,
      5718,
      5886,
      6131
    ],
    "swim:geom": "takeoff",
    "swim:timestamps": [
      1769855568,
      1769855592,
      1769855629,
      1769855641,
      1769855664,
      1769855686,
      1769855717,
      1769855751,
      1769855777,
      1769855813,
      1769855837,
      1769855858,
      1769855887,
      1769855937,
      1769855941,
      1769855991,
      1769856007,
      1769856040,
      1769856080,
      1769856111,
      1769856135,
      1769856171
    ],
    "wof:geomhash": "29cdb19ca2d5762a99a3b8accc307a9f",
    "wof:id": 2014684791,
    "wof:repo": "sfomuseum-data-flights-2026-01"
  },
  "bbox": [
    -122.36332,
    37.6322,
    -122.1159,
    38.49121
  ],
  "geometry": {"coordinates":[[-122.36332,37.6322],[-122.34682,37.64337],[-122.31291,37.66329],[-122.30128,37.67006],[-122.27441,37.68544],[-122.24781,37.70114],[-122.21416,37.72945],[-122.20533,37.7729],[-122.19937,37.80878],[-122.19157,37.85711],[-122.18609,37.89291],[-122.18077,37.92523],[-122.17232,37.97481],[-122.15867,38.05852],[-122.15745,38.06602],[-122.1427,38.15571],[-122.13791,38.18428],[-122.12778,38.24562],[-122.1159,38.31825],[-122.11591,38.37673],[-122.11895,38.42219],[-122.12358,38.49121]],"type":"LineString"}
}
