{
  "id": 2014684955,
  "type": "Feature",
  "properties": {
    "geom:area": 0,
    "geom:bbox": "-122.469370,37.154970,-121.264900,37.725130",
    "geom:latitude": 37.38256079880418,
    "geom:longitude": -122.00041023164759,
    "src:alt_label": "swim-takeoff",
    "src:geom": "swim",
    "swim:elevations": [
      152,
      213,
      758,
      984,
      1296,
      1770,
      1972,
      2563,
      3137,
      3374,
      3549,
      3911,
      4403,
      4978,
      5444,
      5688,
      5773,
      6132,
      6567,
      6731,
      6843,
      6954,
      7304,
      7561,
      7694,
      8055,
      8230,
      8487,
      8597,
      8655,
      8950
    ],
    "swim:geom": "takeoff",
    "swim:timestamps": [
      1769878856,
      1769878860,
      1769878909,
      1769878941,
      1769878968,
      1769878997,
      1769879010,
      1769879044,
      1769879085,
      1769879120,
      1769879134,
      1769879161,
      1769879200,
      1769879242,
      1769879276,
      1769879302,
      1769879310,
      1769879345,
      1769879390,
      1769879408,
      1769879421,
      1769879433,
      1769879478,
      1769879508,
      1769879525,
      1769879568,
      1769879590,
      1769879636,
      1769879663,
      1769879678,
      1769879726
    ],
    "wof:geomhash": "3cb2f0e4271a8ba7f1ac34bf5b86819b",
    "wof:id": 2014684955,
    "wof:repo": "sfomuseum-data-flights-2026-01"
  },
  "bbox": [
    -122.46937,
    37.15497,
    -121.2649,
    37.72513
  ],
  "geometry": {"coordinates":[[-122.36922,37.62861],[-122.36719,37.63178],[-122.36074,37.67118],[-122.36448,37.70418],[-122.39565,37.72513],[-122.43793,37.71609],[-122.44913,37.704],[-122.45579,37.66202],[-122.46181,37.61104],[-122.4672,37.56355],[-122.46937,37.54339],[-122.46235,37.5021],[-122.40195,37.46459],[-122.31516,37.4469],[-122.24471,37.43193],[-122.19093,37.42021],[-122.17467,37.41667],[-122.104,37.39489],[-122.02766,37.34734],[-121.99686,37.32787],[-121.97436,37.31367],[-121.95419,37.30114],[-121.86012,37.26584],[-121.79216,37.2495],[-121.75345,37.24031],[-121.65199,37.22303],[-121.59995,37.21482],[-121.49124,37.19548],[-121.42298,37.18327],[-121.38822,37.17706],[-121.2649,37.15497]],"type":"LineString"}
}
