{
  "id": 2014685931,
  "type": "Feature",
  "properties": {
    "geom:area": 0,
    "geom:bbox": "-123.500130,37.434110,-122.396750,37.690020",
    "geom:latitude": 37.57915401326456,
    "geom:longitude": -122.94653613007354,
    "src:alt_label": "swim-takeoff",
    "src:geom": "swim",
    "swim:elevations": [
      213,
      482,
      826,
      1039,
      1241,
      1489,
      1720,
      2207,
      2432,
      3013,
      3225,
      3475,
      3590,
      3727,
      3779,
      4247,
      4667,
      4903,
      5093,
      5293,
      5320,
      5599,
      5921,
      6279,
      6331
    ],
    "swim:geom": "takeoff",
    "swim:timestamps": [
      1769850743,
      1769850768,
      1769850804,
      1769850831,
      1769850863,
      1769850890,
      1769850909,
      1769850944,
      1769850964,
      1769851008,
      1769851025,
      1769851063,
      1769851080,
      1769851104,
      1769851112,
      1769851155,
      1769851194,
      1769851224,
      1769851243,
      1769851262,
      1769851265,
      1769851304,
      1769851340,
      1769851376,
      1769851382
    ],
    "wof:geomhash": "3592fd69e10dbba5b0e64b16abfb11e7",
    "wof:id": 2014685931,
    "wof:repo": "sfomuseum-data-flights-2026-01"
  },
  "bbox": [
    -123.50013,
    37.43411,
    -122.39675,
    37.69002
  ],
  "geometry": {"coordinates":[[-122.39675,37.62775],[-122.42097,37.63792],[-122.45796,37.65275],[-122.48633,37.6641],[-122.5245,37.68004],[-122.56352,37.69002],[-122.59194,37.68571],[-122.64528,37.67095],[-122.67484,37.66269],[-122.74364,37.64376],[-122.77086,37.63631],[-122.83444,37.61899],[-122.86449,37.61072],[-122.91021,37.59826],[-122.92664,37.59375],[-123.01243,37.57012],[-123.09212,37.54806],[-123.15431,37.53073],[-123.19469,37.51953],[-123.23639,37.5079],[-123.24281,37.5061],[-123.32701,37.48264],[-123.40692,37.46025],[-123.48499,37.43835],[-123.50013,37.43411]],"type":"LineString"}
}
