{
  "id": 2014682475,
  "type": "Feature",
  "properties": {
    "geom:area": 0,
    "geom:bbox": "-122.359160,37.491540,-121.268710,37.614500",
    "geom:latitude": 37.54599562679387,
    "geom:longitude": -121.81885730303414,
    "src:alt_label": "swim-approach",
    "src:geom": "swim",
    "swim:elevations": [
      4297,
      4117,
      3899,
      3725,
      3601,
      3438,
      3163,
      3133,
      3047,
      2829,
      2597,
      2477,
      2373,
      2308,
      2135,
      1952,
      1739,
      1638,
      1329,
      1195,
      1010,
      828,
      638,
      614,
      474,
      364,
      300,
      217,
      172,
      91,
      26
    ],
    "swim:geom": "approach",
    "swim:timestamps": [
      1769885356,
      1769885378,
      1769885404,
      1769885428,
      1769885443,
      1769885464,
      1769885513,
      1769885526,
      1769885556,
      1769885599,
      1769885636,
      1769885658,
      1769885693,
      1769885714,
      1769885749,
      1769885783,
      1769885817,
      1769885829,
      1769885867,
      1769885886,
      1769885918,
      1769885951,
      1769885995,
      1769886001,
      1769886045,
      1769886066,
      1769886091,
      1769886112,
      1769886124,
      1769886147,
      1769886168
    ],
    "wof:geomhash": "c944477ee353714237bffebefc8c5dab",
    "wof:id": 2014682475,
    "wof:repo": "sfomuseum-data-flights-2026-01"
  },
  "bbox": [
    -122.35916,
    37.49154,
    -121.26871,
    37.6145
  ],
  "geometry": {"coordinates":[[-121.26871,37.59189],[-121.30886,37.58709],[-121.35668,37.58196],[-121.40081,37.57703],[-121.4276,37.57388],[-121.46606,37.5693],[-121.55462,37.55907],[-121.57596,37.55657],[-121.62407,37.55025],[-121.69158,37.53489],[-121.75134,37.52047],[-121.78555,37.51239],[-121.8347,37.50059],[-121.86307,37.49393],[-121.91118,37.49154],[-121.95784,37.49294],[-122.00251,37.49917],[-122.01728,37.50382],[-122.06552,37.51982],[-122.08889,37.52758],[-122.1277,37.54021],[-122.16483,37.55222],[-122.21143,37.56709],[-122.21764,37.56909],[-122.26223,37.58317],[-122.28263,37.58875],[-122.3037,37.59496],[-122.32033,37.59983],[-122.32919,37.60249],[-122.34551,37.60851],[-122.35916,37.6145]],"type":"LineString"}
}
