{
  "id": 2014685979,
  "type": "Feature",
  "properties": {
    "geom:area": 0,
    "geom:bbox": "-122.367000,37.627610,-121.258550,38.515370",
    "geom:latitude": 38.0818162825809,
    "geom:longitude": -121.82128857077187,
    "src:alt_label": "swim-takeoff",
    "src:geom": "swim",
    "swim:elevations": [
      122,
      183,
      885,
      1104,
      1431,
      1682,
      2142,
      2581,
      3087,
      3189,
      3890,
      4071,
      4284,
      4705,
      4898,
      5534,
      5806,
      6022,
      6069,
      6624,
      6706,
      7202,
      7493,
      7811,
      7992,
      8480,
      8552
    ],
    "swim:geom": "takeoff",
    "swim:timestamps": [
      1769864937,
      1769864940,
      1769864989,
      1769865022,
      1769865052,
      1769865065,
      1769865095,
      1769865124,
      1769865161,
      1769865182,
      1769865235,
      1769865246,
      1769865265,
      1769865294,
      1769865310,
      1769865358,
      1769865381,
      1769865400,
      1769865422,
      1769865474,
      1769865483,
      1769865528,
      1769865552,
      1769865592,
      1769865610,
      1769865657,
      1769865668
    ],
    "wof:geomhash": "a36235144754d15fc8dfb739937a44f8",
    "wof:id": 2014685979,
    "wof:repo": "sfomuseum-data-flights-2026-01"
  },
  "bbox": [
    -122.367,
    37.62761,
    -121.25855,
    38.51537
  ],
  "geometry": {"coordinates":[[-122.367,37.62761],[-122.36564,37.62967],[-122.32974,37.65718],[-122.2976,37.67421],[-122.25953,37.69416],[-122.2422,37.7035],[-122.20637,37.72679],[-122.17792,37.75822],[-122.13965,37.80094],[-122.11634,37.8265],[-122.04769,37.89352],[-122.0292,37.9064],[-121.99844,37.92713],[-121.9502,37.96009],[-121.92376,37.97817],[-121.8498,38.04324],[-121.82025,38.07748],[-121.79495,38.10723],[-121.7638,38.14283],[-121.68254,38.23248],[-121.6681,38.24822],[-121.58245,38.31819],[-121.52934,38.35097],[-121.44016,38.40899],[-121.3969,38.43516],[-121.28341,38.50083],[-121.25855,38.51537]],"type":"LineString"}
}
