{
  "id": 2014686021,
  "type": "Feature",
  "properties": {
    "geom:area": 0,
    "geom:bbox": "-122.438140,36.730970,-121.422380,37.700310",
    "geom:latitude": 37.22476982914162,
    "geom:longitude": -122.00449645063381,
    "src:alt_label": "swim-takeoff",
    "src:geom": "swim",
    "swim:elevations": [
      122,
      539,
      807,
      1131,
      1259,
      1713,
      1882,
      2791,
      3302,
      3469,
      3561,
      4037,
      4276,
      5075,
      5229,
      5809,
      6173,
      6352,
      6585,
      6881,
      7016,
      7251,
      7523,
      7864,
      8035,
      8442,
      8637,
      8750,
      8834,
      8840,
      8839,
      8839
    ],
    "swim:geom": "takeoff",
    "swim:timestamps": [
      1769901597,
      1769901626,
      1769901653,
      1769901684,
      1769901704,
      1769901744,
      1769901753,
      1769901798,
      1769901835,
      1769901868,
      1769901883,
      1769901913,
      1769901933,
      1769901988,
      1769901997,
      1769902044,
      1769902074,
      1769902092,
      1769902113,
      1769902138,
      1769902152,
      1769902178,
      1769902205,
      1769902242,
      1769902262,
      1769902318,
      1769902339,
      1769902351,
      1769902372,
      1769902381,
      1769902430,
      1769902445
    ],
    "wof:geomhash": "bce92624e18c8e83dbc20318c62f67b6",
    "wof:id": 2014686021,
    "wof:repo": "sfomuseum-data-flights-2026-01"
  },
  "bbox": [
    -122.43814,
    36.73097,
    -121.42238,
    37.70031
  ],
  "geometry": {"coordinates":[[-122.36883,37.62894],[-122.36274,37.6486],[-122.36219,37.66924],[-122.36776,37.69349],[-122.38945,37.70031],[-122.42134,37.6676],[-122.42357,37.65669],[-122.43796,37.60203],[-122.43814,37.55881],[-122.39588,37.52319],[-122.37399,37.50562],[-122.32888,37.46917],[-122.29722,37.44363],[-122.21037,37.3738],[-122.19603,37.36223],[-122.1207,37.30134],[-122.07209,37.2622],[-122.04244,37.23823],[-122.00752,37.20985],[-121.96472,37.17507],[-121.94189,37.15655],[-121.89755,37.12046],[-121.85085,37.08244],[-121.78639,37.02992],[-121.75174,37.00186],[-121.65217,36.92057],[-121.61493,36.88934],[-121.59338,36.87172],[-121.55495,36.8408],[-121.53821,36.82747],[-121.44987,36.7536],[-121.42238,36.73097]],"type":"LineString"}
}
