{
  "id": 2014680661,
  "type": "Feature",
  "properties": {
    "geom:area": 0,
    "geom:bbox": "-123.490340,36.973630,-122.120050,37.616260",
    "geom:latitude": 37.291821123274744,
    "geom:longitude": -122.71252770339973,
    "src:alt_label": "swim-approach",
    "src:geom": "swim",
    "swim:elevations": [
      6246,
      5929,
      5769,
      5435,
      5209,
      4702,
      4415,
      4251,
      4028,
      3827,
      3677,
      3166,
      3048,
      3048,
      3048,
      2842,
      2687,
      2438,
      2438,
      2438,
      2438,
      2438,
      2438,
      2438,
      2438,
      2414,
      2223,
      2074,
      1888,
      1823,
      1646,
      1240,
      1072,
      902,
      801,
      598,
      491,
      387,
      334,
      154,
      42,
      0
    ],
    "swim:geom": "approach",
    "swim:timestamps": [
      1769928597,
      1769928627,
      1769928642,
      1769928678,
      1769928701,
      1769928747,
      1769928774,
      1769928789,
      1769928812,
      1769928830,
      1769928845,
      1769928894,
      1769928927,
      1769928957,
      1769928973,
      1769929016,
      1769929033,
      1769929076,
      1769929088,
      1769929115,
      1769929166,
      1769929181,
      1769929202,
      1769929214,
      1769929243,
      1769929266,
      1769929302,
      1769929323,
      1769929375,
      1769929392,
      1769929418,
      1769929465,
      1769929486,
      1769929515,
      1769929532,
      1769929573,
      1769929594,
      1769929618,
      1769929633,
      1769929672,
      1769929701,
      1769929714
    ],
    "wof:geomhash": "1594555943d1cba76758576ab042d9fe",
    "wof:id": 2014680661,
    "wof:repo": "sfomuseum-data-flights-2026-01"
  },
  "bbox": [
    -123.49034,
    36.97363,
    -122.12005,
    37.61626
  ],
  "geometry": {"coordinates":[[-123.49034,36.97363],[-123.42485,37.00275],[-123.39338,37.01674],[-123.31852,37.05145],[-123.27021,37.07345],[-123.17638,37.11614],[-123.12237,37.1408],[-123.09267,37.15433],[-123.04794,37.17434],[-123.01299,37.19012],[-122.98426,37.20317],[-122.89239,37.24456],[-122.83069,37.2651],[-122.77775,37.2776],[-122.75209,37.28368],[-122.6801,37.30053],[-122.65027,37.30742],[-122.57852,37.3239],[-122.5587,37.32856],[-122.51317,37.33917],[-122.42916,37.35859],[-122.40491,37.36422],[-122.37241,37.3717],[-122.35405,37.37595],[-122.31002,37.38612],[-122.27478,37.39413],[-122.22056,37.40652],[-122.18976,37.41341],[-122.14115,37.45381],[-122.12968,37.46676],[-122.12005,37.48781],[-122.14856,37.52201],[-122.16581,37.53291],[-122.19224,37.54418],[-122.20905,37.55119],[-122.24808,37.56766],[-122.26721,37.57568],[-122.28742,37.58427],[-122.2996,37.58939],[-122.32988,37.60225],[-122.35236,37.61155],[-122.36251,37.61626]],"type":"LineString"}
}
