{
  "id": 2014681259,
  "type": "Feature",
  "properties": {
    "geom:area": 0,
    "geom:bbox": "-122.763130,37.454300,-122.153190,38.487360",
    "geom:latitude": 37.84554298788657,
    "geom:longitude": -122.50697761471076,
    "src:alt_label": "swim-approach",
    "src:geom": "swim",
    "swim:elevations": [
      7366,
      7263,
      7078,
      6743,
      6371,
      6269,
      6016,
      5858,
      5462,
      5063,
      4791,
      4390,
      4167,
      3966,
      3831,
      3731,
      3477,
      3353,
      3353,
      3353,
      3353,
      3126,
      3021,
      2788,
      2411,
      2266,
      2121,
      1712,
      1571,
      1363,
      1224,
      1076,
      830,
      648,
      542,
      397,
      266,
      136,
      101
    ],
    "swim:geom": "approach",
    "swim:timestamps": [
      1769861937,
      1769861949,
      1769861971,
      1769862014,
      1769862057,
      1769862069,
      1769862100,
      1769862121,
      1769862169,
      1769862215,
      1769862246,
      1769862297,
      1769862325,
      1769862358,
      1769862379,
      1769862392,
      1769862442,
      1769862476,
      1769862505,
      1769862522,
      1769862545,
      1769862597,
      1769862609,
      1769862636,
      1769862682,
      1769862702,
      1769862723,
      1769862777,
      1769862798,
      1769862827,
      1769862852,
      1769862885,
      1769862910,
      1769862942,
      1769862961,
      1769862994,
      1769863027,
      1769863057,
      1769863090
    ],
    "wof:geomhash": "d11e5312b6582d033d4bd95c8f110fd9",
    "wof:id": 2014681259,
    "wof:repo": "sfomuseum-data-flights-2026-01"
  },
  "bbox": [
    -122.76313,
    37.4543,
    -122.15319,
    38.48736
  ],
  "geometry": {"coordinates":[[-122.69401,38.48736],[-122.69963,38.46727],[-122.70945,38.43201],[-122.72875,38.36326],[-122.74771,38.29569],[-122.75284,38.27738],[-122.76313,38.22922],[-122.75904,38.19559],[-122.73733,38.1205],[-122.71634,38.04853],[-122.70203,37.99968],[-122.67933,37.92157],[-122.65495,37.88245],[-122.6141,37.84337],[-122.58825,37.81892],[-122.57205,37.8037],[-122.51116,37.74664],[-122.47333,37.71089],[-122.44286,37.68235],[-122.42579,37.66624],[-122.40468,37.64619],[-122.35948,37.60135],[-122.35123,37.58963],[-122.33644,37.56193],[-122.31149,37.51576],[-122.29252,37.50093],[-122.26884,37.48937],[-122.20767,37.45881],[-122.18172,37.4543],[-122.1547,37.47352],[-122.15319,37.49898],[-122.1772,37.5259],[-122.19769,37.54364],[-122.2326,37.55901],[-122.25243,37.56693],[-122.28218,37.57973],[-122.30946,37.59123],[-122.33542,37.60211],[-122.36125,37.61304]],"type":"LineString"}
}
