{
  "id": 2014681183,
  "type": "Feature",
  "properties": {
    "geom:area": 0,
    "geom:bbox": "-122.319930,36.722830,-121.878910,37.595510",
    "geom:latitude": 37.191559418551144,
    "geom:longitude": -122.05885744997963,
    "src:alt_label": "swim-approach",
    "src:geom": "swim",
    "swim:elevations": [
      5176,
      4745,
      4670,
      4256,
      4205,
      3932,
      3764,
      3590,
      3260,
      3180,
      2927,
      2853,
      2620,
      2513,
      2253,
      2081,
      1964,
      1611,
      1457,
      1292,
      913,
      914,
      865,
      653,
      544,
      440,
      227,
      218
    ],
    "swim:geom": "approach",
    "swim:timestamps": [
      1769859154,
      1769859201,
      1769859212,
      1769859266,
      1769859274,
      1769859312,
      1769859337,
      1769859365,
      1769859417,
      1769859432,
      1769859477,
      1769859491,
      1769859533,
      1769859552,
      1769859597,
      1769859619,
      1769859636,
      1769859681,
      1769859698,
      1769859720,
      1769859773,
      1769859838,
      1769859861,
      1769859895,
      1769859911,
      1769859930,
      1769859984,
      1769859990
    ],
    "wof:geomhash": "9b11c822d21c421296e23b171d754226",
    "wof:id": 2014681183,
    "wof:repo": "sfomuseum-data-flights-2026-01"
  },
  "bbox": [
    -122.31993,
    36.72283,
    -121.87891,
    37.59551
  ],
  "geometry": {"coordinates":[[-121.87891,36.72283],[-121.90995,36.79956],[-121.91477,36.81661],[-121.93829,36.89944],[-121.94153,36.91123],[-121.95851,36.96485],[-121.97177,36.99894],[-121.98682,37.03795],[-122.01231,37.10457],[-122.01952,37.12279],[-122.04004,37.17487],[-122.04621,37.19028],[-122.06476,37.23672],[-122.0727,37.25772],[-122.09119,37.30476],[-122.09967,37.32487],[-122.10554,37.34084],[-122.12127,37.38212],[-122.12668,37.39814],[-122.13352,37.41841],[-122.15188,37.46629],[-122.1925,37.51872],[-122.20861,37.53645],[-122.23532,37.55983],[-122.25153,37.56653],[-122.27018,37.5744],[-122.31508,37.59339],[-122.31993,37.59551]],"type":"LineString"}
}
