{
  "id": 2014685623,
  "type": "Feature",
  "properties": {
    "geom:area": 0,
    "geom:bbox": "-122.557490,36.726180,-121.417210,37.714410",
    "geom:latitude": 37.27164431000808,
    "geom:longitude": -122.0613303455662,
    "src:alt_label": "swim-takeoff",
    "src:geom": "swim",
    "swim:elevations": [
      240,
      534,
      1029,
      1502,
      2710,
      3675,
      3814,
      4446,
      4508,
      5429,
      5792,
      5969,
      6196,
      6779,
      7318,
      7552,
      8024,
      8275,
      8785,
      9054,
      9212,
      9331,
      9698,
      10094,
      10168,
      10663,
      10668,
      10668,
      10668
    ],
    "swim:geom": "takeoff",
    "swim:timestamps": [
      1769876438,
      1769876471,
      1769876510,
      1769876547,
      1769876603,
      1769876654,
      1769876676,
      1769876723,
      1769876733,
      1769876784,
      1769876817,
      1769876841,
      1769876854,
      1769876895,
      1769876933,
      1769876950,
      1769876987,
      1769877015,
      1769877074,
      1769877114,
      1769877135,
      1769877150,
      1769877194,
      1769877238,
      1769877246,
      1769877298,
      1769877315,
      1769877354,
      1769877376
    ],
    "wof:geomhash": "6df61d534b1cdb9159bf8e4e4b70369e",
    "wof:id": 2014685623,
    "wof:repo": "sfomuseum-data-flights-2026-01"
  },
  "bbox": [
    -122.55749,
    36.72618,
    -121.41721,
    37.71441
  ],
  "geometry": {"coordinates":[[-122.36742,37.63167],[-122.36458,37.65705],[-122.37367,37.69247],[-122.41454,37.71441],[-122.49263,37.70387],[-122.55507,37.68397],[-122.55749,37.65633],[-122.49873,37.60268],[-122.4831,37.59091],[-122.40512,37.5304],[-122.35433,37.4898],[-122.31879,37.46117],[-122.29996,37.44593],[-122.23914,37.39689],[-122.18138,37.35026],[-122.15474,37.32865],[-122.09649,37.28136],[-122.05189,37.24521],[-121.95653,37.16813],[-121.88954,37.11377],[-121.854,37.08482],[-121.82691,37.0626],[-121.74657,36.99807],[-121.66582,36.93231],[-121.65105,36.92105],[-121.5578,36.84286],[-121.52719,36.81692],[-121.45683,36.75959],[-121.41721,36.72618]],"type":"LineString"}
}
