{
  "id": 2014685951,
  "type": "Feature",
  "properties": {
    "geom:area": 0,
    "geom:bbox": "-122.353620,37.641930,-121.248650,38.123610",
    "geom:latitude": 37.89692364370338,
    "geom:longitude": -121.80764068842343,
    "src:alt_label": "swim-takeoff",
    "src:geom": "swim",
    "swim:elevations": [
      449,
      637,
      743,
      1091,
      1174,
      1460,
      1866,
      2259,
      2379,
      2482,
      3005,
      3173,
      3323,
      3463,
      3795,
      4076,
      4378,
      4479,
      5006,
      5224,
      5407,
      5640,
      5917,
      6169
    ],
    "swim:geom": "takeoff",
    "swim:timestamps": [
      1769851071,
      1769851087,
      1769851099,
      1769851136,
      1769851152,
      1769851191,
      1769851224,
      1769851253,
      1769851262,
      1769851269,
      1769851314,
      1769851331,
      1769851363,
      1769851392,
      1769851431,
      1769851463,
      1769851495,
      1769851505,
      1769851552,
      1769851566,
      1769851604,
      1769851632,
      1769851667,
      1769851708
    ],
    "wof:geomhash": "d7c342d1e993bd58d6b91348af69db04",
    "wof:id": 2014685951,
    "wof:repo": "sfomuseum-data-flights-2026-01"
  },
  "bbox": [
    -122.35362,
    37.64193,
    -121.24865,
    38.12361
  ],
  "geometry": {"coordinates":[[-122.35362,37.64193],[-122.34013,37.64927],[-122.32905,37.65504],[-122.29552,37.67373],[-122.27963,37.68304],[-122.23221,37.70847],[-122.18842,37.73095],[-122.14818,37.7521],[-122.13567,37.75869],[-122.12611,37.76373],[-122.06265,37.79668],[-122.03712,37.80954],[-121.98467,37.83492],[-121.93138,37.85638],[-121.85161,37.88727],[-121.78624,37.91331],[-121.71777,37.94028],[-121.69669,37.94852],[-121.5951,37.98769],[-121.5652,37.9995],[-121.48239,38.03255],[-121.41949,38.05677],[-121.34138,38.0876],[-121.24865,38.12361]],"type":"LineString"}
}
