{
  "id": 2014682773,
  "type": "Feature",
  "properties": {
    "geom:area": 0,
    "geom:bbox": "-122.364680,36.718750,-121.875980,37.615080",
    "geom:latitude": 37.20952817343174,
    "geom:longitude": -122.07101106182252,
    "src:alt_label": "swim-approach",
    "src:geom": "swim",
    "swim:elevations": [
      5338,
      5007,
      4731,
      4335,
      3929,
      3857,
      3720,
      3454,
      3198,
      3109,
      3026,
      2932,
      2686,
      2681,
      2536,
      2351,
      1967,
      1757,
      1681,
      1558,
      1428,
      1363,
      1245,
      1219,
      1219,
      1068,
      978,
      878,
      734,
      523,
      312,
      270,
      118,
      0
    ],
    "swim:geom": "approach",
    "swim:timestamps": [
      1769849225,
      1769849258,
      1769849284,
      1769849327,
      1769849368,
      1769849376,
      1769849391,
      1769849423,
      1769849448,
      1769849488,
      1769849508,
      1769849521,
      1769849560,
      1769849566,
      1769849585,
      1769849612,
      1769849657,
      1769849680,
      1769849690,
      1769849704,
      1769849725,
      1769849744,
      1769849760,
      1769849795,
      1769849825,
      1769849859,
      1769849871,
      1769849883,
      1769849897,
      1769849922,
      1769849963,
      1769849972,
      1769850007,
      1769850035
    ],
    "wof:geomhash": "d1596531703216dce3d1aeab2bbed203",
    "wof:id": 2014682773,
    "wof:repo": "sfomuseum-data-flights-2026-01"
  },
  "bbox": [
    -122.36468,
    36.71875,
    -121.87598,
    37.61508
  ],
  "geometry": {"coordinates":[[-121.87598,36.71875],[-121.90258,36.77207],[-121.91505,36.81641],[-121.93494,36.88775],[-121.95465,36.95584],[-121.95964,36.96832],[-121.96909,36.99252],[-121.98814,37.0417],[-122.00309,37.07995],[-122.02558,37.13769],[-122.0357,37.16355],[-122.04217,37.18015],[-122.06104,37.22799],[-122.0638,37.23521],[-122.07268,37.25792],[-122.08561,37.29094],[-122.10712,37.34535],[-122.11791,37.3727],[-122.12244,37.385],[-122.12805,37.40205],[-122.1365,37.42672],[-122.14375,37.44763],[-122.15106,37.46458],[-122.17018,37.49759],[-122.18724,37.52212],[-122.20821,37.54751],[-122.21954,37.5529],[-122.23141,37.55792],[-122.24523,37.564],[-122.2694,37.57443],[-122.30683,37.59008],[-122.31471,37.59337],[-122.34218,37.60501],[-122.36468,37.61508]],"type":"LineString"}
}
