{
  "id": 2014685825,
  "type": "Feature",
  "properties": {
    "geom:area": 0,
    "geom:bbox": "-122.355890,37.638510,-121.428930,38.519200",
    "geom:latitude": 38.07531448034415,
    "geom:longitude": -121.8903185742758,
    "src:alt_label": "swim-takeoff",
    "src:geom": "swim",
    "swim:elevations": [
      443,
      733,
      1076,
      1538,
      2023,
      2161,
      3072,
      3096,
      3527,
      4117,
      4693,
      5074,
      5415,
      5574,
      6067,
      6449,
      6669,
      7099,
      7362,
      7722,
      7917,
      8297,
      8512,
      8749
    ],
    "swim:geom": "takeoff",
    "swim:timestamps": [
      1769866642,
      1769866666,
      1769866689,
      1769866735,
      1769866764,
      1769866771,
      1769866827,
      1769866831,
      1769866873,
      1769866909,
      1769866948,
      1769866973,
      1769866996,
      1769867014,
      1769867049,
      1769867083,
      1769867106,
      1769867141,
      1769867164,
      1769867205,
      1769867225,
      1769867268,
      1769867290,
      1769867313
    ],
    "wof:geomhash": "fac67ed0a520c9f14183ba204e8a70b1",
    "wof:id": 2014685825,
    "wof:repo": "sfomuseum-data-flights-2026-01"
  },
  "bbox": [
    -122.35589,
    37.63851,
    -121.42893,
    38.5192
  ],
  "geometry": {"coordinates":[[-122.35589,37.63851],[-122.33619,37.64993],[-122.31626,37.66167],[-122.265,37.69166],[-122.22679,37.71212],[-122.21791,37.71797],[-122.15956,37.77842],[-122.15527,37.78315],[-122.10647,37.83749],[-122.05997,37.88855],[-122.00923,37.9441],[-121.97657,37.98038],[-121.94569,38.01447],[-121.92045,38.04217],[-121.87173,38.09593],[-121.82248,38.14947],[-121.78786,38.18686],[-121.73509,38.24469],[-121.7,38.2824],[-121.63644,38.35139],[-121.60393,38.38665],[-121.52742,38.4577],[-121.4813,38.48784],[-121.42893,38.5192]],"type":"LineString"}
}
