{
  "id": 2014682297,
  "type": "Feature",
  "properties": {
    "geom:area": 0,
    "geom:bbox": "-122.339880,36.720090,-121.876930,37.603880",
    "geom:latitude": 37.199785729889314,
    "geom:longitude": -122.06395068037345,
    "src:alt_label": "swim-approach",
    "src:geom": "swim",
    "swim:elevations": [
      5134,
      4965,
      4857,
      4423,
      4317,
      3824,
      3706,
      3276,
      3233,
      3071,
      3048,
      2657,
      2584,
      2362,
      2182,
      1876,
      1685,
      1578,
      1403,
      1350,
      1056,
      822,
      662,
      634,
      376,
      303,
      242,
      121
    ],
    "swim:geom": "approach",
    "swim:timestamps": [
      1769863894,
      1769863911,
      1769863921,
      1769863968,
      1769863980,
      1769864037,
      1769864049,
      1769864098,
      1769864105,
      1769864157,
      1769864166,
      1769864231,
      1769864257,
      1769864302,
      1769864327,
      1769864363,
      1769864394,
      1769864422,
      1769864455,
      1769864463,
      1769864508,
      1769864545,
      1769864575,
      1769864583,
      1769864634,
      1769864651,
      1769864670,
      1769864700
    ],
    "wof:geomhash": "dd300d7a546006e9071dede616d96cd0",
    "wof:id": 2014682297,
    "wof:repo": "sfomuseum-data-flights-2026-01"
  },
  "bbox": [
    -122.33988,
    36.72009,
    -121.87693,
    37.60388
  ],
  "geometry": {"coordinates":[[-121.87693,36.72009],[-121.89211,36.74574],[-121.89974,36.76401],[-121.92219,36.84208],[-121.92782,36.86248],[-121.95413,36.95447],[-121.96126,36.97254],[-121.99063,37.04825],[-121.99486,37.05896],[-122.02394,37.13379],[-122.02844,37.14545],[-122.06099,37.22818],[-122.07341,37.2597],[-122.09349,37.31065],[-122.10372,37.33656],[-122.11907,37.37556],[-122.13039,37.40884],[-122.13999,37.43712],[-122.15229,37.4678],[-122.15543,37.47489],[-122.18199,37.51491],[-122.20563,37.54575],[-122.23496,37.55959],[-122.24266,37.56296],[-122.28763,37.58215],[-122.30103,37.58761],[-122.31627,37.59416],[-122.33988,37.60388]],"type":"LineString"}
}
