{
  "id": 2014685895,
  "type": "Feature",
  "properties": {
    "geom:area": 0,
    "geom:bbox": "-122.537590,36.746360,-122.184720,37.712030",
    "geom:latitude": 37.24970650755926,
    "geom:longitude": -122.42643663822194,
    "src:alt_label": "swim-takeoff",
    "src:geom": "swim",
    "swim:elevations": [
      122,
      183,
      861,
      1116,
      1283,
      1318,
      1668,
      2481,
      2896,
      3189,
      3643,
      3914,
      4087,
      4577,
      4792,
      5028,
      5426,
      6058,
      6304,
      6686,
      7273,
      7340,
      7593,
      8051,
      8234,
      8396,
      8566,
      8815,
      8882
    ],
    "swim:geom": "takeoff",
    "swim:timestamps": [
      1769851675,
      1769851680,
      1769851728,
      1769851754,
      1769851782,
      1769851786,
      1769851811,
      1769851857,
      1769851879,
      1769851897,
      1769851941,
      1769851959,
      1769851968,
      1769852004,
      1769852021,
      1769852040,
      1769852075,
      1769852119,
      1769852137,
      1769852165,
      1769852217,
      1769852225,
      1769852254,
      1769852306,
      1769852334,
      1769852359,
      1769852386,
      1769852426,
      1769852436
    ],
    "wof:geomhash": "07fd8334ffd3ccab8d160dc9cece657c",
    "wof:id": 2014685895,
    "wof:repo": "sfomuseum-data-flights-2026-01"
  },
  "bbox": [
    -122.53759,
    36.74636,
    -122.18472,
    37.71203
  ],
  "geometry": {"coordinates":[[-122.36875,37.62961],[-122.36647,37.63331],[-122.36241,37.67162],[-122.36813,37.69236],[-122.39918,37.71034],[-122.4049,37.71203],[-122.44187,37.70544],[-122.46036,37.65029],[-122.46359,37.62265],[-122.46718,37.59915],[-122.4777,37.53684],[-122.48239,37.50806],[-122.48442,37.49543],[-122.49353,37.43939],[-122.49792,37.4123],[-122.50284,37.3807],[-122.51258,37.32273],[-122.52464,37.24855],[-122.52964,37.21803],[-122.53759,37.16979],[-122.50077,37.08787],[-122.48988,37.0765],[-122.44934,37.03319],[-122.37776,36.95461],[-122.33693,36.91078],[-122.30055,36.87199],[-122.26033,36.82847],[-122.20024,36.76313],[-122.18472,36.74636]],"type":"LineString"}
}
