{
  "id": 2014682361,
  "type": "Feature",
  "properties": {
    "geom:area": 0,
    "geom:bbox": "-123.501490,36.953350,-122.128660,37.613120",
    "geom:latitude": 37.28312904192954,
    "geom:longitude": -122.79117867670983,
    "src:alt_label": "swim-approach",
    "src:geom": "swim",
    "swim:elevations": [
      6504,
      6243,
      5711,
      5436,
      5105,
      4702,
      4590,
      4260,
      4050,
      3915,
      3530,
      3063,
      3048,
      3048,
      3048,
      3013,
      2864,
      2730,
      2578,
      2489,
      2307,
      2179,
      2071,
      1864,
      1828,
      1622,
      1361,
      1239,
      1173,
      1062,
      886,
      652,
      549,
      549,
      445,
      323,
      198,
      111,
      149,
      6069,
      5799,
      5612,
      5311,
      5019,
      4863,
      4503,
      4283,
      3908,
      3691,
      3342,
      3299,
      3048,
      3048,
      3048,
      3048,
      3048,
      3048,
      3048,
      3048,
      3040,
      2801,
      2581,
      2470,
      2437,
      2303,
      2129,
      1862,
      1523,
      1408,
      1203,
      1106,
      996,
      945,
      699,
      591,
      404,
      278,
      185,
      163,
      0
    ],
    "swim:geom": "approach",
    "swim:timestamps": [
      1769897110,
      1769897134,
      1769897185,
      1769897217,
      1769897245,
      1769897278,
      1769897289,
      1769897317,
      1769897335,
      1769897347,
      1769897380,
      1769897422,
      1769897437,
      1769897470,
      1769897491,
      1769897509,
      1769897539,
      1769897570,
      1769897596,
      1769897617,
      1769897667,
      1769897691,
      1769897709,
      1769897746,
      1769897767,
      1769897808,
      1769897837,
      1769897856,
      1769897883,
      1769897898,
      1769897937,
      1769897967,
      1769897997,
      1769898024,
      1769898045,
      1769898075,
      1769898111,
      1769898137,
      1769898167,
      1769924635,
      1769924665,
      1769924689,
      1769924728,
      1769924758,
      1769924773,
      1769924812,
      1769924837,
      1769924877,
      1769924901,
      1769924937,
      1769924942,
      1769924998,
      1769925007,
      1769925052,
      1769925084,
      1769925094,
      1769925109,
      1769925148,
      1769925177,
      1769925204,
      1769925238,
      1769925268,
      1769925286,
      1769925301,
      1769925328,
      1769925355,
      1769925385,
      1769925416,
      1769925428,
      1769925466,
      1769925484,
      1769925508,
      1769925520,
      1769925565,
      1769925583,
      1769925622,
      1769925653,
      1769925671,
      1769925680,
      1769925710
    ],
    "wof:geomhash": "6eb851f51aa5f6f386f3696263c22401",
    "wof:id": 2014682361,
    "wof:repo": "sfomuseum-data-flights-2026-01"
  },
  "bbox": [
    -123.50149,
    36.95335,
    -122.12866,
    37.61312
  ],
  "geometry": {"coordinates":[[-123.48939,36.97345],[-123.43821,36.99709],[-123.33432,37.04417],[-123.27,37.07355],[-123.21326,37.09931],[-123.14726,37.12913],[-123.12623,37.13863],[-123.07025,37.16421],[-123.03523,37.1802],[-123.01198,37.19082],[-122.94901,37.21925],[-122.87195,37.25323],[-122.84451,37.26174],[-122.78827,37.27515],[-122.7547,37.283],[-122.7261,37.28958],[-122.6785,37.30077],[-122.63056,37.31185],[-122.58886,37.3214],[-122.55498,37.32939],[-122.47514,37.3479],[-122.43708,37.35662],[-122.40872,37.36327],[-122.35544,37.38502],[-122.32741,37.39831],[-122.27789,37.42182],[-122.24324,37.43805],[-122.22163,37.44821],[-122.19342,37.46529],[-122.1863,37.47981],[-122.1914,37.51823],[-122.20458,37.54177],[-122.22878,37.55715],[-122.25333,37.56761],[-122.2721,37.5755],[-122.29523,37.58508],[-122.32182,37.59616],[-122.34069,37.60425],[-122.36211,37.61312],[-123.50149,36.95335],[-123.4405,36.98383],[-123.39319,37.0062],[-123.31752,37.04185],[-123.26005,37.06953],[-123.23121,37.08329],[-123.15649,37.11871],[-123.10856,37.14151],[-123.03443,37.17668],[-122.99057,37.19746],[-122.92577,37.22819],[-122.91798,37.23191],[-122.81563,37.26856],[-122.79894,37.27259],[-122.71059,37.29341],[-122.64566,37.3084],[-122.62722,37.31269],[-122.60002,37.31894],[-122.53386,37.33426],[-122.48666,37.34533],[-122.44211,37.35553],[-122.38484,37.36871],[-122.33436,37.38027],[-122.30465,37.38713],[-122.28051,37.39268],[-122.23911,37.40223],[-122.19842,37.41157],[-122.1576,37.42517],[-122.13604,37.45541],[-122.12866,37.46789],[-122.13367,37.50748],[-122.14728,37.52239],[-122.17129,37.53534],[-122.18389,37.54045],[-122.22916,37.55967],[-122.24741,37.56741],[-122.28442,37.58295],[-122.31066,37.59416],[-122.3251,37.60013],[-122.33219,37.60309],[-122.35599,37.61305]],"type":"LineString"}
}
