{
  "id": 2014681673,
  "type": "Feature",
  "properties": {
    "geom:area": 0,
    "geom:bbox": "-123.141720,37.437550,-122.133850,38.337860",
    "geom:latitude": 37.809667784194964,
    "geom:longitude": -122.57025378405712,
    "src:alt_label": "swim-approach",
    "src:geom": "swim",
    "swim:elevations": [
      7620,
      7282,
      6950,
      6695,
      6449,
      6160,
      5730,
      5693,
      5339,
      5098,
      4781,
      4624,
      4418,
      4233,
      3953,
      3500,
      3448,
      3405,
      3351,
      3353,
      3353,
      3353,
      3327,
      2972,
      2874,
      2641,
      2372,
      2299,
      2016,
      1617,
      1527,
      1464,
      1406,
      1250,
      1219,
      992,
      975,
      799,
      609,
      425,
      320,
      179,
      83,
      0,
      0
    ],
    "swim:geom": "approach",
    "swim:timestamps": [
      1769850801,
      1769850836,
      1769850868,
      1769850893,
      1769850917,
      1769850944,
      1769850988,
      1769850991,
      1769851032,
      1769851055,
      1769851087,
      1769851104,
      1769851125,
      1769851147,
      1769851176,
      1769851224,
      1769851239,
      1769851262,
      1769851277,
      1769851309,
      1769851340,
      1769851376,
      1769851396,
      1769851435,
      1769851445,
      1769851466,
      1769851495,
      1769851505,
      1769851536,
      1769851581,
      1769851604,
      1769851620,
      1769851632,
      1769851667,
      1769851692,
      1769851732,
      1769851740,
      1769851786,
      1769851821,
      1769851857,
      1769851885,
      1769851917,
      1769851941,
      1769851956,
      1769851964
    ],
    "wof:geomhash": "4115557145f1b7772a11ff831458d142",
    "wof:id": 2014681673,
    "wof:repo": "sfomuseum-data-flights-2026-01"
  },
  "bbox": [
    -123.14172,
    37.43755,
    -122.13385,
    38.33786
  ],
  "geometry": {"coordinates":[[-123.14172,38.33786],[-123.09125,38.29079],[-123.04455,38.24735],[-123.00788,38.21311],[-122.97336,38.18096],[-122.93397,38.14402],[-122.8709,38.08523],[-122.86644,38.08108],[-122.8097,38.02789],[-122.77812,37.99822],[-122.73478,37.95746],[-122.71332,37.93723],[-122.68498,37.9105],[-122.65752,37.88439],[-122.61944,37.84853],[-122.55962,37.79231],[-122.54189,37.77561],[-122.51573,37.75096],[-122.49971,37.73563],[-122.46489,37.70275],[-122.43003,37.67],[-122.39164,37.63401],[-122.3714,37.6148],[-122.34343,37.57388],[-122.33782,37.56441],[-122.32485,37.54212],[-122.30755,37.51251],[-122.30186,37.50292],[-122.28234,37.47403],[-122.23011,37.4529],[-122.20181,37.44358],[-122.18264,37.43768],[-122.16669,37.43755],[-122.13799,37.4621],[-122.13385,37.48355],[-122.15981,37.51371],[-122.16556,37.51953],[-122.20548,37.54755],[-122.24178,37.56276],[-122.27684,37.57752],[-122.30107,37.5876],[-122.32724,37.59861],[-122.34618,37.60657],[-122.35878,37.61226],[-122.36499,37.61532]],"type":"LineString"}
}
