{
  "id": 2014682377,
  "type": "Feature",
  "properties": {
    "geom:area": 0,
    "geom:bbox": "-122.350510,36.723190,-121.879740,37.608440",
    "geom:latitude": 37.20896279697763,
    "geom:longitude": -122.06742238199682,
    "src:alt_label": "swim-approach",
    "src:geom": "swim",
    "swim:elevations": [
      4682,
      4380,
      3989,
      3904,
      3628,
      3296,
      3237,
      3085,
      2943,
      2675,
      2523,
      2435,
      2418,
      2439,
      2363,
      2059,
      1962,
      1535,
      1281,
      1054,
      930,
      835,
      821,
      761,
      577,
      515,
      399,
      141,
      107,
      60
    ],
    "swim:geom": "approach",
    "swim:timestamps": [
      1769858645,
      1769858680,
      1769858722,
      1769858735,
      1769858766,
      1769858817,
      1769858841,
      1769858872,
      1769858893,
      1769858933,
      1769858953,
      1769858994,
      1769859008,
      1769859040,
      1769859060,
      1769859106,
      1769859120,
      1769859167,
      1769859198,
      1769859234,
      1769859266,
      1769859296,
      1769859304,
      1769859324,
      1769859354,
      1769859365,
      1769859396,
      1769859444,
      1769859453,
      1769859468
    ],
    "wof:geomhash": "43cdcb079d7c87a8b7315f6f45947502",
    "wof:id": 2014682377,
    "wof:repo": "sfomuseum-data-flights-2026-01"
  },
  "bbox": [
    -122.35051,
    36.72319,
    -121.87974,
    37.60844
  ],
  "geometry": {"coordinates":[[-121.87974,36.72319],[-121.90406,36.77759],[-121.92361,36.84723],[-121.92943,36.86745],[-121.94358,36.9174],[-121.97113,36.99782],[-121.98394,37.03074],[-122.0003,37.07297],[-122.01085,37.09983],[-122.03035,37.1496],[-122.0399,37.17435],[-122.06022,37.22594],[-122.06668,37.24239],[-122.08163,37.28089],[-122.09073,37.30399],[-122.11018,37.3536],[-122.11583,37.36758],[-122.13025,37.41778],[-122.12483,37.45017],[-122.15036,37.48399],[-122.17514,37.51066],[-122.19422,37.53457],[-122.20014,37.54127],[-122.21786,37.55344],[-122.25095,37.5667],[-122.26363,37.57207],[-122.29441,37.58459],[-122.33411,37.60153],[-122.3403,37.6042],[-122.35051,37.60844]],"type":"LineString"}
}
