{
  "id": 2014683721,
  "type": "Feature",
  "properties": {
    "geom:area": 0,
    "geom:bbox": "-122.563230,36.748740,-122.319520,37.736920",
    "geom:latitude": 37.28519712388907,
    "geom:longitude": -122.49258009113005,
    "src:alt_label": "swim-takeoff",
    "src:geom": "swim",
    "swim:elevations": [
      305,
      416,
      848,
      1099,
      1642,
      2129,
      2342,
      2874,
      3224,
      3676,
      4045,
      4239,
      4847,
      5206,
      5255,
      5700,
      6249,
      6585,
      6817,
      7146,
      7277,
      7711,
      7872,
      8157,
      8223,
      8314,
      8550,
      8674,
      8780,
      8867
    ],
    "swim:geom": "takeoff",
    "swim:timestamps": [
      1769860044,
      1769860053,
      1769860101,
      1769860123,
      1769860157,
      1769860196,
      1769860217,
      1769860249,
      1769860272,
      1769860316,
      1769860341,
      1769860357,
      1769860404,
      1769860436,
      1769860441,
      1769860482,
      1769860525,
      1769860555,
      1769860578,
      1769860612,
      1769860625,
      1769860676,
      1769860694,
      1769860734,
      1769860744,
      1769860758,
      1769860797,
      1769860821,
      1769860845,
      1769860860
    ],
    "wof:geomhash": "63ae899f265b480499984657b25e2ade",
    "wof:id": 2014683721,
    "wof:repo": "sfomuseum-data-flights-2026-01"
  },
  "bbox": [
    -122.56323,
    36.74874,
    -122.31952,
    37.73692
  ],
  "geometry": {"coordinates":[[-122.36244,37.63833],[-122.35983,37.64508],[-122.36654,37.69146],[-122.38711,37.70972],[-122.42378,37.73692],[-122.47716,37.73669],[-122.50139,37.71802],[-122.51746,37.68051],[-122.51983,37.65124],[-122.52395,37.59096],[-122.52575,37.55411],[-122.52696,37.53191],[-122.53239,37.46067],[-122.53598,37.41212],[-122.53649,37.40453],[-122.54138,37.33821],[-122.54616,37.26973],[-122.54964,37.2218],[-122.55241,37.1841],[-122.5564,37.13004],[-122.55798,37.10719],[-122.56323,37.02232],[-122.55397,36.99271],[-122.50868,36.93198],[-122.494,36.91843],[-122.47277,36.89794],[-122.41639,36.84263],[-122.38004,36.80767],[-122.34286,36.77152],[-122.31952,36.74874]],"type":"LineString"}
}
