{
  "id": 2014684753,
  "type": "Feature",
  "properties": {
    "geom:area": 0,
    "geom:bbox": "-122.359840,37.637800,-121.249420,37.964820",
    "geom:latitude": 37.83983119387205,
    "geom:longitude": -121.81801048589594,
    "src:alt_label": "swim-takeoff",
    "src:geom": "swim",
    "swim:elevations": [
      310,
      518,
      831,
      916,
      1537,
      1980,
      2586,
      2767,
      3129,
      3559,
      3949,
      4170,
      4548,
      5104,
      5311,
      5414,
      5448,
      5841,
      6201,
      6530,
      6810,
      7173,
      7438
    ],
    "swim:geom": "takeoff",
    "swim:timestamps": [
      1769846542,
      1769846557,
      1769846606,
      1769846615,
      1769846660,
      1769846690,
      1769846729,
      1769846742,
      1769846768,
      1769846817,
      1769846845,
      1769846861,
      1769846891,
      1769846936,
      1769846953,
      1769846966,
      1769846970,
      1769847003,
      1769847041,
      1769847072,
      1769847100,
      1769847132,
      1769847158
    ],
    "wof:geomhash": "725b37dc84243b82098c324a5ba9606e",
    "wof:id": 2014684753,
    "wof:repo": "sfomuseum-data-flights-2026-01"
  },
  "bbox": [
    -122.35984,
    37.6378,
    -121.24942,
    37.96482
  ],
  "geometry": {"coordinates":[[-122.35984,37.6378],[-122.34911,37.64513],[-122.30356,37.66909],[-122.2935,37.67489],[-122.23696,37.70639],[-122.19635,37.72667],[-122.14286,37.75459],[-122.12423,37.76452],[-122.08525,37.78458],[-122.00542,37.82309],[-121.94872,37.83645],[-121.91624,37.84263],[-121.85382,37.85424],[-121.75712,37.872],[-121.72211,37.87845],[-121.69209,37.884],[-121.68316,37.88566],[-121.6107,37.89912],[-121.52669,37.91451],[-121.45256,37.92803],[-121.38804,37.93979],[-121.31135,37.95363],[-121.24942,37.96482]],"type":"LineString"}
}
