{
  "id": 2014682737,
  "type": "Feature",
  "properties": {
    "geom:area": 0,
    "geom:bbox": "-122.356200,37.491510,-121.247180,37.613180",
    "geom:latitude": 37.546735819087175,
    "geom:longitude": -121.80660816763003,
    "src:alt_label": "swim-approach",
    "src:geom": "swim",
    "swim:elevations": [
      5130,
      4852,
      4551,
      4376,
      4066,
      3853,
      3567,
      3502,
      3272,
      3086,
      3041,
      2915,
      2816,
      2653,
      2542,
      2450,
      2134,
      2134,
      2068,
      1821,
      1739,
      1586,
      1431,
      1282,
      1183,
      1033,
      817,
      722,
      636,
      628,
      426,
      280,
      154,
      3
    ],
    "swim:geom": "approach",
    "swim:timestamps": [
      1769889745,
      1769889771,
      1769889799,
      1769889814,
      1769889841,
      1769889860,
      1769889896,
      1769889905,
      1769889937,
      1769889977,
      1769889986,
      1769890004,
      1769890022,
      1769890046,
      1769890061,
      1769890083,
      1769890137,
      1769890152,
      1769890171,
      1769890219,
      1769890232,
      1769890258,
      1769890285,
      1769890312,
      1769890327,
      1769890357,
      1769890402,
      1769890420,
      1769890439,
      1769890441,
      1769890485,
      1769890519,
      1769890548,
      1769890582
    ],
    "wof:geomhash": "55b4830d4f7295b2016e34364b8b0ef3",
    "wof:id": 2014682737,
    "wof:repo": "sfomuseum-data-flights-2026-01"
  },
  "bbox": [
    -122.3562,
    37.49151,
    -121.24718,
    37.61318
  ],
  "geometry": {"coordinates":[[-121.24718,37.59487],[-121.29663,37.58844],[-121.35161,37.58253],[-121.3804,37.5793],[-121.43066,37.57354],[-121.46733,37.56932],[-121.53578,37.56122],[-121.55172,37.55932],[-121.60746,37.55281],[-121.66763,37.54055],[-121.68153,37.53724],[-121.70652,37.53123],[-121.73101,37.52542],[-121.7628,37.5178],[-121.78248,37.513],[-121.811,37.50628],[-121.88206,37.49151],[-121.90197,37.49156],[-121.92605,37.49223],[-121.98892,37.49541],[-122.00482,37.50004],[-122.03664,37.51042],[-122.06935,37.52106],[-122.10156,37.53155],[-122.11942,37.53735],[-122.15263,37.54816],[-122.19894,37.56303],[-122.21708,37.56888],[-122.23503,37.57482],[-122.23798,37.57579],[-122.27843,37.58799],[-122.30677,37.59623],[-122.33023,37.60318],[-122.3562,37.61318]],"type":"LineString"}
}
