{
  "id": 2014685837,
  "type": "Feature",
  "properties": {
    "geom:area": 0,
    "geom:bbox": "-123.479660,37.418640,-122.402780,37.671480",
    "geom:latitude": 37.55746024922994,
    "geom:longitude": -122.93946833912587,
    "src:alt_label": "swim-takeoff",
    "src:geom": "swim",
    "swim:elevations": [
      244,
      422,
      739,
      946,
      915,
      1201,
      1350,
      1681,
      1863,
      2069,
      2518,
      2855,
      3234,
      3318,
      3712,
      3909,
      4169,
      4499,
      4775,
      5123,
      5408,
      5426,
      5593,
      5876,
      6163,
      6425
    ],
    "swim:geom": "takeoff",
    "swim:timestamps": [
      1769850039,
      1769850056,
      1769850087,
      1769850117,
      1769850132,
      1769850172,
      1769850182,
      1769850204,
      1769850216,
      1769850233,
      1769850266,
      1769850290,
      1769850323,
      1769850340,
      1769850388,
      1769850407,
      1769850429,
      1769850458,
      1769850494,
      1769850533,
      1769850563,
      1769850572,
      1769850588,
      1769850621,
      1769850650,
      1769850678
    ],
    "wof:geomhash": "b672352b82142f387ca72ebf6421b531",
    "wof:id": 2014685837,
    "wof:repo": "sfomuseum-data-flights-2026-01"
  },
  "bbox": [
    -123.47966,
    37.41864,
    -122.40278,
    37.67148
  ],
  "geometry": {"coordinates":[[-122.40278,37.63019],[-122.42018,37.63751],[-122.45154,37.65158],[-122.48541,37.66672],[-122.50487,37.67148],[-122.56245,37.66015],[-122.57665,37.65607],[-122.61024,37.6467],[-122.62835,37.64203],[-122.65413,37.6353],[-122.70519,37.62208],[-122.74293,37.61268],[-122.79416,37.59945],[-122.82226,37.59212],[-122.90981,37.56934],[-122.94391,37.56041],[-122.98417,37.54999],[-123.03827,37.53569],[-123.10804,37.51736],[-123.18483,37.49709],[-123.24516,37.48114],[-123.26339,37.47632],[-123.29578,37.46774],[-123.36225,37.45],[-123.42311,37.43374],[-123.47966,37.41864]],"type":"LineString"}
}
