{
  "id": 2014682551,
  "type": "Feature",
  "properties": {
    "geom:area": 0,
    "geom:bbox": "-123.478840,36.978580,-122.143390,37.607180",
    "geom:latitude": 37.286819322553896,
    "geom:longitude": -122.71966771579145,
    "src:alt_label": "swim-approach",
    "src:geom": "swim",
    "swim:elevations": [
      5419,
      5208,
      4864,
      4400,
      4137,
      3901,
      3583,
      3289,
      3259,
      3175,
      3079,
      3048,
      2982,
      2926,
      2865,
      2773,
      2681,
      2666,
      2596,
      2371,
      2131,
      2081,
      1981,
      1836,
      1556,
      1448,
      1314,
      1069,
      911,
      853,
      688,
      605,
      458,
      307,
      212,
      142,
      89
    ],
    "swim:geom": "approach",
    "swim:timestamps": [
      1769868679,
      1769868704,
      1769868736,
      1769868778,
      1769868803,
      1769868827,
      1769868853,
      1769868894,
      1769868903,
      1769868932,
      1769868974,
      1769868996,
      1769869029,
      1769869058,
      1769869089,
      1769869141,
      1769869193,
      1769869206,
      1769869234,
      1769869269,
      1769869315,
      1769869330,
      1769869361,
      1769869390,
      1769869438,
      1769869453,
      1769869470,
      1769869513,
      1769869545,
      1769869567,
      1769869613,
      1769869630,
      1769869655,
      1769869692,
      1769869721,
      1769869746,
      1769869754
    ],
    "wof:geomhash": "edcd6444bb9baa9e2e43af97afc61e36",
    "wof:id": 2014682551,
    "wof:repo": "sfomuseum-data-flights-2026-01"
  },
  "bbox": [
    -123.47884,
    36.97858,
    -122.14339,
    37.60718
  ],
  "geometry": {"coordinates":[[-123.47884,36.97858],[-123.42026,37.0052],[-123.35111,37.03661],[-123.26301,37.07673],[-123.21126,37.10026],[-123.1624,37.12247],[-123.10665,37.14776],[-123.02376,37.18528],[-123.00588,37.19341],[-122.95107,37.21819],[-122.87689,37.25095],[-122.83799,37.26336],[-122.7828,37.2765],[-122.73629,37.28739],[-122.68665,37.29892],[-122.60284,37.31837],[-122.52138,37.33724],[-122.50032,37.34213],[-122.45721,37.35206],[-122.40252,37.36459],[-122.3335,37.3805],[-122.3117,37.38548],[-122.26948,37.39519],[-122.23177,37.40387],[-122.17197,37.41747],[-122.15446,37.42494],[-122.14339,37.44114],[-122.15071,37.48653],[-122.16823,37.51652],[-122.18562,37.53495],[-122.23104,37.55799],[-122.24754,37.56495],[-122.27058,37.57476],[-122.30063,37.58713],[-122.32266,37.59669],[-122.34128,37.60447],[-122.34751,37.60718]],"type":"LineString"}
}
