{
  "id": 2014681703,
  "type": "Feature",
  "properties": {
    "geom:area": 0,
    "geom:bbox": "-122.343430,37.507730,-122.027760,37.607690",
    "geom:latitude": 37.55848641651905,
    "geom:longitude": -122.18535311781208,
    "src:alt_label": "swim-approach",
    "src:geom": "swim",
    "swim:elevations": [
      1667,
      1417,
      1247,
      1146,
      945,
      860,
      727,
      640,
      533,
      365,
      246,
      113
    ],
    "swim:geom": "approach",
    "swim:timestamps": [
      1769876204,
      1769876239,
      1769876268,
      1769876282,
      1769876330,
      1769876362,
      1769876392,
      1769876413,
      1769876438,
      1769876478,
      1769876510,
      1769876546
    ],
    "wof:geomhash": "96c7720c07a02d09b165d93739ce6b65",
    "wof:id": 2014681703,
    "wof:repo": "sfomuseum-data-flights-2026-01"
  },
  "bbox": [
    -122.34343,
    37.50773,
    -122.02776,
    37.60769
  ],
  "geometry": {"coordinates":[[-122.02776,37.50773],[-122.06703,37.52049],[-122.09771,37.53049],[-122.11319,37.53549],[-122.16194,37.55137],[-122.19289,37.56127],[-122.22051,37.57016],[-122.23814,37.57588],[-122.26057,37.58306],[-122.29309,37.59259],[-122.3172,37.59972],[-122.34343,37.60769]],"type":"LineString"}
}
