{
  "id": 2014684293,
  "type": "Feature",
  "properties": {
    "geom:area": 0,
    "geom:bbox": "-122.557880,36.719580,-122.353660,37.716410",
    "geom:latitude": 37.25574466102346,
    "geom:longitude": -122.47900963330758,
    "src:alt_label": "swim-takeoff",
    "src:geom": "swim",
    "swim:elevations": [
      208,
      488,
      601,
      936,
      1444,
      1510,
      1761,
      2042,
      2283,
      2655,
      3063,
      3276,
      3422,
      3779,
      4162,
      4417,
      4747,
      4871,
      5128,
      5323,
      5407,
      5552,
      5733,
      6080,
      6334,
      6723,
      6988,
      7258,
      7308,
      7529,
      7663
    ],
    "swim:geom": "takeoff",
    "swim:timestamps": [
      1769849728,
      1769849756,
      1769849785,
      1769849817,
      1769849847,
      1769849851,
      1769849871,
      1769849889,
      1769849906,
      1769849937,
      1769849963,
      1769849990,
      1769850018,
      1769850053,
      1769850076,
      1769850102,
      1769850145,
      1769850159,
      1769850186,
      1769850204,
      1769850212,
      1769850233,
      1769850248,
      1769850278,
      1769850301,
      1769850343,
      1769850373,
      1769850413,
      1769850422,
      1769850458,
      1769850480
    ],
    "wof:geomhash": "eb3c6ff9f38c7b90de8c219e1cea5d37",
    "wof:id": 2014684293,
    "wof:repo": "sfomuseum-data-flights-2026-01"
  },
  "bbox": [
    -122.55788,
    36.71958,
    -122.35366,
    37.71641
  ],
  "geometry": {"coordinates":[[-122.36555,37.63448],[-122.36221,37.65778],[-122.36264,37.68851],[-122.39387,37.71641],[-122.43794,37.71135],[-122.4429,37.7082],[-122.45871,37.68786],[-122.46271,37.66545],[-122.46586,37.64532],[-122.47134,37.606],[-122.47613,37.57262],[-122.48187,37.53635],[-122.48862,37.49499],[-122.49686,37.4416],[-122.50227,37.40459],[-122.50882,37.3634],[-122.5201,37.29208],[-122.52363,37.2692],[-122.53092,37.2218],[-122.53605,37.18899],[-122.5384,37.17431],[-122.54413,37.13713],[-122.54816,37.11089],[-122.55616,37.0581],[-122.55788,37.01662],[-122.51984,36.9465],[-122.484,36.89745],[-122.43646,36.83265],[-122.42493,36.81704],[-122.38144,36.75766],[-122.35366,36.71958]],"type":"LineString"}
}
