{
  "id": 2014684725,
  "type": "Feature",
  "properties": {
    "geom:area": 0,
    "geom:bbox": "-122.385490,37.633740,-122.129190,38.511210",
    "geom:latitude": 38.05225442061103,
    "geom:longitude": -122.24739356739845,
    "src:alt_label": "swim-takeoff",
    "src:geom": "swim",
    "swim:elevations": [
      461,
      598,
      864,
      990,
      1193,
      1606,
      1960,
      2565,
      2847,
      3174,
      3373,
      3456,
      3895,
      4129,
      4311,
      4709,
      5010,
      5278,
      5441,
      5648,
      5848,
      6143,
      6287
    ],
    "swim:geom": "takeoff",
    "swim:timestamps": [
      1769926045,
      1769926060,
      1769926093,
      1769926108,
      1769926132,
      1769926165,
      1769926189,
      1769926228,
      1769926253,
      1769926285,
      1769926318,
      1769926330,
      1769926372,
      1769926396,
      1769926414,
      1769926462,
      1769926495,
      1769926528,
      1769926552,
      1769926576,
      1769926604,
      1769926648,
      1769926668
    ],
    "wof:geomhash": "4339ce3bcd7364eafc97858f06cd4b8f",
    "wof:id": 2014684725,
    "wof:repo": "sfomuseum-data-flights-2026-01"
  },
  "bbox": [
    -122.38549,
    37.63374,
    -122.12919,
    38.51121
  ],
  "geometry": {"coordinates":[[-122.3609,37.63374],[-122.35199,37.6423],[-122.3274,37.66374],[-122.31484,37.67516],[-122.3112,37.70046],[-122.33123,37.73821],[-122.34642,37.76548],[-122.36981,37.81102],[-122.38318,37.84079],[-122.38549,37.88487],[-122.36097,37.93063],[-122.34362,37.94478],[-122.27933,37.99527],[-122.24166,38.02459],[-122.21308,38.04693],[-122.16967,38.12075],[-122.16338,38.18106],[-122.15704,38.24328],[-122.15249,38.28729],[-122.14773,38.33293],[-122.14213,38.38695],[-122.13323,38.47214],[-122.12919,38.51121]],"type":"LineString"}
}
