{
  "id": 2014684725,
  "type": "Feature",
  "properties": {
    "date:cessation_lower": "1970-01-01",
    "date:cessation_upper": "1970-01-01",
    "date:inception_lower": "2026-02-01",
    "date:inception_upper": "2026-02-01",
    "edtf:cessation": "1970-01-01T00:00:00Z",
    "edtf:inception": "2026-01-31T22:07:25-08:00",
    "flysfo:actual_timestamp": -1,
    "flysfo:airline": "DL",
    "flysfo:base_airline": "",
    "flysfo:base_flight_number": "3945",
    "flysfo:date": "2026-01-31",
    "flysfo:estimated_timestamp": 1769867700,
    "flysfo:event": "D",
    "flysfo:flight_number": "DL2721",
    "flysfo:gate": "C9",
    "flysfo:journey": "SFO-SEA",
    "flysfo:scheduled_timestamp": 1769868000,
    "flysfo:timestamp": 1769868000,
    "geom:area": 0,
    "geom:bbox": "-122.370943,37.617990,-122.304268,47.441823",
    "geom:latitude": 42.529906499999996,
    "geom:longitude": -122.3376055,
    "iata:airline": "DL",
    "iata:base_airline": "",
    "icao:aircraft": "BCS1",
    "icao:airline": "DAL",
    "icao:base_airline": "AMX",
    "lbl:latitude": 37.61799,
    "lbl:longitude": -122.370943,
    "sfomuseum:aircraft_id": 1528104583,
    "sfomuseum:airline_id": 1159284261,
    "sfomuseum:arrival_id": 102533269,
    "sfomuseum:base_flight_id": "20260131-D-AMX-3945",
    "sfomuseum:departure_id": 102527513,
    "sfomuseum:flight_id": "20260131-D-DAL-2721",
    "sfomuseum:flight_number": [
      "DAL2721",
      "DL2721"
    ],
    "sfomuseum:placetype": "flight",
    "src:geom": "flysfo",
    "src:geom_alt": [
      "swim-takeoff"
    ],
    "swim:tail_number": "N111NG",
    "wof:belongsto": [
      1763588121,
      102527513,
      1763588233,
      102191575,
      85633793,
      102087579,
      85922583,
      554784711,
      85688637,
      1763588251,
      1763588123,
      102085387
    ],
    "wof:country": "US",
    "wof:created": 1769962329,
    "wof:geomhash": "4036ee3c983703867dbe0486453848b1",
    "wof:hierarchy": [
      {
        "building_id": 1763588121,
        "campus_id": 102527513,
        "concourse_id": 1763588233,
        "continent_id": 102191575,
        "country_id": 85633793,
        "county_id": 102087579,
        "custom_id": 2014684725,
        "flight_id": 2014684725,
        "locality_id": 85922583,
        "postalcode_id": 554784711,
        "region_id": 85688637,
        "venue_id": 1763588251,
        "wing_id": 1763588123
      },
      {
        "building_id": 1763588121,
        "campus_id": 102527513,
        "concourse_id": 1763588233,
        "continent_id": 102191575,
        "country_id": 85633793,
        "county_id": 102085387,
        "custom_id": 2014684725,
        "flight_id": 2014684725,
        "region_id": 85688637,
        "venue_id": 1763588251,
        "wing_id": 1763588123
      }
    ],
    "wof:id": 2014684725,
    "wof:involves": [
      102527513,
      1159284261,
      1763588251,
      1159283539,
      1528104583,
      102533269
    ],
    "wof:lastmodified": 1769962587,
    "wof:name": "DL2721 (SFO-SEA)",
    "wof:parent_id": 1763588251,
    "wof:placetype": "custom",
    "wof:placetype_alt": [
      "flight"
    ],
    "wof:repo": "sfomuseum-data-flights-2026-01",
    "wof:superseded_by": [],
    "wof:supersedes": []
  },
  "bbox": [
    -122.370943,
    37.61799,
    -122.304268,
    47.441823
  ],
  "geometry": {"coordinates":[[-122.370943,37.61799],[-122.304268,47.441823]],"type":"MultiPoint"}
}
