{
  "id": 2014682513,
  "type": "Feature",
  "properties": {
    "geom:area": 0,
    "geom:bbox": "-122.359220,37.491250,-121.245250,37.614160",
    "geom:latitude": 37.546947526174506,
    "geom:longitude": -121.80717197312526,
    "src:alt_label": "swim-approach",
    "src:geom": "swim",
    "swim:elevations": [
      4828,
      4554,
      4265,
      3931,
      3816,
      3621,
      3353,
      3237,
      3156,
      2959,
      2884,
      2577,
      2535,
      2221,
      2099,
      1985,
      1856,
      1807,
      1441,
      1354,
      1092,
      998,
      772,
      616,
      546,
      396,
      336,
      241,
      181,
      0
    ],
    "swim:geom": "approach",
    "swim:timestamps": [
      1769889863,
      1769889889,
      1769889919,
      1769889952,
      1769889964,
      1769889986,
      1769890013,
      1769890031,
      1769890064,
      1769890100,
      1769890115,
      1769890168,
      1769890174,
      1769890228,
      1769890252,
      1769890285,
      1769890315,
      1769890330,
      1769890375,
      1769890387,
      1769890428,
      1769890447,
      1769890492,
      1769890528,
      1769890543,
      1769890588,
      1769890612,
      1769890643,
      1769890654,
      1769890699
    ],
    "wof:geomhash": "b064633698143386a7f4202b406e3eb6",
    "wof:id": 2014682513,
    "wof:repo": "sfomuseum-data-flights-2026-01"
  },
  "bbox": [
    -122.35922,
    37.49125,
    -121.24525,
    37.61416
  ],
  "geometry": {"coordinates":[[-121.24525,37.59513],[-121.296,37.58847],[-121.35223,37.58244],[-121.41564,37.57529],[-121.43856,37.5727],[-121.48017,37.56785],[-121.53125,37.56179],[-121.56511,37.55782],[-121.62324,37.55023],[-121.68067,37.53748],[-121.70295,37.53218],[-121.77457,37.51496],[-121.78257,37.513],[-121.85542,37.49559],[-121.88764,37.49125],[-121.93222,37.49235],[-121.97193,37.49347],[-121.99113,37.49606],[-122.04776,37.51392],[-122.06244,37.51877],[-122.11251,37.53516],[-122.13501,37.54244],[-122.18216,37.55767],[-122.21807,37.56935],[-122.23292,37.57409],[-122.27538,37.58719],[-122.29408,37.59256],[-122.31748,37.59928],[-122.32643,37.60204],[-122.35922,37.61416]],"type":"LineString"}
}
