{
  "id": 2014683185,
  "type": "Feature",
  "properties": {
    "geom:area": 0,
    "geom:bbox": "-122.364520,37.631140,-121.263780,38.414570",
    "geom:latitude": 38.03310925949096,
    "geom:longitude": -121.82287398679077,
    "src:alt_label": "swim-takeoff",
    "src:geom": "swim",
    "swim:elevations": [
      259,
      725,
      779,
      948,
      1233,
      1996,
      2141,
      2660,
      2862,
      3164,
      3320,
      3561,
      3779,
      4003,
      4443,
      4753,
      4996,
      5396,
      5570,
      5719,
      5950,
      6236,
      6429,
      6715
    ],
    "swim:geom": "takeoff",
    "swim:timestamps": [
      1769866032,
      1769866075,
      1769866087,
      1769866111,
      1769866144,
      1769866197,
      1769866208,
      1769866249,
      1769866264,
      1769866294,
      1769866326,
      1769866372,
      1769866395,
      1769866413,
      1769866456,
      1769866487,
      1769866509,
      1769866551,
      1769866573,
      1769866590,
      1769866622,
      1769866666,
      1769866689,
      1769866735
    ],
    "wof:geomhash": "9ac59e6671e3ef3eab0d81034ab98de6",
    "wof:id": 2014683185,
    "wof:repo": "sfomuseum-data-flights-2026-01"
  },
  "bbox": [
    -122.36452,
    37.63114,
    -121.26378,
    38.41457
  ],
  "geometry": {"coordinates":[[-122.36452,37.63114],[-122.33183,37.65285],[-122.32026,37.65946],[-122.2952,37.67383],[-122.25636,37.69594],[-122.19448,37.74058],[-122.18387,37.75208],[-122.14343,37.79603],[-122.12784,37.81318],[-122.09632,37.84808],[-122.05669,37.88741],[-121.97992,37.93964],[-121.93864,37.96775],[-121.90628,37.9897],[-121.82642,38.04359],[-121.7673,38.08344],[-121.72584,38.11133],[-121.64373,38.1664],[-121.60215,38.19426],[-121.56927,38.21633],[-121.50398,38.25997],[-121.41297,38.32071],[-121.36536,38.35217],[-121.26378,38.41457]],"type":"LineString"}
}
