{
  "id": 2014680621,
  "type": "Feature",
  "properties": {
    "geom:area": 0,
    "geom:bbox": "-122.785780,37.404710,-122.123740,38.330360",
    "geom:latitude": 37.754769293838855,
    "geom:longitude": -122.46496549671348,
    "src:alt_label": "swim-approach",
    "src:geom": "swim",
    "swim:elevations": [
      7590,
      7068,
      6720,
      6335,
      5965,
      5783,
      5249,
      4846,
      4778,
      4064,
      3865,
      3517,
      3356,
      3353,
      3353,
      3354,
      3271,
      3076,
      2776,
      2651,
      2257,
      2157,
      1817,
      1682,
      1641,
      1433,
      1382,
      1262,
      1193,
      956,
      914,
      891,
      883,
      640,
      421,
      306,
      150,
      64
    ],
    "swim:geom": "approach",
    "swim:timestamps": [
      1769860033,
      1769860074,
      1769860101,
      1769860130,
      1769860161,
      1769860177,
      1769860225,
      1769860256,
      1769860260,
      1769860316,
      1769860331,
      1769860360,
      1769860436,
      1769860464,
      1769860492,
      1769860525,
      1769860555,
      1769860578,
      1769860612,
      1769860625,
      1769860676,
      1769860690,
      1769860734,
      1769860749,
      1769860754,
      1769860797,
      1769860807,
      1769860841,
      1769860878,
      1769860906,
      1769860945,
      1769860976,
      1769860980,
      1769861016,
      1769861057,
      1769861086,
      1769861124,
      1769861150
    ],
    "wof:geomhash": "8af7a5050b16db872edbd48c5bd89557",
    "wof:id": 2014680621,
    "wof:repo": "sfomuseum-data-flights-2026-01"
  },
  "bbox": [
    -122.78578,
    37.40471,
    -122.12374,
    38.33036
  ],
  "geometry": {"coordinates":[[-122.78578,38.33036],[-122.77336,38.25815],[-122.76396,38.21257],[-122.74956,38.16228],[-122.73445,38.10973],[-122.72668,38.08315],[-122.704,38.00585],[-122.68935,37.95512],[-122.68725,37.94806],[-122.63607,37.86486],[-122.61454,37.84418],[-122.57554,37.80714],[-122.48122,37.71827],[-122.44738,37.68639],[-122.41438,37.65542],[-122.37922,37.62223],[-122.35469,37.59365],[-122.34328,37.57019],[-122.32513,37.53723],[-122.31689,37.52361],[-122.28697,37.47474],[-122.27886,37.46158],[-122.25373,37.42029],[-122.24228,37.40762],[-122.2367,37.40471],[-122.18835,37.41708],[-122.17757,37.42403],[-122.14627,37.44445],[-122.12374,37.47027],[-122.13925,37.49318],[-122.1677,37.52224],[-122.19551,37.54032],[-122.19954,37.54209],[-122.2375,37.55908],[-122.27668,37.57751],[-122.30074,37.58758],[-122.33023,37.59986],[-122.34936,37.60784]],"type":"LineString"}
}
