{
  "id": 2014680741,
  "type": "Feature",
  "properties": {
    "geom:area": 0,
    "geom:bbox": "-123.487920,36.972700,-122.152870,37.613610",
    "geom:latitude": 37.28687460203894,
    "geom:longitude": -122.72567676841604,
    "src:alt_label": "swim-approach",
    "src:geom": "swim",
    "swim:elevations": [
      6516,
      6463,
      6132,
      6035,
      5409,
      5008,
      4666,
      4363,
      3904,
      3820,
      3594,
      3259,
      3048,
      3048,
      3016,
      3018,
      2808,
      2568,
      2466,
      2438,
      2438,
      2438,
      2438,
      2337,
      2032,
      1859,
      1546,
      1469,
      1148,
      1112,
      974,
      945,
      690,
      549,
      428,
      241,
      136,
      24,
      0
    ],
    "swim:geom": "approach",
    "swim:timestamps": [
      1769901558,
      1769901564,
      1769901588,
      1769901600,
      1769901657,
      1769901687,
      1769901714,
      1769901738,
      1769901777,
      1769901783,
      1769901802,
      1769901829,
      1769901862,
      1769901874,
      1769901922,
      1769901942,
      1769901982,
      1769902015,
      1769902032,
      1769902077,
      1769902107,
      1769902138,
      1769902163,
      1769902187,
      1769902226,
      1769902245,
      1769902288,
      1769902300,
      1769902345,
      1769902351,
      1769902375,
      1769902384,
      1769902436,
      1769902462,
      1769902492,
      1769902528,
      1769902558,
      1769902587,
      1769902590
    ],
    "wof:geomhash": "8e28e755d753ddbe09465ecafbb11127",
    "wof:id": 2014680741,
    "wof:repo": "sfomuseum-data-flights-2026-01"
  },
  "bbox": [
    -123.48792,
    36.9727,
    -122.15287,
    37.61361
  ],
  "geometry": {"coordinates":[[-123.48792,36.9727],[-123.47422,36.97903],[-123.41988,37.00353],[-123.39128,37.01622],[-123.26564,37.07463],[-123.20058,37.10446],[-123.14326,37.13042],[-123.09212,37.15368],[-123.01079,37.1909],[-122.99734,37.19691],[-122.95853,37.21433],[-122.90619,37.23833],[-122.83891,37.26302],[-122.81483,37.26874],[-122.72811,37.28939],[-122.69383,37.29725],[-122.62894,37.31221],[-122.57391,37.32509],[-122.54688,37.33136],[-122.47463,37.3482],[-122.42676,37.35949],[-122.37641,37.37083],[-122.33709,37.37969],[-122.29909,37.38834],[-122.23812,37.4022],[-122.20846,37.40904],[-122.16015,37.44238],[-122.15287,37.45582],[-122.15327,37.50656],[-122.15715,37.51267],[-122.17403,37.53464],[-122.18203,37.54084],[-122.23194,37.56162],[-122.25525,37.57053],[-122.28172,37.58166],[-122.3101,37.59361],[-122.33312,37.60339],[-122.35537,37.61276],[-122.35765,37.61361]],"type":"LineString"}
}
