{
  "id": 2014686017,
  "type": "Feature",
  "properties": {
    "geom:area": 0,
    "geom:bbox": "-122.367940,37.626310,-122.105070,38.511480",
    "geom:latitude": 38.035156290628045,
    "geom:longitude": -122.17691077066014,
    "src:alt_label": "swim-takeoff",
    "src:geom": "swim",
    "swim:elevations": [
      183,
      244,
      867,
      1158,
      1371,
      1423,
      2333,
      2682,
      3306,
      3435,
      3820,
      4494,
      4931,
      5298,
      5485,
      6000,
      6092,
      6316,
      6573,
      6783,
      6977,
      7366,
      7646
    ],
    "swim:geom": "takeoff",
    "swim:timestamps": [
      1769855998,
      1769856002,
      1769856047,
      1769856080,
      1769856115,
      1769856122,
      1769856171,
      1769856189,
      1769856230,
      1769856248,
      1769856278,
      1769856324,
      1769856355,
      1769856380,
      1769856400,
      1769856444,
      1769856453,
      1769856472,
      1769856492,
      1769856517,
      1769856540,
      1769856580,
      1769856606
    ],
    "wof:geomhash": "984e6913b9c010153f158e1bb4f0e17d",
    "wof:id": 2014686017,
    "wof:repo": "sfomuseum-data-flights-2026-01"
  },
  "bbox": [
    -122.36794,
    37.62631,
    -122.10507,
    38.51148
  ],
  "geometry": {"coordinates":[[-122.36794,37.62631],[-122.36636,37.62886],[-122.33705,37.64933],[-122.31167,37.66309],[-122.27674,37.68379],[-122.26863,37.68854],[-122.21172,37.73283],[-122.20601,37.75628],[-122.19749,37.81273],[-122.19303,37.83991],[-122.18491,37.8899],[-122.17203,37.96837],[-122.16284,38.02319],[-122.15584,38.06731],[-122.15011,38.10446],[-122.1372,38.1869],[-122.13459,38.20276],[-122.12835,38.24069],[-122.12197,38.27979],[-122.11434,38.3285],[-122.11107,38.37545],[-122.10757,38.45613],[-122.10507,38.51148]],"type":"LineString"}
}
