{
  "id": 2014685981,
  "type": "Feature",
  "properties": {
    "geom:area": 0,
    "geom:bbox": "-122.366190,37.629060,-121.260470,37.955010",
    "geom:latitude": 37.816638588403244,
    "geom:longitude": -121.82338969201926,
    "src:alt_label": "swim-takeoff",
    "src:geom": "swim",
    "swim:elevations": [
      152,
      495,
      1034,
      1223,
      1296,
      1821,
      2102,
      2612,
      2779,
      3421,
      3779,
      3892,
      4098,
      4405,
      4744,
      4814,
      5227,
      5572,
      5727,
      5916,
      6022,
      6319,
      6635
    ],
    "swim:geom": "takeoff",
    "swim:timestamps": [
      1769849027,
      1769849046,
      1769849093,
      1769849128,
      1769849139,
      1769849185,
      1769849207,
      1769849241,
      1769849255,
      1769849308,
      1769849331,
      1769849340,
      1769849384,
      1769849423,
      1769849453,
      1769849460,
      1769849495,
      1769849538,
      1769849556,
      1769849576,
      1769849588,
      1769849626,
      1769849660
    ],
    "wof:geomhash": "e7739bdd02d7a9c31a40dfe612851475",
    "wof:id": 2014685981,
    "wof:repo": "sfomuseum-data-flights-2026-01"
  },
  "bbox": [
    -122.36619,
    37.62906,
    -121.26047,
    37.95501
  ],
  "geometry": {"coordinates":[[-122.36619,37.62906],[-122.35456,37.64108],[-122.31412,37.66328],[-122.28023,37.68308],[-122.26716,37.69044],[-122.20907,37.72139],[-122.17754,37.73658],[-122.12359,37.75024],[-122.10159,37.75615],[-122.01089,37.77764],[-121.97097,37.78752],[-121.95618,37.79121],[-121.87343,37.81108],[-121.79265,37.83001],[-121.72833,37.84482],[-121.71257,37.84862],[-121.63608,37.86695],[-121.54133,37.88956],[-121.50084,37.899],[-121.45622,37.90924],[-121.42884,37.91555],[-121.33996,37.93624],[-121.26047,37.95501]],"type":"LineString"}
}
