{
  "id": 2014685917,
  "type": "Feature",
  "properties": {
    "geom:area": 0,
    "geom:bbox": "-122.348920,37.640630,-121.440230,38.511970",
    "geom:latitude": 38.03136521411642,
    "geom:longitude": -121.8732079748818,
    "src:alt_label": "swim-takeoff",
    "src:geom": "swim",
    "swim:elevations": [
      556,
      736,
      1153,
      1228,
      1275,
      1542,
      1957,
      2358,
      2709,
      3052,
      3186,
      3510,
      3543,
      3739,
      4169,
      4509,
      4616,
      4803,
      5046,
      5332,
      5586,
      5834,
      6044,
      6410,
      6639,
      6765
    ],
    "swim:geom": "takeoff",
    "swim:timestamps": [
      1769903453,
      1769903471,
      1769903514,
      1769903529,
      1769903538,
      1769903571,
      1769903604,
      1769903637,
      1769903664,
      1769903694,
      1769903712,
      1769903758,
      1769903767,
      1769903797,
      1769903839,
      1769903874,
      1769903883,
      1769903900,
      1769903924,
      1769903958,
      1769903991,
      1769904018,
      1769904042,
      1769904087,
      1769904117,
      1769904132
    ],
    "wof:geomhash": "fef791f94dc380f014966027bc13af3b",
    "wof:id": 2014685917,
    "wof:repo": "sfomuseum-data-flights-2026-01"
  },
  "bbox": [
    -122.34892,
    37.64063,
    -121.44023,
    38.51197
  ],
  "geometry": {"coordinates":[[-122.34892,37.64063],[-122.33111,37.64613],[-122.28351,37.65146],[-122.26502,37.65311],[-122.25325,37.65427],[-122.20548,37.6596],[-122.15291,37.66574],[-122.11114,37.69377],[-122.0876,37.72663],[-122.06036,37.76431],[-122.04288,37.78751],[-121.99403,37.85362],[-121.98365,37.86754],[-121.94753,37.91611],[-121.89356,37.98657],[-121.84779,38.04668],[-121.83575,38.06255],[-121.81216,38.09406],[-121.77967,38.13761],[-121.7329,38.20048],[-121.68649,38.26282],[-121.64773,38.31491],[-121.61301,38.36142],[-121.53907,38.44613],[-121.47332,38.49163],[-121.44023,38.51197]],"type":"LineString"}
}
