{
  "id": 2014682385,
  "type": "Feature",
  "properties": {
    "geom:area": 0,
    "geom:bbox": "-123.484730,37.265110,-122.071110,37.612110",
    "geom:latitude": 37.38857869214665,
    "geom:longitude": -122.6726411107867,
    "src:alt_label": "swim-approach",
    "src:geom": "swim",
    "swim:elevations": [
      5231,
      4933,
      4642,
      4355,
      4061,
      3847,
      3766,
      3426,
      3275,
      3189,
      3128,
      3047,
      3048,
      3048,
      3048,
      2873,
      2787,
      2679,
      2625,
      2587,
      2559,
      2497,
      2470,
      2369,
      2228,
      2128,
      1998,
      1868,
      1594,
      1337,
      1066,
      943,
      913,
      855,
      762,
      576,
      455,
      384,
      245,
      165,
      40
    ],
    "swim:geom": "approach",
    "swim:timestamps": [
      1769923707,
      1769923738,
      1769923768,
      1769923798,
      1769923828,
      1769923852,
      1769923861,
      1769923897,
      1769923921,
      1769923954,
      1769923981,
      1769924025,
      1769924055,
      1769924085,
      1769924114,
      1769924153,
      1769924165,
      1769924213,
      1769924248,
      1769924278,
      1769924290,
      1769924317,
      1769924344,
      1769924383,
      1769924413,
      1769924437,
      1769924461,
      1769924479,
      1769924509,
      1769924530,
      1769924577,
      1769924608,
      1769924617,
      1769924668,
      1769924689,
      1769924728,
      1769924752,
      1769924773,
      1769924803,
      1769924821,
      1769924850
    ],
    "wof:geomhash": "d79419b2fff27636613b4cf0ce4e0143",
    "wof:id": 2014682385,
    "wof:repo": "sfomuseum-data-flights-2026-01"
  },
  "bbox": [
    -123.48473,
    37.26511,
    -122.07111,
    37.61211
  ],
  "geometry": {"coordinates":[[-123.48473,37.45111],[-123.41522,37.42967],[-123.34908,37.40932],[-123.28396,37.3891],[-123.21952,37.36906],[-123.16745,37.35289],[-123.15026,37.34754],[-123.07504,37.32405],[-123.02564,37.30872],[-122.96157,37.28863],[-122.91219,37.27312],[-122.83285,37.26511],[-122.78224,37.27614],[-122.73216,37.28808],[-122.68297,37.29982],[-122.61762,37.31515],[-122.59756,37.31979],[-122.51765,37.33817],[-122.46045,37.35135],[-122.41154,37.36263],[-122.392,37.36711],[-122.34824,37.37716],[-122.30504,37.3871],[-122.24329,37.40121],[-122.19752,37.4118],[-122.1617,37.42005],[-122.12723,37.42828],[-122.1035,37.4351],[-122.08028,37.4602],[-122.07111,37.48036],[-122.10919,37.50874],[-122.13995,37.52207],[-122.14871,37.52579],[-122.19742,37.54632],[-122.21747,37.55478],[-122.25385,37.57013],[-122.27413,37.57863],[-122.29128,37.58589],[-122.316,37.59621],[-122.33043,37.60239],[-122.35375,37.61211]],"type":"LineString"}
}
