{
  "id": 2014686023,
  "type": "Feature",
  "properties": {
    "geom:area": 0,
    "geom:bbox": "-123.469240,37.084420,-122.395080,37.666330",
    "geom:latitude": 37.398662001500576,
    "geom:longitude": -122.93444676859114,
    "src:alt_label": "swim-takeoff",
    "src:geom": "swim",
    "swim:elevations": [
      122,
      183,
      743,
      991,
      1027,
      1253,
      1414,
      2091,
      2540,
      2960,
      3298,
      3424,
      3832,
      4064,
      4222,
      4329,
      4576,
      4966,
      5169,
      5337,
      5388,
      5507,
      5591,
      5825,
      6308,
      6465,
      6687
    ],
    "swim:geom": "takeoff",
    "swim:timestamps": [
      1769859057,
      1769859061,
      1769859112,
      1769859141,
      1769859150,
      1769859172,
      1769859185,
      1769859234,
      1769859266,
      1769859296,
      1769859324,
      1769859337,
      1769859384,
      1769859413,
      1769859435,
      1769859458,
      1769859491,
      1769859537,
      1769859568,
      1769859590,
      1769859597,
      1769859619,
      1769859630,
      1769859661,
      1769859715,
      1769859734,
      1769859765
    ],
    "wof:geomhash": "d6cc73404427803e55e2497e500350d3",
    "wof:id": 2014686023,
    "wof:repo": "sfomuseum-data-flights-2026-01"
  },
  "bbox": [
    -123.46924,
    37.08442,
    -122.39508,
    37.66633
  ],
  "geometry": {"coordinates":[[-122.39508,37.627],[-122.39914,37.62864],[-122.45095,37.65158],[-122.48371,37.66475],[-122.49667,37.66633],[-122.52806,37.65881],[-122.54314,37.64963],[-122.60176,37.61175],[-122.64077,37.58674],[-122.67697,37.56329],[-122.71126,37.54135],[-122.72798,37.53045],[-122.79173,37.48945],[-122.83327,37.46252],[-122.8665,37.44096],[-122.90299,37.41741],[-122.95776,37.38186],[-123.0383,37.33363],[-123.09481,37.3012],[-123.13619,37.27698],[-123.14947,37.26918],[-123.18936,37.24612],[-123.21221,37.23313],[-123.26986,37.1999],[-123.37405,37.13972],[-123.40975,37.11899],[-123.46924,37.08442]],"type":"LineString"}
}
