{
  "id": 2014681199,
  "type": "Feature",
  "properties": {
    "geom:area": 0,
    "geom:bbox": "-122.359660,37.490760,-121.299750,37.615150",
    "geom:latitude": 37.54501737465643,
    "geom:longitude": -121.83450257014309,
    "src:alt_label": "swim-approach",
    "src:geom": "swim",
    "swim:elevations": [
      4471,
      4257,
      3973,
      3663,
      3421,
      3230,
      3109,
      3046,
      2786,
      2669,
      2500,
      2399,
      2064,
      2025,
      1896,
      1770,
      1520,
      1409,
      1180,
      1128,
      939,
      696,
      575,
      418,
      401,
      290,
      181,
      109,
      0
    ],
    "swim:geom": "approach",
    "swim:timestamps": [
      1769881643,
      1769881664,
      1769881692,
      1769881727,
      1769881753,
      1769881777,
      1769881824,
      1769881837,
      1769881877,
      1769881897,
      1769881924,
      1769881953,
      1769882002,
      1769882012,
      1769882048,
      1769882086,
      1769882119,
      1769882140,
      1769882184,
      1769882191,
      1769882229,
      1769882278,
      1769882301,
      1769882338,
      1769882342,
      1769882366,
      1769882387,
      1769882403,
      1769882433
    ],
    "wof:geomhash": "33606b3e5420046cc4f32173f4d49c60",
    "wof:id": 2014681199,
    "wof:repo": "sfomuseum-data-flights-2026-01"
  },
  "bbox": [
    -122.35966,
    37.49076,
    -121.29975,
    37.61515
  ],
  "geometry": {"coordinates":[[-121.29975,37.5879],[-121.34156,37.5835],[-121.39646,37.57695],[-121.46207,37.56973],[-121.50899,37.56506],[-121.5539,37.55972],[-121.63409,37.54863],[-121.65366,37.54384],[-121.71376,37.52963],[-121.74277,37.52259],[-121.78332,37.51283],[-121.82562,37.50314],[-121.89379,37.49076],[-121.90818,37.49143],[-121.95816,37.49341],[-122.00672,37.50137],[-122.0464,37.51391],[-122.07164,37.52222],[-122.12341,37.53914],[-122.13134,37.54161],[-122.17306,37.55524],[-122.22283,37.57084],[-122.2462,37.57823],[-122.28106,37.58878],[-122.28452,37.58975],[-122.3054,37.5959],[-122.32376,37.60136],[-122.33737,37.60576],[-122.35966,37.61515]],"type":"LineString"}
}
