{
  "id": 2014682601,
  "type": "Feature",
  "properties": {
    "geom:area": 0,
    "geom:bbox": "-122.361520,36.743990,-121.891380,37.612990",
    "geom:latitude": 37.2216096746406,
    "geom:longitude": -122.07530042958945,
    "src:alt_label": "swim-approach",
    "src:geom": "swim",
    "swim:elevations": [
      5164,
      4996,
      4591,
      4480,
      4061,
      3943,
      3804,
      3612,
      3484,
      3226,
      3168,
      3055,
      2894,
      2765,
      2534,
      2496,
      2413,
      2133,
      1807,
      1618,
      1523,
      1478,
      1389,
      1325,
      1127,
      878,
      702,
      548,
      430,
      310,
      232,
      58,
      0
    ],
    "swim:geom": "approach",
    "swim:timestamps": [
      1769849035,
      1769849052,
      1769849093,
      1769849106,
      1769849150,
      1769849162,
      1769849178,
      1769849199,
      1769849212,
      1769849241,
      1769849252,
      1769849295,
      1769849327,
      1769849345,
      1769849380,
      1769849388,
      1769849402,
      1769849441,
      1769849485,
      1769849513,
      1769849538,
      1769849556,
      1769849573,
      1769849588,
      1769849626,
      1769849653,
      1769849680,
      1769849707,
      1769849728,
      1769849756,
      1769849779,
      1769849817,
      1769849831
    ],
    "wof:geomhash": "edd1d14bb58e6e5826044a350a33c969",
    "wof:id": 2014682601,
    "wof:repo": "sfomuseum-data-flights-2026-01"
  },
  "bbox": [
    -122.36152,
    36.74399,
    -121.89138,
    37.61299
  ],
  "geometry": {"coordinates":[[-121.89138,36.74399],[-121.90227,36.7715],[-121.92145,36.83926],[-121.92738,36.86049],[-121.94735,36.93167],[-121.95269,36.95003],[-121.96237,36.97502],[-121.97513,37.00792],[-121.9831,37.02874],[-122.00029,37.07312],[-122.00649,37.08904],[-122.03006,37.14899],[-122.04554,37.18847],[-122.05442,37.21108],[-122.07143,37.25435],[-122.07523,37.26429],[-122.08133,37.28011],[-122.09996,37.32764],[-122.12108,37.38091],[-122.1323,37.41389],[-122.14244,37.44422],[-122.15042,37.46398],[-122.15854,37.48117],[-122.16829,37.49516],[-122.19169,37.52858],[-122.21105,37.54892],[-122.23803,37.561],[-122.26358,37.57169],[-122.28106,37.57883],[-122.3031,37.58852],[-122.32058,37.5958],[-122.35109,37.60873],[-122.36152,37.61299]],"type":"LineString"}
}
