{
  "id": 2014681223,
  "type": "Feature",
  "properties": {
    "geom:area": 0,
    "geom:bbox": "-122.359890,37.491470,-121.242380,37.615060",
    "geom:latitude": 37.547290734838626,
    "geom:longitude": -121.80616184783707,
    "src:alt_label": "swim-approach",
    "src:geom": "swim",
    "swim:elevations": [
      4912,
      4544,
      4383,
      4214,
      3898,
      3650,
      3384,
      3250,
      3074,
      2805,
      2538,
      2509,
      2310,
      2070,
      1934,
      1854,
      1532,
      1277,
      1101,
      1003,
      689,
      609,
      476,
      371,
      263,
      94,
      0
    ],
    "swim:geom": "approach",
    "swim:timestamps": [
      1769867565,
      1769867601,
      1769867627,
      1769867647,
      1769867687,
      1769867721,
      1769867756,
      1769867773,
      1769867796,
      1769867842,
      1769867878,
      1769867887,
      1769867921,
      1769867963,
      1769867992,
      1769868012,
      1769868048,
      1769868079,
      1769868104,
      1769868125,
      1769868175,
      1769868191,
      1769868237,
      1769868265,
      1769868284,
      1769868318,
      1769868340
    ],
    "wof:geomhash": "b778de6618e920a95ab4177e243e4cc4",
    "wof:id": 2014681223,
    "wof:repo": "sfomuseum-data-flights-2026-01"
  },
  "bbox": [
    -122.35989,
    37.49147,
    -121.24238,
    37.61506
  ],
  "geometry": {"coordinates":[[-121.24238,37.59542],[-121.31105,37.58685],[-121.36183,37.58131],[-121.39797,37.57736],[-121.46578,37.56943],[-121.52142,37.56284],[-121.57967,37.55599],[-121.6083,37.5526],[-121.64579,37.54568],[-121.71704,37.52882],[-121.77269,37.51539],[-121.78612,37.51216],[-121.83714,37.4999],[-121.90059,37.49147],[-121.94522,37.49247],[-121.97557,37.49375],[-122.02816,37.50725],[-122.07212,37.52189],[-122.10521,37.53279],[-122.13273,37.54183],[-122.19862,37.56305],[-122.21872,37.56969],[-122.27199,37.58655],[-122.30013,37.59503],[-122.31687,37.59998],[-122.3434,37.60819],[-122.35989,37.61506]],"type":"LineString"}
}
