{
  "id": 2014680615,
  "type": "Feature",
  "properties": {
    "geom:area": 0,
    "geom:bbox": "-123.476910,37.261690,-122.120970,37.628510",
    "geom:latitude": 37.44489651524439,
    "geom:longitude": -122.58021013235658,
    "src:alt_label": "swim-approach",
    "src:geom": "swim",
    "swim:elevations": [
      5658,
      5618,
      5326,
      4873,
      4648,
      4247,
      3983,
      3867,
      3484,
      3329,
      3138,
      3049,
      3043,
      2958,
      2890,
      2840,
      2798,
      2657,
      2433,
      2030,
      1978,
      1829,
      1829,
      1723,
      1670,
      1584,
      1344,
      1340,
      1173,
      950,
      875,
      790,
      535,
      444,
      282,
      133,
      326,
      587,
      941,
      945,
      976,
      1090,
      1294,
      1525,
      1524,
      1524,
      1524,
      1524,
      1524,
      1524,
      1524,
      1524,
      1524,
      1491,
      1217,
      1219,
      1211,
      1142,
      993,
      942,
      757,
      566,
      417,
      342,
      177,
      58
    ],
    "swim:geom": "approach",
    "swim:timestamps": [
      1769861637,
      1769861641,
      1769861676,
      1769861723,
      1769861746,
      1769861788,
      1769861815,
      1769861827,
      1769861868,
      1769861886,
      1769861926,
      1769861968,
      1769861989,
      1769862014,
      1769862057,
      1769862074,
      1769862100,
      1769862121,
      1769862165,
      1769862238,
      1769862246,
      1769862297,
      1769862325,
      1769862358,
      1769862379,
      1769862395,
      1769862448,
      1769862453,
      1769862496,
      1769862529,
      1769862542,
      1769862558,
      1769862597,
      1769862609,
      1769862633,
      1769862677,
      1769862702,
      1769862723,
      1769862777,
      1769862798,
      1769862827,
      1769862852,
      1769862881,
      1769862922,
      1769862942,
      1769862965,
      1769863006,
      1769863033,
      1769863057,
      1769863102,
      1769863110,
      1769863148,
      1769863186,
      1769863203,
      1769863258,
      1769863288,
      1769863317,
      1769863337,
      1769863375,
      1769863383,
      1769863417,
      1769863453,
      1769863489,
      1769863503,
      1769863547,
      1769863576
    ],
    "wof:geomhash": "59279a7ad1cb94f235b81ab81a67b893",
    "wof:id": 2014680615,
    "wof:repo": "sfomuseum-data-flights-2026-01"
  },
  "bbox": [
    -123.47691,
    37.26169,
    -122.12097,
    37.62851
  ],
  "geometry": {"coordinates":[[-123.47691,37.44797],[-123.46885,37.44548],[-123.3989,37.42423],[-123.30569,37.39543],[-123.26008,37.38139],[-123.17818,37.35592],[-123.12451,37.33914],[-123.10168,37.33198],[-123.02483,37.30809],[-122.99136,37.29777],[-122.9218,37.276],[-122.84957,37.26169],[-122.81588,37.26891],[-122.77365,37.27863],[-122.70348,37.295],[-122.67601,37.30139],[-122.63425,37.31103],[-122.60013,37.31894],[-122.5318,37.33482],[-122.42115,37.3604],[-122.40961,37.36305],[-122.33548,37.38155],[-122.29656,37.3958],[-122.25397,37.41193],[-122.22839,37.42184],[-122.20931,37.42931],[-122.17685,37.47533],[-122.17567,37.48044],[-122.16917,37.52142],[-122.19044,37.54746],[-122.20493,37.55231],[-122.22238,37.55553],[-122.26304,37.57165],[-122.27512,37.57675],[-122.29765,37.58622],[-122.33493,37.60177],[-122.35585,37.61069],[-122.37788,37.61562],[-122.44506,37.62189],[-122.47242,37.62431],[-122.50945,37.62713],[-122.54286,37.62851],[-122.57326,37.61067],[-122.55689,37.57274],[-122.53154,37.56374],[-122.50248,37.55477],[-122.45,37.53827],[-122.4162,37.52764],[-122.38546,37.51793],[-122.32852,37.49976],[-122.31807,37.49639],[-122.2702,37.48116],[-122.22425,37.46683],[-122.20639,37.46125],[-122.15139,37.44673],[-122.12789,37.46424],[-122.12097,37.49009],[-122.12995,37.50746],[-122.16372,37.52998],[-122.17239,37.53367],[-122.20964,37.54922],[-122.24765,37.56521],[-122.2792,37.57848],[-122.29079,37.58332],[-122.32565,37.59799],[-122.34852,37.60754]],"type":"LineString"}
}
