{
  "id": 2014681217,
  "type": "Feature",
  "properties": {
    "geom:area": 0,
    "geom:bbox": "-122.756790,37.472900,-122.181820,38.508920",
    "geom:latitude": 37.903996790192494,
    "geom:longitude": -122.51035256847126,
    "src:alt_label": "swim-approach",
    "src:geom": "swim",
    "swim:elevations": [
      7192,
      7053,
      6723,
      6549,
      6461,
      6293,
      6099,
      5898,
      5723,
      5669,
      5422,
      5436,
      4871,
      4706,
      4654,
      4220,
      3999,
      3837,
      3450,
      3377,
      3353,
      3332,
      3107,
      2958,
      2866,
      2587,
      2373,
      2150,
      1801,
      1661,
      1453,
      1403,
      905,
      793,
      630,
      607,
      342,
      267,
      153,
      61
    ],
    "swim:geom": "approach",
    "swim:timestamps": [
      1769860331,
      1769860353,
      1769860436,
      1769860464,
      1769860482,
      1769860516,
      1769860550,
      1769860578,
      1769860615,
      1769860625,
      1769860676,
      1769860680,
      1769860734,
      1769860749,
      1769860754,
      1769860797,
      1769860824,
      1769860841,
      1769860888,
      1769860898,
      1769860945,
      1769860976,
      1769861004,
      1769861036,
      1769861061,
      1769861097,
      1769861117,
      1769861142,
      1769861179,
      1769861195,
      1769861217,
      1769861222,
      1769861277,
      1769861299,
      1769861336,
      1769861340,
      1769861398,
      1769861416,
      1769861447,
      1769861476
    ],
    "wof:geomhash": "629e4056b12e2e4e53e985063858e9b0",
    "wof:id": 2014681217,
    "wof:repo": "sfomuseum-data-flights-2026-01"
  },
  "bbox": [
    -122.75679,
    37.4729,
    -122.18182,
    38.50892
  ],
  "geometry": {"coordinates":[[-122.47453,38.50892],[-122.50556,38.47928],[-122.61223,38.37571],[-122.64807,38.3406],[-122.67105,38.31823],[-122.71353,38.27701],[-122.7528,38.23404],[-122.75679,38.19039],[-122.7415,38.13405],[-122.73657,38.11719],[-122.71338,38.03868],[-122.71157,38.03248],[-122.68732,37.94958],[-122.6804,37.92602],[-122.67789,37.91816],[-122.63335,37.861],[-122.59881,37.82854],[-122.57706,37.80838],[-122.51898,37.75437],[-122.50763,37.74358],[-122.45031,37.6896],[-122.41364,37.6551],[-122.3836,37.62685],[-122.35641,37.59545],[-122.34415,37.56883],[-122.32418,37.53298],[-122.3083,37.51654],[-122.27972,37.50238],[-122.23871,37.48179],[-122.22134,37.47329],[-122.1943,37.4729],[-122.18866,37.47542],[-122.18182,37.52768],[-122.19861,37.54452],[-122.23789,37.56102],[-122.24205,37.56283],[-122.29591,37.58551],[-122.30929,37.59111],[-122.33197,37.60061],[-122.35325,37.60956]],"type":"LineString"}
}
