{
  "id": 2014682383,
  "type": "Feature",
  "properties": {
    "geom:area": 0,
    "geom:bbox": "-122.359310,37.491370,-121.252210,37.614520",
    "geom:latitude": 37.54668762946989,
    "geom:longitude": -121.81070674443043,
    "src:alt_label": "swim-approach",
    "src:geom": "swim",
    "swim:elevations": [
      4834,
      4616,
      4375,
      4229,
      3958,
      3893,
      3387,
      3231,
      3219,
      2965,
      2794,
      2689,
      2551,
      2399,
      2254,
      2133,
      2134,
      1990,
      1875,
      1642,
      1341,
      1105,
      794,
      691,
      626,
      460,
      368,
      309,
      242,
      46,
      0
    ],
    "swim:geom": "approach",
    "swim:timestamps": [
      1769893618,
      1769893640,
      1769893665,
      1769893680,
      1769893707,
      1769893713,
      1769893764,
      1769893797,
      1769893800,
      1769893852,
      1769893873,
      1769893887,
      1769893912,
      1769893945,
      1769893966,
      1769893993,
      1769894028,
      1769894058,
      1769894076,
      1769894101,
      1769894135,
      1769894168,
      1769894213,
      1769894241,
      1769894259,
      1769894306,
      1769894334,
      1769894346,
      1769894375,
      1769894427,
      1769894436
    ],
    "wof:geomhash": "fafab8eafb8d896d979934c1aec86a26",
    "wof:id": 2014682383,
    "wof:repo": "sfomuseum-data-flights-2026-01"
  },
  "bbox": [
    -122.35931,
    37.49137,
    -121.25221,
    37.61452
  ],
  "geometry": {"coordinates":[[-121.25221,37.5941],[-121.29513,37.58856],[-121.34261,37.58344],[-121.3713,37.58027],[-121.42172,37.57463],[-121.43309,37.5733],[-121.52941,37.56203],[-121.58954,37.55497],[-121.59483,37.55434],[-121.67911,37.53795],[-121.70994,37.53053],[-121.73317,37.52491],[-121.77043,37.51594],[-121.81992,37.50415],[-121.85014,37.49688],[-121.88987,37.49137],[-121.94171,37.4924],[-121.98339,37.49486],[-122.00871,37.50128],[-122.04059,37.5116],[-122.0829,37.52554],[-122.12144,37.53815],[-122.17128,37.55427],[-122.19987,37.56345],[-122.218,37.5693],[-122.26306,37.58376],[-122.28598,37.59042],[-122.29534,37.59317],[-122.3172,37.59941],[-122.35362,37.61207],[-122.35931,37.61452]],"type":"LineString"}
}
