{
  "id": 2014684979,
  "type": "Feature",
  "properties": {
    "geom:area": 0,
    "geom:bbox": "-122.366670,37.627940,-122.148980,38.511090",
    "geom:latitude": 38.040773457255376,
    "geom:longitude": -122.19966462199079,
    "src:alt_label": "swim-takeoff",
    "src:geom": "swim",
    "swim:elevations": [
      152,
      625,
      938,
      1127,
      1273,
      1467,
      2119,
      2367,
      2544,
      2862,
      3265,
      3720,
      3890,
      4280,
      4464,
      4680,
      5042,
      5408,
      5485,
      5970,
      6359,
      6732,
      6904,
      7221,
      7360
    ],
    "swim:geom": "takeoff",
    "swim:timestamps": [
      1769854942,
      1769854977,
      1769855004,
      1769855031,
      1769855057,
      1769855080,
      1769855126,
      1769855143,
      1769855154,
      1769855179,
      1769855210,
      1769855247,
      1769855259,
      1769855293,
      1769855308,
      1769855321,
      1769855364,
      1769855392,
      1769855404,
      1769855448,
      1769855480,
      1769855504,
      1769855533,
      1769855568,
      1769855582
    ],
    "wof:geomhash": "804311096c2f0c5aea7e2d4ebaf12330",
    "wof:id": 2014684979,
    "wof:repo": "sfomuseum-data-flights-2026-01"
  },
  "bbox": [
    -122.36667,
    37.62794,
    -122.14898,
    38.51109
  ],
  "geometry": {"coordinates":[[-122.36667,37.62794],[-122.34459,37.64617],[-122.32284,37.65709],[-122.30026,37.67044],[-122.27432,37.68581],[-122.24781,37.70414],[-122.23598,37.76257],[-122.23218,37.78493],[-122.22928,37.79954],[-122.2218,37.8331],[-122.21232,37.87541],[-122.20079,37.92869],[-122.19703,37.94626],[-122.1861,37.99729],[-122.18132,38.01941],[-122.17674,38.04076],[-122.16154,38.11137],[-122.15103,38.15948],[-122.14898,38.18054],[-122.15207,38.25829],[-122.15471,38.31774],[-122.15661,38.36137],[-122.15921,38.41507],[-122.16222,38.4817],[-122.16347,38.51109]],"type":"LineString"}
}
