{
  "id": 2014686157,
  "type": "Feature",
  "properties": {
    "geom:area": 0,
    "geom:bbox": "-122.468420,36.735070,-121.307670,37.706170",
    "geom:latitude": 37.2199059871135,
    "geom:longitude": -121.98296009943056,
    "src:alt_label": "swim-takeoff",
    "src:geom": "swim",
    "swim:elevations": [
      122,
      152,
      848,
      1188,
      1354,
      1483,
      2334,
      2728,
      3380,
      3892,
      4117,
      4447,
      4806,
      4921,
      5439,
      5780,
      5961,
      6524,
      6837,
      7355,
      7591,
      7708,
      7989,
      8058,
      8210,
      8329,
      8623,
      8862,
      8968,
      9038,
      9341
    ],
    "swim:geom": "takeoff",
    "swim:timestamps": [
      1769857737,
      1769857741,
      1769857797,
      1769857825,
      1769857849,
      1769857861,
      1769857916,
      1769857936,
      1769857975,
      1769858033,
      1769858049,
      1769858076,
      1769858101,
      1769858109,
      1769858153,
      1769858181,
      1769858197,
      1769858255,
      1769858286,
      1769858333,
      1769858364,
      1769858378,
      1769858418,
      1769858430,
      1769858452,
      1769858467,
      1769858517,
      1769858558,
      1769858577,
      1769858584,
      1769858626
    ],
    "wof:geomhash": "c245419d6e05091d3d9aa1be91ecb6b7",
    "wof:id": 2014686157,
    "wof:repo": "sfomuseum-data-flights-2026-01"
  },
  "bbox": [
    -122.46842,
    36.73507,
    -121.30767,
    37.70617
  ],
  "geometry": {"coordinates":[[-122.36961,37.62789],[-122.36836,37.62989],[-122.36258,37.67342],[-122.36768,37.69599],[-122.3939,37.70617],[-122.41017,37.7032],[-122.45465,37.64676],[-122.46783,37.62352],[-122.46842,37.57385],[-122.4264,37.49244],[-122.40306,37.47218],[-122.35689,37.44198],[-122.31551,37.41447],[-122.30137,37.40515],[-122.22536,37.35461],[-122.17558,37.32133],[-122.14632,37.30181],[-122.04219,37.23221],[-121.98453,37.19352],[-121.89565,37.13395],[-121.83738,37.09473],[-121.81003,37.07614],[-121.73186,37.02368],[-121.70927,37.00814],[-121.66477,36.97771],[-121.63536,36.95726],[-121.5334,36.88896],[-121.44956,36.83227],[-121.4117,36.8054],[-121.39469,36.79421],[-121.30767,36.73507]],"type":"LineString"}
}
