{
  "id": 2014680633,
  "type": "Feature",
  "properties": {
    "geom:area": 0,
    "geom:bbox": "-122.362200,36.732760,-121.885070,37.613290",
    "geom:latitude": 37.215867369349304,
    "geom:longitude": -122.07301148436184,
    "src:alt_label": "swim-approach",
    "src:geom": "swim",
    "swim:elevations": [
      5108,
      4767,
      4633,
      4185,
      3939,
      3905,
      3482,
      3227,
      3157,
      3074,
      2907,
      2695,
      2513,
      2254,
      2168,
      2022,
      1827,
      1796,
      1728,
      1469,
      1241,
      1043,
      950,
      624,
      524,
      395,
      156,
      38,
      0
    ],
    "swim:geom": "approach",
    "swim:timestamps": [
      1769879989,
      1769880025,
      1769880040,
      1769880088,
      1769880117,
      1769880120,
      1769880167,
      1769880199,
      1769880222,
      1769880252,
      1769880285,
      1769880320,
      1769880350,
      1769880382,
      1769880394,
      1769880414,
      1769880443,
      1769880468,
      1769880481,
      1769880518,
      1769880544,
      1769880590,
      1769880602,
      1769880653,
      1769880667,
      1769880691,
      1769880743,
      1769880776,
      1769880784
    ],
    "wof:geomhash": "0f737ea8e97d8c22b95d9f82c05296b1",
    "wof:id": 2014680633,
    "wof:repo": "sfomuseum-data-flights-2026-01"
  },
  "bbox": [
    -122.3622,
    36.73276,
    -121.88507,
    37.61329
  ],
  "geometry": {"coordinates":[[-121.88507,36.73276],[-121.9082,36.79192],[-121.91563,36.81798],[-121.93731,36.89614],[-121.95015,36.94242],[-121.95154,36.94711],[-121.97875,37.01787],[-121.99727,37.06528],[-122.00999,37.09792],[-122.02446,37.13817],[-122.04266,37.1828],[-122.06046,37.22709],[-122.07558,37.26548],[-122.09111,37.30476],[-122.09704,37.32013],[-122.10689,37.34502],[-122.12084,37.38071],[-122.13129,37.41125],[-122.13623,37.42579],[-122.15091,37.46445],[-122.16298,37.49163],[-122.19553,37.53151],[-122.20395,37.54128],[-122.25379,37.56787],[-122.26678,37.5731],[-122.28836,37.58227],[-122.33069,37.60008],[-122.3553,37.61046],[-122.3622,37.61329]],"type":"LineString"}
}
