{
  "id": 2014685855,
  "type": "Feature",
  "properties": {
    "geom:area": 0,
    "geom:bbox": "-122.532600,36.730540,-122.170960,37.702810",
    "geom:latitude": 37.22690697888584,
    "geom:longitude": -122.41519422546007,
    "src:alt_label": "swim-takeoff",
    "src:geom": "swim",
    "swim:elevations": [
      274,
      510,
      817,
      1018,
      1320,
      1422,
      2021,
      2321,
      2795,
      3039,
      3402,
      3706,
      3798,
      4410,
      4714,
      4987,
      5172,
      5470,
      5668,
      6006,
      6419,
      6923,
      7063,
      7159,
      7347,
      7710,
      7763,
      7992,
      8327,
      8381
    ],
    "swim:geom": "takeoff",
    "swim:timestamps": [
      1769851557,
      1769851575,
      1769851604,
      1769851624,
      1769851671,
      1769851683,
      1769851723,
      1769851743,
      1769851771,
      1769851786,
      1769851815,
      1769851849,
      1769851861,
      1769851906,
      1769851934,
      1769851959,
      1769851974,
      1769852004,
      1769852021,
      1769852046,
      1769852075,
      1769852124,
      1769852137,
      1769852147,
      1769852169,
      1769852217,
      1769852225,
      1769852254,
      1769852306,
      1769852315
    ],
    "wof:geomhash": "c69be698c071b93d4d9a733eb1822519",
    "wof:id": 2014685855,
    "wof:repo": "sfomuseum-data-flights-2026-01"
  },
  "bbox": [
    -122.5326,
    36.73054,
    -122.17096,
    37.70281
  ],
  "geometry": {"coordinates":[[-122.36461,37.63686],[-122.36337,37.65054],[-122.36232,37.67482],[-122.36394,37.69125],[-122.41326,37.70281],[-122.42471,37.69252],[-122.43366,37.64504],[-122.43706,37.62001],[-122.44455,37.58458],[-122.44864,37.56452],[-122.45678,37.52594],[-122.46668,37.47802],[-122.47043,37.45951],[-122.48532,37.38976],[-122.49464,37.34466],[-122.50384,37.30089],[-122.50896,37.27647],[-122.5197,37.22408],[-122.52535,37.19447],[-122.5326,37.14989],[-122.51446,37.10125],[-122.44759,37.02883],[-122.42991,37.00953],[-122.41562,36.9943],[-122.38426,36.96076],[-122.31641,36.8881],[-122.30527,36.87569],[-122.2621,36.82906],[-122.1846,36.7453],[-122.17096,36.73054]],"type":"LineString"}
}
