{
  "id": 2014681207,
  "type": "Feature",
  "properties": {
    "geom:area": 0,
    "geom:bbox": "-122.359890,37.492060,-121.271560,37.614980",
    "geom:latitude": 37.546150831720105,
    "geom:longitude": -121.82057575552457,
    "src:alt_label": "swim-approach",
    "src:geom": "swim",
    "swim:elevations": [
      4848,
      4601,
      4411,
      3881,
      3710,
      3324,
      3260,
      3134,
      2988,
      2584,
      2562,
      2288,
      2239,
      2014,
      1906,
      1804,
      1731,
      1562,
      1178,
      1027,
      845,
      784,
      554,
      460,
      310,
      224,
      120,
      0
    ],
    "swim:geom": "approach",
    "swim:timestamps": [
      1769865381,
      1769865400,
      1769865422,
      1769865474,
      1769865490,
      1769865532,
      1769865552,
      1769865580,
      1769865600,
      1769865657,
      1769865664,
      1769865717,
      1769865721,
      1769865773,
      1769865797,
      1769865830,
      1769865849,
      1769865873,
      1769865923,
      1769865947,
      1769865980,
      1769865990,
      1769866032,
      1769866054,
      1769866091,
      1769866116,
      1769866144,
      1769866177
    ],
    "wof:geomhash": "e780cc98d1bd431b3e8679633734f3e4",
    "wof:id": 2014681207,
    "wof:repo": "sfomuseum-data-flights-2026-01"
  },
  "bbox": [
    -122.35989,
    37.49206,
    -121.27156,
    37.61498
  ],
  "geometry": {"coordinates":[[-121.27156,37.59156],[-121.30985,37.58686],[-121.35226,37.58235],[-121.45061,37.57113],[-121.48062,37.56761],[-121.55818,37.55855],[-121.59273,37.5545],[-121.64015,37.54709],[-121.6717,37.53967],[-121.75853,37.51876],[-121.76764,37.5166],[-121.84515,37.49789],[-121.85059,37.49662],[-121.93016,37.49206],[-121.96529,37.4933],[-122.01001,37.50231],[-122.03434,37.51011],[-122.06589,37.52021],[-122.13037,37.5411],[-122.1597,37.55059],[-122.19673,37.56263],[-122.20791,37.56621],[-122.24948,37.57953],[-122.26908,37.58565],[-122.29867,37.59427],[-122.31702,37.59975],[-122.33712,37.60599],[-122.35989,37.61498]],"type":"LineString"}
}
