{
  "id": 2014686083,
  "type": "Feature",
  "properties": {
    "geom:area": 0,
    "geom:bbox": "-122.470110,36.720840,-121.297020,37.716540",
    "geom:latitude": 37.213347897886194,
    "geom:longitude": -121.99365083845602,
    "src:alt_label": "swim-takeoff",
    "src:geom": "swim",
    "swim:elevations": [
      183,
      565,
      863,
      1029,
      1077,
      1736,
      2136,
      2293,
      2551,
      3224,
      3307,
      3443,
      3902,
      4372,
      4511,
      5117,
      5217,
      5780,
      5893,
      6251,
      6492,
      6682,
      6954,
      7252,
      7446,
      7679,
      7928,
      7990,
      8146,
      8359,
      8509,
      8679,
      8865
    ],
    "swim:geom": "takeoff",
    "swim:timestamps": [
      1769867466,
      1769867497,
      1769867537,
      1769867565,
      1769867582,
      1769867638,
      1769867663,
      1769867681,
      1769867705,
      1769867752,
      1769867770,
      1769867796,
      1769867837,
      1769867878,
      1769867891,
      1769867938,
      1769867946,
      1769867997,
      1769868008,
      1769868055,
      1769868084,
      1769868108,
      1769868136,
      1769868169,
      1769868196,
      1769868228,
      1769868265,
      1769868274,
      1769868300,
      1769868340,
      1769868366,
      1769868403,
      1769868432
    ],
    "wof:geomhash": "4de46f720dca87fdc5c155d1a13e91d7",
    "wof:id": 2014686083,
    "wof:repo": "sfomuseum-data-flights-2026-01"
  },
  "bbox": [
    -122.47011,
    36.72084,
    -121.29702,
    37.71654
  ],
  "geometry": {"coordinates":[[-122.36781,37.63081],[-122.36348,37.65347],[-122.36321,37.688],[-122.37993,37.70956],[-122.40102,37.71654],[-122.45441,37.67781],[-122.45582,37.64925],[-122.45788,37.62856],[-122.46126,37.59844],[-122.4673,37.53802],[-122.47011,37.51374],[-122.45189,37.47669],[-122.38774,37.43442],[-122.31867,37.38913],[-122.29719,37.37527],[-122.21626,37.32323],[-122.20271,37.31459],[-122.11631,37.25876],[-122.0973,37.24645],[-122.01502,37.19292],[-121.96214,37.1585],[-121.91975,37.13087],[-121.86762,37.09684],[-121.80646,37.05681],[-121.75528,37.02334],[-121.69521,36.98404],[-121.62541,36.93819],[-121.60847,36.9267],[-121.55682,36.89383],[-121.47997,36.84236],[-121.43008,36.80917],[-121.3554,36.76041],[-121.29702,36.72084]],"type":"LineString"}
}
