{
  "id": 2014686217,
  "type": "Feature",
  "properties": {
    "geom:area": 0,
    "geom:bbox": "-122.436760,36.738310,-121.543890,37.700820",
    "geom:latitude": 37.23233970784019,
    "geom:longitude": -122.0640412329812,
    "src:alt_label": "swim-takeoff",
    "src:geom": "swim",
    "swim:elevations": [
      305,
      492,
      792,
      1080,
      1448,
      1653,
      2161,
      2968,
      3143,
      3791,
      3906,
      4525,
      5000,
      5164,
      5492,
      5603,
      6447,
      6477,
      6903,
      7242,
      7493,
      7819,
      7978,
      8216,
      8318,
      8455,
      8693,
      9210,
      9378,
      9457,
      9465,
      9448
    ],
    "swim:geom": "takeoff",
    "swim:timestamps": [
      1769892555,
      1769892568,
      1769892594,
      1769892624,
      1769892655,
      1769892673,
      1769892707,
      1769892742,
      1769892751,
      1769892804,
      1769892819,
      1769892859,
      1769892886,
      1769892896,
      1769892922,
      1769892930,
      1769892988,
      1769892991,
      1769893038,
      1769893069,
      1769893093,
      1769893120,
      1769893136,
      1769893161,
      1769893175,
      1769893201,
      1769893236,
      1769893285,
      1769893309,
      1769893337,
      1769893371,
      1769893389
    ],
    "wof:geomhash": "b9fd54d33c9aef05fda6f48e6b0b33ce",
    "wof:id": 2014686217,
    "wof:repo": "sfomuseum-data-flights-2026-01"
  },
  "bbox": [
    -122.43676,
    36.73831,
    -121.54389,
    37.70082
  ],
  "geometry": {"coordinates":[[-122.36886,37.63],[-122.36707,37.63831],[-122.36433,37.65528],[-122.36139,37.67775],[-122.37616,37.70047],[-122.39779,37.70082],[-122.42227,37.67042],[-122.43189,37.62872],[-122.43481,37.61775],[-122.43676,37.54788],[-122.41778,37.52889],[-122.36307,37.48008],[-122.32525,37.44643],[-122.31072,37.43344],[-122.27431,37.40055],[-122.26312,37.39048],[-122.17999,37.3155],[-122.17568,37.31158],[-122.1065,37.24886],[-122.05919,37.20618],[-122.02191,37.17237],[-121.98022,37.13436],[-121.95629,37.11271],[-121.91713,37.07705],[-121.89584,37.05749],[-121.85336,37.01889],[-121.79662,36.96783],[-121.7145,36.89389],[-121.6748,36.8582],[-121.62838,36.81608],[-121.57345,36.76579],[-121.54389,36.73831]],"type":"LineString"}
}
