{
  "id": 2014679617,
  "type": "Feature",
  "properties": {
    "geom:area": 0,
    "geom:bbox": "-122.359380,36.730940,-121.884930,37.612040",
    "geom:latitude": 37.21411445074008,
    "geom:longitude": -122.07178942393404,
    "src:alt_label": "swim-approach",
    "src:geom": "swim",
    "swim:elevations": [
      4612,
      4378,
      4007,
      3729,
      3505,
      3364,
      3235,
      3149,
      2874,
      2759,
      2564,
      2442,
      2434,
      2438,
      2358,
      2338,
      2313,
      1951,
      1924,
      1676,
      1394,
      1167,
      907,
      789,
      730,
      642,
      576,
      414,
      361,
      175,
      150,
      0
    ],
    "swim:geom": "approach",
    "swim:timestamps": [
      1769860797,
      1769860821,
      1769860853,
      1769860888,
      1769860918,
      1769860945,
      1769860967,
      1769860980,
      1769861036,
      1769861053,
      1769861086,
      1769861124,
      1769861150,
      1769861179,
      1769861214,
      1769861217,
      1769861222,
      1769861277,
      1769861281,
      1769861317,
      1769861362,
      1769861389,
      1769861421,
      1769861455,
      1769861480,
      1769861517,
      1769861532,
      1769861572,
      1769861588,
      1769861637,
      1769861644,
      1769861681
    ],
    "wof:geomhash": "c5d3dfbec97418466b3b73e4274a2aa6",
    "wof:id": 2014679617,
    "wof:repo": "sfomuseum-data-flights-2026-01"
  },
  "bbox": [
    -122.35938,
    36.73094,
    -121.88493,
    37.61204
  ],
  "geometry": {"coordinates":[[-121.88493,36.73094],[-121.90156,36.77],[-121.9168,36.82408],[-121.93282,36.88089],[-121.94614,36.92854],[-121.95984,36.97044],[-121.97217,37.00169],[-121.97898,37.01921],[-122.00851,37.09507],[-122.01709,37.11712],[-122.03424,37.16098],[-122.05168,37.20583],[-122.06273,37.23358],[-122.07553,37.26602],[-122.08927,37.30116],[-122.09046,37.30421],[-122.09235,37.30902],[-122.11211,37.35931],[-122.11356,37.36301],[-122.12573,37.39649],[-122.14025,37.43859],[-122.15011,37.46176],[-122.16413,37.49019],[-122.18424,37.51908],[-122.19828,37.53857],[-122.2305,37.55794],[-122.24547,37.56432],[-122.28046,37.57899],[-122.29264,37.58409],[-122.32782,37.59889],[-122.33321,37.60119],[-122.35938,37.61204]],"type":"LineString"}
}
