{
  "id": 2014682749,
  "type": "Feature",
  "properties": {
    "geom:area": 0,
    "geom:bbox": "-122.824920,37.556830,-122.027250,38.470450",
    "geom:latitude": 37.84882775979918,
    "geom:longitude": -122.46340290859226,
    "src:alt_label": "swim-approach",
    "src:geom": "swim",
    "swim:elevations": [
      8037,
      7887,
      7512,
      7377,
      6902,
      6707,
      6365,
      6011,
      5749,
      5417,
      5075,
      4829,
      4595,
      4321,
      3848,
      3664,
      3574,
      3353,
      3353,
      3255,
      3209,
      2875,
      2799,
      2625,
      2512,
      2305,
      2175,
      2053,
      2009,
      1907,
      1829,
      1823,
      1673,
      1561,
      1524,
      1515,
      1106,
      983,
      929,
      850,
      842,
      555,
      426,
      348,
      229,
      99,
      0
    ],
    "swim:geom": "approach",
    "swim:timestamps": [
      1769885278,
      1769885292,
      1769885330,
      1769885342,
      1769885392,
      1769885413,
      1769885449,
      1769885483,
      1769885508,
      1769885547,
      1769885577,
      1769885602,
      1769885625,
      1769885653,
      1769885697,
      1769885723,
      1769885740,
      1769885788,
      1769885806,
      1769885845,
      1769885854,
      1769885907,
      1769885921,
      1769885951,
      1769885975,
      1769886027,
      1769886054,
      1769886084,
      1769886091,
      1769886105,
      1769886137,
      1769886147,
      1769886178,
      1769886199,
      1769886232,
      1769886244,
      1769886296,
      1769886314,
      1769886326,
      1769886358,
      1769886361,
      1769886416,
      1769886438,
      1769886462,
      1769886492,
      1769886529,
      1769886549
    ],
    "wof:geomhash": "afc4ec9bc98b24f1abfc1fd46c69984d",
    "wof:id": 2014682749,
    "wof:repo": "sfomuseum-data-flights-2026-01"
  },
  "bbox": [
    -122.82492,
    37.55683,
    -122.02725,
    38.47045
  ],
  "geometry": {"coordinates":[[-122.82492,38.47045],[-122.8184,38.44708],[-122.8009,38.38201],[-122.79556,38.36181],[-122.77417,38.28094],[-122.76516,38.24726],[-122.74977,38.1895],[-122.73594,38.1376],[-122.72551,38.09817],[-122.71029,38.0401],[-122.69812,37.99439],[-122.68852,37.95814],[-122.67951,37.92413],[-122.65725,37.88509],[-122.60313,37.83344],[-122.57058,37.80284],[-122.55046,37.78398],[-122.49873,37.73469],[-122.47482,37.7222],[-122.42191,37.70686],[-122.40977,37.70343],[-122.33955,37.68363],[-122.32054,37.67821],[-122.28347,37.66731],[-122.25341,37.65864],[-122.19597,37.64245],[-122.1667,37.63413],[-122.13375,37.62444],[-122.1265,37.62237],[-122.11126,37.61774],[-122.07665,37.60701],[-122.06546,37.60363],[-122.03337,37.59158],[-122.02725,37.57449],[-122.05238,37.55751],[-122.06611,37.557],[-122.12384,37.5569],[-122.14466,37.55683],[-122.1585,37.55698],[-122.19376,37.56154],[-122.19681,37.56262],[-122.25132,37.57987],[-122.27227,37.5864],[-122.29299,37.59226],[-122.3166,37.59919],[-122.34513,37.60845],[-122.35936,37.61477]],"type":"LineString"}
}
