{
  "id": 2014681201,
  "type": "Feature",
  "properties": {
    "geom:area": 0,
    "geom:bbox": "-122.358460,37.491470,-121.265730,37.614200",
    "geom:latitude": 37.54597646012118,
    "geom:longitude": -121.81693062192939,
    "src:alt_label": "swim-approach",
    "src:geom": "swim",
    "swim:elevations": [
      5020,
      4918,
      4493,
      4321,
      3887,
      3430,
      3400,
      3103,
      3037,
      2867,
      2631,
      2559,
      2471,
      2381,
      2145,
      2059,
      1973,
      1903,
      1673,
      1381,
      1317,
      917,
      760,
      762,
      756,
      563,
      549,
      506,
      406,
      314,
      181,
      156,
      0
    ],
    "swim:geom": "approach",
    "swim:timestamps": [
      1769901188,
      1769901197,
      1769901236,
      1769901251,
      1769901288,
      1769901327,
      1769901330,
      1769901386,
      1769901392,
      1769901413,
      1769901443,
      1769901459,
      1769901492,
      1769901513,
      1769901546,
      1769901567,
      1769901592,
      1769901610,
      1769901650,
      1769901687,
      1769901693,
      1769901747,
      1769901771,
      1769901780,
      1769901792,
      1769901826,
      1769901856,
      1769901886,
      1769901919,
      1769901949,
      1769901988,
      1769901994,
      1769902035
    ],
    "wof:geomhash": "6591694350a53aca0b651a327f83f6e0",
    "wof:id": 2014681201,
    "wof:repo": "sfomuseum-data-flights-2026-01"
  },
  "bbox": [
    -122.35846,
    37.49147,
    -121.26573,
    37.6142
  ],
  "geometry": {"coordinates":[[-121.26573,37.59223],[-121.28305,37.58993],[-121.35771,37.58165],[-121.38623,37.5784],[-121.4572,37.57018],[-121.53099,37.56154],[-121.53666,37.56091],[-121.63628,37.54777],[-121.64603,37.54548],[-121.67983,37.53726],[-121.7269,37.52612],[-121.75199,37.52005],[-121.80014,37.50855],[-121.82874,37.50163],[-121.87464,37.49147],[-121.90438,37.49189],[-121.93882,37.4928],[-121.96232,37.49326],[-122.01336,37.50285],[-122.06007,37.5181],[-122.06756,37.52057],[-122.13395,37.54204],[-122.16157,37.551],[-122.17074,37.55404],[-122.18219,37.55773],[-122.2151,37.56821],[-122.23936,37.57617],[-122.25948,37.58237],[-122.28151,37.58897],[-122.30179,37.59509],[-122.32768,37.6027],[-122.33166,37.6039],[-122.35846,37.6142]],"type":"LineString"}
}
