{
  "id": 2014682053,
  "type": "Feature",
  "properties": {
    "geom:area": 0,
    "geom:bbox": "-122.357040,37.491220,-121.264260,37.613390",
    "geom:latitude": 37.546038388860985,
    "geom:longitude": -121.81550831391867,
    "src:alt_label": "swim-approach",
    "src:geom": "swim",
    "swim:elevations": [
      4820,
      4497,
      3973,
      3796,
      3376,
      3165,
      3090,
      3019,
      2685,
      2509,
      2464,
      2163,
      2092,
      1920,
      1828,
      1689,
      1347,
      1279,
      1041,
      923,
      624,
      582,
      426,
      310,
      153,
      106,
      36
    ],
    "swim:geom": "approach",
    "swim:timestamps": [
      1769867796,
      1769867826,
      1769867874,
      1769867891,
      1769867930,
      1769867963,
      1769867987,
      1769868008,
      1769868055,
      1769868079,
      1769868094,
      1769868140,
      1769868160,
      1769868204,
      1769868228,
      1769868248,
      1769868296,
      1769868306,
      1769868340,
      1769868366,
      1769868418,
      1769868428,
      1769868463,
      1769868489,
      1769868537,
      1769868550,
      1769868571
    ],
    "wof:geomhash": "0ce87773b279f75936d09a8cadd1e91d",
    "wof:id": 2014682053,
    "wof:repo": "sfomuseum-data-flights-2026-01"
  },
  "bbox": [
    -122.35704,
    37.49122,
    -121.26426,
    37.61339
  ],
  "geometry": {"coordinates":[[-121.26426,37.59257],[-121.32293,37.58554],[-121.41857,37.57511],[-121.45067,37.5714],[-121.52371,37.56266],[-121.58368,37.55559],[-121.62368,37.55057],[-121.6571,37.54293],[-121.72826,37.52607],[-121.76563,37.51718],[-121.78923,37.51152],[-121.85778,37.49502],[-121.88807,37.49122],[-121.95199,37.49309],[-121.98811,37.49533],[-122.01624,37.50375],[-122.0855,37.52635],[-122.09921,37.53082],[-122.14669,37.5461],[-122.17963,37.55675],[-122.23598,37.57488],[-122.24571,37.57813],[-122.27709,37.58753],[-122.29735,37.59363],[-122.33282,37.60413],[-122.34251,37.60721],[-122.35704,37.61339]],"type":"LineString"}
}
