{
  "id": 2014682447,
  "type": "Feature",
  "properties": {
    "geom:area": 0,
    "geom:bbox": "-122.356680,36.737830,-121.887880,37.610930",
    "geom:latitude": 37.225351459552336,
    "geom:longitude": -122.06953363383673,
    "src:alt_label": "swim-approach",
    "src:geom": "swim",
    "swim:elevations": [
      5089,
      4969,
      4653,
      4214,
      4091,
      3719,
      3552,
      3351,
      3045,
      2986,
      2982,
      2820,
      2626,
      2479,
      2456,
      2176,
      1969,
      1714,
      1540,
      1308,
      1219,
      1004,
      853,
      840,
      820,
      764,
      674,
      442,
      331,
      227,
      45
    ],
    "swim:geom": "approach",
    "swim:timestamps": [
      1769848014,
      1769848027,
      1769848060,
      1769848107,
      1769848120,
      1769848166,
      1769848183,
      1769848207,
      1769848256,
      1769848281,
      1769848290,
      1769848317,
      1769848347,
      1769848372,
      1769848385,
      1769848430,
      1769848457,
      1769848493,
      1769848521,
      1769848554,
      1769848572,
      1769848607,
      1769848642,
      1769848651,
      1769848659,
      1769848694,
      1769848715,
      1769848761,
      1769848783,
      1769848811,
      1769848853
    ],
    "wof:geomhash": "56f01410eacd68164283c19f636559bd",
    "wof:id": 2014682447,
    "wof:repo": "sfomuseum-data-flights-2026-01"
  },
  "bbox": [
    -122.35668,
    36.73783,
    -121.88788,
    37.61093
  ],
  "geometry": {"coordinates":[[-121.88788,36.73783],[-121.89799,36.75897],[-121.91489,36.81561],[-121.93633,36.89311],[-121.94242,36.91423],[-121.96683,36.98684],[-121.9769,37.01321],[-121.9915,37.05057],[-122.01918,37.12125],[-122.03211,37.15446],[-122.03646,37.16549],[-122.04869,37.19662],[-122.06168,37.2299],[-122.07243,37.25728],[-122.07792,37.27094],[-122.09622,37.31785],[-122.10776,37.34687],[-122.10605,37.38609],[-122.09854,37.41461],[-122.10244,37.44952],[-122.10987,37.46751],[-122.13059,37.50094],[-122.16065,37.52779],[-122.17111,37.53195],[-122.17981,37.53596],[-122.21601,37.55142],[-122.23772,37.56089],[-122.28115,37.57904],[-122.29941,37.5868],[-122.32191,37.5963],[-122.35668,37.61093]],"type":"LineString"}
}
