{
  "id": 2014684711,
  "type": "Feature",
  "properties": {
    "geom:area": 0,
    "geom:bbox": "-122.436110,36.718540,-121.420390,37.704530",
    "geom:latitude": 37.214723061282356,
    "geom:longitude": -122.01781268454911,
    "src:alt_label": "swim-takeoff",
    "src:geom": "swim",
    "swim:elevations": [
      152,
      616,
      730,
      1195,
      1411,
      2133,
      2327,
      2666,
      3200,
      3350,
      3860,
      4062,
      4485,
      4966,
      5443,
      5481,
      6021,
      6479,
      6663,
      7234,
      7450,
      7641,
      7958,
      8039,
      8228,
      8500,
      8595,
      8980,
      9112
    ],
    "swim:geom": "takeoff",
    "swim:timestamps": [
      1769853430,
      1769853476,
      1769853498,
      1769853537,
      1769853551,
      1769853593,
      1769853608,
      1769853630,
      1769853668,
      1769853693,
      1769853745,
      1769853761,
      1769853795,
      1769853827,
      1769853868,
      1769853871,
      1769853912,
      1769853951,
      1769853966,
      1769854014,
      1769854037,
      1769854064,
      1769854108,
      1769854119,
      1769854158,
      1769854189,
      1769854204,
      1769854252,
      1769854266
    ],
    "wof:geomhash": "ee4ef7853c364988e0c175f1e283dd34",
    "wof:id": 2014684711,
    "wof:repo": "sfomuseum-data-flights-2026-01"
  },
  "bbox": [
    -122.43611,
    36.71854,
    -121.42039,
    37.70453
  ],
  "geometry": {"coordinates":[[-122.36703,37.63172],[-122.36256,37.66811],[-122.36391,37.68938],[-122.41378,37.70453],[-122.43118,37.69327],[-122.43611,37.64246],[-122.43317,37.62396],[-122.42906,37.59576],[-122.42097,37.54636],[-122.41304,37.51161],[-122.35109,37.44324],[-122.32612,37.42439],[-122.27003,37.38125],[-122.21783,37.34098],[-122.15053,37.28903],[-122.14546,37.28514],[-122.07544,37.23069],[-122.00726,37.17771],[-121.9816,37.15777],[-121.89626,37.09139],[-121.85559,37.05966],[-121.80775,37.02218],[-121.72661,36.95952],[-121.70447,36.94199],[-121.63079,36.88491],[-121.57161,36.83813],[-121.54161,36.81481],[-121.44641,36.73932],[-121.42039,36.71854]],"type":"LineString"}
}
