{
  "id": 2014686101,
  "type": "Feature",
  "properties": {
    "geom:area": 0,
    "geom:bbox": "-122.364000,37.632030,-122.072510,38.484980",
    "geom:latitude": 38.034101975782434,
    "geom:longitude": -122.1855568422759,
    "src:alt_label": "swim-takeoff",
    "src:geom": "swim",
    "swim:elevations": [
      213,
      639,
      819,
      1226,
      1253,
      1634,
      2300,
      2740,
      3292,
      3373,
      3855,
      4223,
      4519,
      4800,
      5324,
      5721,
      5979,
      6132,
      6314,
      6434,
      6912,
      6976
    ],
    "swim:geom": "takeoff",
    "swim:timestamps": [
      1769849216,
      1769849241,
      1769849255,
      1769849308,
      1769849311,
      1769849340,
      1769849380,
      1769849405,
      1769849453,
      1769849467,
      1769849513,
      1769849546,
      1769849566,
      1769849585,
      1769849621,
      1769849663,
      1769849690,
      1769849707,
      1769849728,
      1769849741,
      1769849788,
      1769849795
    ],
    "wof:geomhash": "79470a625e1e787f1b3e1e0a3c996f85",
    "wof:id": 2014686101,
    "wof:repo": "sfomuseum-data-flights-2026-01"
  },
  "bbox": [
    -122.364,
    37.63203,
    -122.07251,
    38.48498
  ],
  "geometry": {"coordinates":[[-122.364,37.63203],[-122.34564,37.64536],[-122.33388,37.6516],[-122.28259,37.68071],[-122.27899,37.68282],[-122.2491,37.70845],[-122.23964,37.7606],[-122.23295,37.79228],[-122.21784,37.85845],[-122.21318,37.8798],[-122.19683,37.9552],[-122.18404,38.01411],[-122.17587,38.05094],[-122.1685,38.08451],[-122.15429,38.14894],[-122.13732,38.22566],[-122.12616,38.27642],[-122.11873,38.30995],[-122.10931,38.35024],[-122.10241,38.37572],[-122.07629,38.47116],[-122.07251,38.48498]],"type":"LineString"}
}
