{
  "id": 2014686343,
  "type": "Feature",
  "properties": {
    "geom:area": 0,
    "geom:bbox": "-122.466530,36.724010,-121.446740,37.710700",
    "geom:latitude": 37.218801054450395,
    "geom:longitude": -122.0566897780898,
    "src:alt_label": "swim-takeoff",
    "src:geom": "swim",
    "swim:elevations": [
      274,
      587,
      780,
      1010,
      1125,
      1316,
      1881,
      2312,
      2641,
      3164,
      3416,
      3449,
      4163,
      4365,
      4616,
      5247,
      5489,
      5561,
      5887,
      6087,
      6364,
      6744,
      6910,
      7147,
      7403,
      7534,
      7761,
      7964,
      8122,
      8331,
      8428,
      8582
    ],
    "swim:geom": "takeoff",
    "swim:timestamps": [
      1769866274,
      1769866294,
      1769866323,
      1769866365,
      1769866388,
      1769866425,
      1769866461,
      1769866487,
      1769866509,
      1769866541,
      1769866581,
      1769866590,
      1769866648,
      1769866666,
      1769866685,
      1769866735,
      1769866764,
      1769866771,
      1769866804,
      1769866831,
      1769866862,
      1769866909,
      1769866926,
      1769866959,
      1769866996,
      1769867014,
      1769867045,
      1769867083,
      1769867111,
      1769867141,
      1769867168,
      1769867200
    ],
    "wof:geomhash": "896d31f683783ad9aaad0bd911ad73b1",
    "wof:id": 2014686343,
    "wof:repo": "sfomuseum-data-flights-2026-01"
  },
  "bbox": [
    -122.46653,
    36.72401,
    -121.44674,
    37.7107
  ],
  "geometry": {"coordinates":[[-122.36822,37.63039],[-122.36559,37.64438],[-122.36288,37.66558],[-122.3682,37.69825],[-122.39082,37.7107],[-122.43367,37.69426],[-122.44365,37.65105],[-122.44947,37.6183],[-122.45464,37.59098],[-122.46229,37.55076],[-122.46653,37.49596],[-122.46054,37.48402],[-122.37549,37.41772],[-122.34698,37.39673],[-122.31791,37.37532],[-122.23927,37.31725],[-122.19405,37.28382],[-122.18305,37.27561],[-122.13128,37.23734],[-122.08702,37.20445],[-122.03578,37.16634],[-121.95701,37.10769],[-121.92961,37.08732],[-121.87318,37.04516],[-121.81033,36.99821],[-121.77864,36.97451],[-121.72408,36.93417],[-121.65755,36.88426],[-121.60743,36.84794],[-121.55262,36.8066],[-121.50429,36.7697],[-121.44674,36.72401]],"type":"LineString"}
}
