{
  "id": 2014682491,
  "type": "Feature",
  "properties": {
    "geom:area": 0,
    "geom:bbox": "-122.353950,37.491790,-121.249830,37.612230",
    "geom:latitude": 37.54648998480819,
    "geom:longitude": -121.80667077935851,
    "src:alt_label": "swim-approach",
    "src:geom": "swim",
    "swim:elevations": [
      4862,
      4757,
      4470,
      4433,
      4143,
      3741,
      3583,
      3255,
      2937,
      2711,
      2581,
      2450,
      2288,
      2224,
      2050,
      1965,
      1833,
      1557,
      1516,
      1349,
      991,
      948,
      699,
      520,
      459,
      311,
      139,
      34
    ],
    "swim:geom": "approach",
    "swim:timestamps": [
      1769858065,
      1769858076,
      1769858105,
      1769858109,
      1769858139,
      1769858181,
      1769858197,
      1769858259,
      1769858302,
      1769858333,
      1769858360,
      1769858392,
      1769858418,
      1769858430,
      1769858452,
      1769858472,
      1769858500,
      1769858561,
      1769858565,
      1769858581,
      1769858633,
      1769858640,
      1769858690,
      1769858722,
      1769858735,
      1769858766,
      1769858813,
      1769858841
    ],
    "wof:geomhash": "179b21556b06b9cbce327b062c9b0eec",
    "wof:id": 2014682491,
    "wof:repo": "sfomuseum-data-flights-2026-01"
  },
  "bbox": [
    -122.35395,
    37.49179,
    -121.24983,
    37.61223
  ],
  "geometry": {"coordinates":[[-121.24983,37.59448],[-121.27145,37.5916],[-121.32853,37.58491],[-121.33492,37.5842],[-121.39453,37.57751],[-121.47212,37.56849],[-121.50283,37.56489],[-121.61125,37.55217],[-121.67897,37.53764],[-121.72628,37.52647],[-121.76667,37.51692],[-121.81331,37.50561],[-121.85246,37.49624],[-121.86922,37.49237],[-121.90291,37.49179],[-121.93234,37.49279],[-121.97406,37.49357],[-122.06062,37.51852],[-122.06578,37.5202],[-122.08856,37.52749],[-122.15648,37.54945],[-122.16501,37.55221],[-122.22164,37.57053],[-122.25704,37.58183],[-122.26979,37.58573],[-122.2974,37.59354],[-122.33449,37.6045],[-122.35395,37.61223]],"type":"LineString"}
}
