{
  "id": 2014685913,
  "type": "Feature",
  "properties": {
    "geom:area": 0,
    "geom:bbox": "-122.479820,36.756680,-121.471040,37.704730",
    "geom:latitude": 37.24147476577849,
    "geom:longitude": -122.05835239455996,
    "src:alt_label": "swim-takeoff",
    "src:geom": "swim",
    "swim:elevations": [
      305,
      366,
      919,
      1127,
      1611,
      1802,
      1999,
      2318,
      2789,
      3412,
      3640,
      3789,
      4086,
      4560,
      4787,
      5352,
      5919,
      6001,
      6433,
      6962,
      7240,
      7596,
      7753,
      7988,
      8206,
      8547,
      8721,
      8815,
      8998,
      9232,
      9511,
      9628
    ],
    "swim:geom": "takeoff",
    "swim:timestamps": [
      1769858306,
      1769858311,
      1769858360,
      1769858378,
      1769858426,
      1769858438,
      1769858448,
      1769858467,
      1769858494,
      1769858537,
      1769858558,
      1769858569,
      1769858593,
      1769858626,
      1769858640,
      1769858680,
      1769858728,
      1769858735,
      1769858770,
      1769858817,
      1769858841,
      1769858876,
      1769858893,
      1769858927,
      1769858953,
      1769858998,
      1769859022,
      1769859040,
      1769859071,
      1769859106,
      1769859141,
      1769859154
    ],
    "wof:geomhash": "100723b50b762a102139fd1fd936b2b8",
    "wof:id": 2014685913,
    "wof:repo": "sfomuseum-data-flights-2026-01"
  },
  "bbox": [
    -122.47982,
    36.75668,
    -121.47104,
    37.70473
  ],
  "geometry": {"coordinates":[[-122.36508,37.63572],[-122.36444,37.63939],[-122.36168,37.68032],[-122.36631,37.69647],[-122.42199,37.70473],[-122.43503,37.69346],[-122.44188,37.68278],[-122.45381,37.66218],[-122.47129,37.63162],[-122.47982,37.57845],[-122.46096,37.55155],[-122.44989,37.53668],[-122.42654,37.50522],[-122.38413,37.46231],[-122.36215,37.44553],[-122.30185,37.3992],[-122.22499,37.34024],[-122.21479,37.33246],[-122.15767,37.28869],[-122.07898,37.22811],[-122.04037,37.19842],[-121.98012,37.15187],[-121.95163,37.12943],[-121.89321,37.08444],[-121.84753,37.04912],[-121.76508,36.98481],[-121.72094,36.95121],[-121.68836,36.9266],[-121.63027,36.88172],[-121.56311,36.82805],[-121.49698,36.77728],[-121.47104,36.75668]],"type":"LineString"}
}
