{
  "id": 2014682279,
  "type": "Feature",
  "properties": {
    "geom:area": 0,
    "geom:bbox": "-122.356330,37.492300,-121.258960,37.613240",
    "geom:latitude": 37.546463751308146,
    "geom:longitude": -121.81244956976627,
    "src:alt_label": "swim-approach",
    "src:geom": "swim",
    "swim:elevations": [
      4455,
      4104,
      3834,
      3736,
      3599,
      3398,
      3257,
      3092,
      2990,
      2779,
      2631,
      2466,
      2299,
      2262,
      2003,
      1915,
      1693,
      1466,
      1187,
      1084,
      792,
      774,
      544,
      434,
      359,
      237,
      195,
      127,
      0
    ],
    "swim:geom": "approach",
    "swim:timestamps": [
      1769855713,
      1769855754,
      1769855784,
      1769855798,
      1769855813,
      1769855837,
      1769855855,
      1769855899,
      1769855923,
      1769855965,
      1769855991,
      1769856027,
      1769856055,
      1769856060,
      1769856115,
      1769856135,
      1769856171,
      1769856195,
      1769856230,
      1769856248,
      1769856296,
      1769856302,
      1769856355,
      1769856380,
      1769856409,
      1769856441,
      1769856453,
      1769856468,
      1769856492
    ],
    "wof:geomhash": "bde51e11d36812d153de60caeeea66f8",
    "wof:id": 2014682279,
    "wof:repo": "sfomuseum-data-flights-2026-01"
  },
  "bbox": [
    -122.35633,
    37.4923,
    -121.25896,
    37.61324
  ],
  "geometry": {"coordinates":[[-121.25896,37.59325],[-121.33632,37.58414],[-121.39195,37.5779],[-121.4165,37.57505],[-121.44475,37.57167],[-121.49091,37.5664],[-121.52308,37.5627],[-121.59787,37.55394],[-121.63677,37.54788],[-121.70165,37.53251],[-121.74352,37.52246],[-121.79642,37.50974],[-121.83637,37.50014],[-121.84401,37.49834],[-121.92549,37.4923],[-121.95633,37.49305],[-122.0096,37.50143],[-122.04384,37.51277],[-122.09058,37.52795],[-122.11329,37.53535],[-122.17338,37.55493],[-122.17958,37.55691],[-122.23863,37.57584],[-122.26217,37.58327],[-122.28709,37.59069],[-122.31461,37.59871],[-122.32474,37.60183],[-122.33752,37.60587],[-122.35633,37.61324]],"type":"LineString"}
}
