{
  "id": 2014685617,
  "type": "Feature",
  "properties": {
    "geom:area": 0,
    "geom:bbox": "-122.385810,37.634300,-121.260440,38.119210",
    "geom:latitude": 37.91200636126077,
    "geom:longitude": -121.86288964683023,
    "src:alt_label": "swim-takeoff",
    "src:geom": "swim",
    "swim:elevations": [
      398,
      647,
      1111,
      1533,
      1740,
      2402,
      2954,
      3027,
      3350,
      3442,
      3924,
      4142,
      4642,
      4869,
      5345,
      5616,
      6011,
      6301,
      6439,
      6834,
      7080,
      7416,
      295,
      558,
      764,
      1018,
      1381,
      1740,
      2230,
      2657,
      2980,
      3144,
      3778,
      4026,
      4267,
      4361,
      4587,
      5334,
      5685,
      5809,
      6181,
      6501,
      6753,
      7078,
      7159,
      7624,
      8119,
      8307,
      8472,
      8775
    ],
    "swim:geom": "takeoff",
    "swim:timestamps": [
      1769855930,
      1769855965,
      1769855997,
      1769856027,
      1769856040,
      1769856080,
      1769856115,
      1769856122,
      1769856171,
      1769856189,
      1769856223,
      1769856248,
      1769856288,
      1769856302,
      1769856332,
      1769856360,
      1769856400,
      1769856437,
      1769856453,
      1769856477,
      1769856489,
      1769856513,
      1769927542,
      1769927572,
      1769927596,
      1769927621,
      1769927659,
      1769927691,
      1769927725,
      1769927751,
      1769927778,
      1769927790,
      1769927845,
      1769927865,
      1769927896,
      1769927920,
      1769927943,
      1769927993,
      1769928021,
      1769928030,
      1769928058,
      1769928087,
      1769928108,
      1769928141,
      1769928150,
      1769928192,
      1769928233,
      1769928254,
      1769928272,
      1769928308
    ],
    "wof:geomhash": "321199155a5883a174c40656b016f87f",
    "wof:id": 2014685617,
    "wof:repo": "sfomuseum-data-flights-2026-01"
  },
  "bbox": [
    -122.38581,
    37.6343,
    -121.26044,
    38.11921
  ],
  "geometry": {"coordinates":[[-122.36005,37.63581],[-122.32882,37.65391],[-122.29362,37.67445],[-122.25657,37.69579],[-122.23888,37.705],[-122.18481,37.73297],[-122.13541,37.75876],[-122.12555,37.76383],[-122.04287,37.80663],[-122.00907,37.82389],[-121.93773,37.85304],[-121.88393,37.87455],[-121.7926,37.91042],[-121.76208,37.92224],[-121.69239,37.94958],[-121.6283,37.97484],[-121.5343,38.01186],[-121.44576,38.04668],[-121.40625,38.06217],[-121.34655,38.08555],[-121.3178,38.09683],[-121.26044,38.11921],[-122.36173,37.6343],[-122.34132,37.65144],[-122.32279,37.66766],[-122.31202,37.69046],[-122.32803,37.72999],[-122.34693,37.7654],[-122.36653,37.80535],[-122.38157,37.83657],[-122.38581,37.87207],[-122.38534,37.88866],[-122.32836,37.95131],[-122.29,37.95929],[-122.22835,37.97222],[-122.1801,37.98185],[-122.13231,37.98777],[-122.02491,37.989],[-121.96248,37.99034],[-121.94267,37.99256],[-121.88102,38.00101],[-121.81496,38.00998],[-121.76616,38.01632],[-121.68776,38.0267],[-121.66585,38.02963],[-121.56399,38.04299],[-121.46263,38.0563],[-121.40921,38.06284],[-121.36406,38.06904],[-121.27223,38.08043]],"type":"LineString"}
}
