{
  "id": 2014681193,
  "type": "Feature",
  "properties": {
    "geom:area": 0,
    "geom:bbox": "-122.359990,37.491420,-121.253430,37.615470",
    "geom:latitude": 37.54672766810283,
    "geom:longitude": -121.81177715082596,
    "src:alt_label": "swim-approach",
    "src:geom": "swim",
    "swim:elevations": [
      4755,
      4455,
      4040,
      3872,
      3719,
      3322,
      3182,
      3013,
      2852,
      2574,
      2500,
      2401,
      2166,
      2060,
      2013,
      1919,
      1828,
      1654,
      1586,
      1491,
      1208,
      892,
      731,
      629,
      456,
      399,
      303,
      214,
      127
    ],
    "swim:geom": "approach",
    "swim:timestamps": [
      1769853916,
      1769853944,
      1769853987,
      1769854005,
      1769854021,
      1769854064,
      1769854096,
      1769854135,
      1769854158,
      1769854194,
      1769854226,
      1769854248,
      1769854285,
      1769854308,
      1769854323,
      1769854341,
      1769854363,
      1769854408,
      1769854427,
      1769854451,
      1769854495,
      1769854528,
      1769854555,
      1769854577,
      1769854614,
      1769854629,
      1769854659,
      1769854682,
      1769854735
    ],
    "wof:geomhash": "1294f586bac7b74c7d9eeafc189c7661",
    "wof:id": 2014681193,
    "wof:repo": "sfomuseum-data-flights-2026-01"
  },
  "bbox": [
    -122.35999,
    37.49142,
    -121.25343,
    37.61547
  ],
  "geometry": {"coordinates":[[-121.25343,37.59397],[-121.31002,37.58688],[-121.39196,37.57797],[-121.42387,37.57437],[-121.45314,37.57096],[-121.53076,37.56181],[-121.58709,37.5552],[-121.64788,37.54527],[-121.6834,37.53691],[-121.73815,37.52374],[-121.78579,37.51225],[-121.81746,37.50463],[-121.8692,37.49281],[-121.90442,37.49142],[-121.92655,37.4919],[-121.95293,37.49272],[-121.98725,37.49567],[-122.05006,37.51491],[-122.07429,37.52278],[-122.10291,37.53206],[-122.15057,37.54745],[-122.18469,37.55853],[-122.21392,37.56808],[-122.23685,37.57543],[-122.27154,37.58607],[-122.28386,37.58965],[-122.30671,37.59632],[-122.32372,37.60109],[-122.35999,37.61547]],"type":"LineString"}
}
