{
  "id": 2014682393,
  "type": "Feature",
  "properties": {
    "geom:area": 0,
    "geom:bbox": "-122.361910,36.724190,-121.879740,37.612830",
    "geom:latitude": 37.211024927883656,
    "geom:longitude": -122.07124667805328,
    "src:alt_label": "swim-approach",
    "src:geom": "swim",
    "swim:elevations": [
      4982,
      4635,
      4537,
      4184,
      3986,
      3607,
      3489,
      3164,
      3138,
      3086,
      3073,
      2934,
      2787,
      2558,
      2147,
      2111,
      1839,
      1588,
      1539,
      1253,
      1002,
      863,
      664,
      605,
      390,
      276,
      180,
      85,
      0
    ],
    "swim:geom": "approach",
    "swim:timestamps": [
      1769880162,
      1769880199,
      1769880213,
      1769880252,
      1769880277,
      1769880323,
      1769880337,
      1769880387,
      1769880394,
      1769880417,
      1769880423,
      1769880457,
      1769880481,
      1769880512,
      1769880568,
      1769880574,
      1769880613,
      1769880656,
      1769880671,
      1769880708,
      1769880743,
      1769880772,
      1769880802,
      1769880815,
      1769880852,
      1769880876,
      1769880895,
      1769880926,
      1769880938
    ],
    "wof:geomhash": "8d9b56f2b51acfd6f2f5f1e49fd2cca6",
    "wof:id": 2014682393,
    "wof:repo": "sfomuseum-data-flights-2026-01"
  },
  "bbox": [
    -122.36191,
    36.72419,
    -121.87974,
    37.61283
  ],
  "geometry": {"coordinates":[[-121.87974,36.72419],[-121.90683,36.7871],[-121.91343,36.81062],[-121.93133,36.87473],[-121.94284,36.9157],[-121.96753,36.98837],[-121.97568,37.00945],[-122.00453,37.08372],[-122.00864,37.09443],[-122.0212,37.12663],[-122.0244,37.13491],[-122.042,37.17967],[-122.05434,37.21087],[-122.06999,37.25065],[-122.09753,37.32171],[-122.10035,37.32921],[-122.12025,37.37875],[-122.13844,37.43265],[-122.14436,37.44998],[-122.16342,37.48904],[-122.18825,37.52352],[-122.21186,37.54779],[-122.24421,37.5631],[-122.25732,37.56825],[-122.29175,37.58305],[-122.31264,37.59229],[-122.32756,37.59883],[-122.35259,37.6093],[-122.36191,37.61283]],"type":"LineString"}
}
