{
  "id": 2014686059,
  "type": "Feature",
  "properties": {
    "geom:area": 0,
    "geom:bbox": "-122.542430,36.729950,-122.192320,37.703290",
    "geom:latitude": 37.23627031175279,
    "geom:longitude": -122.4320620580882,
    "src:alt_label": "swim-takeoff",
    "src:geom": "swim",
    "swim:elevations": [
      213,
      382,
      796,
      912,
      1130,
      1601,
      1982,
      2465,
      3409,
      3665,
      3772,
      4291,
      4522,
      4896,
      5239,
      5792,
      6146,
      6451,
      6821,
      7236,
      7653,
      7856,
      8068,
      8345,
      8504,
      8762,
      8856,
      8923
    ],
    "swim:geom": "takeoff",
    "swim:timestamps": [
      1769865807,
      1769865820,
      1769865861,
      1769865873,
      1769865902,
      1769865947,
      1769865968,
      1769865997,
      1769866048,
      1769866075,
      1769866083,
      1769866125,
      1769866144,
      1769866177,
      1769866204,
      1769866249,
      1769866272,
      1769866294,
      1769866326,
      1769866365,
      1769866408,
      1769866428,
      1769866456,
      1769866487,
      1769866509,
      1769866551,
      1769866570,
      1769866590
    ],
    "wof:geomhash": "69b0b64aece85ab819d9e0739e9d37ab",
    "wof:id": 2014686059,
    "wof:repo": "sfomuseum-data-flights-2026-01"
  },
  "bbox": [
    -122.54243,
    36.72995,
    -122.19232,
    37.70329
  ],
  "geometry": {"coordinates":[[-122.36678,37.63219],[-122.36357,37.64172],[-122.36242,37.67465],[-122.36437,37.685],[-122.39093,37.70329],[-122.45047,37.69524],[-122.45824,37.67129],[-122.45806,37.63455],[-122.4684,37.56973],[-122.47516,37.53446],[-122.47728,37.52303],[-122.4879,37.46212],[-122.49267,37.43365],[-122.50106,37.38192],[-122.50843,37.33751],[-122.52085,37.26312],[-122.52727,37.22402],[-122.53347,37.18705],[-122.54243,37.13261],[-122.51427,37.06951],[-122.45456,37.00711],[-122.42744,36.97773],[-122.38823,36.93654],[-122.34331,36.88958],[-122.31179,36.85646],[-122.2493,36.79069],[-122.22257,36.7621],[-122.19232,36.72995]],"type":"LineString"}
}
